{"type":"FeatureCollection","features":[{"type":"Feature","properties":{"FID":2,"NAME":"柏树林街道","code":"610103002000","PAC":"610103","省":"陕西省","省代码":"610000","市":"西安市","市代码":"610100","类型":"乡镇","grade":4,"layer":"乡镇"},"geometry":{"type":"Polygon","coordinates":[[[108.95830742,34.26148322],[108.95593342,34.26147322],[108.95574742,34.26147222],[108.95371342,34.26146422],[108.95128742,34.26145522],[108.94950342,34.26144822],[108.94933842,34.26144722],[108.94686042,34.26146222],[108.94539042,34.26147122],[108.94343742,34.26148322],[108.94307242,34.26135922],[108.94299842,34.26112022],[108.94293242,34.26098023],[108.94284842,34.26080123],[108.94282942,34.26014624],[108.94313542,34.26002724],[108.94311942,34.25990325],[108.94272742,34.25989425],[108.94263142,34.25949925],[108.94327142,34.25949125],[108.94326642,34.25914926],[108.94405442,34.25914926],[108.94506342,34.25915426],[108.94503942,34.25862027],[108.94449742,34.25862027],[108.94449742,34.25817628],[108.94450542,34.25781428],[108.94475742,34.25779228],[108.94476242,34.25746929],[108.94544442,34.25742429],[108.94621742,34.25740929],[108.94649442,34.25740429],[108.94649142,34.25732729],[108.94641242,34.25511633],[108.94641142,34.25438934],[108.94641142,34.25386535],[108.94641142,34.25363636],[108.94625442,34.25255038],[108.94793742,34.25244038],[108.94926442,34.25246238],[108.94945242,34.25246538],[108.94959042,34.25246538],[108.95148842,34.25246338],[108.95214942,34.25246138],[108.95219542,34.25246138],[108.95223442,34.25246138],[108.95342542,34.25245938],[108.95383742,34.25245838],[108.95398942,34.25245938],[108.95552242,34.25246938],[108.95564342,34.25247038],[108.95821642,34.25248738],[108.95861242,34.25249038],[108.96102242,34.25250538],[108.96102142,34.25249338],[108.96221542,34.25250538],[108.96424742,34.25252538],[108.96768942,34.25256037],[108.96762242,34.25478034],[108.96773342,34.2570553],[108.96773442,34.2570713],[108.96774042,34.25718729],[108.96776842,34.25777728],[108.96778942,34.25821528],[108.96779442,34.25830927],[108.96787242,34.26078423],[108.96765342,34.26114522],[108.96739142,34.26140422],[108.96635942,34.26142522],[108.96628442,34.26141322],[108.96616242,34.26139422],[108.96560342,34.26130622],[108.96543942,34.26131022],[108.96518142,34.26131622],[108.96229542,34.26138622],[108.96222842,34.26138822],[108.96217742,34.26138922],[108.96187742,34.26139622],[108.95830742,34.26148322]]]}}]}