{"type":"FeatureCollection","features":[{"type":"Feature","properties":{"FID":3,"NAME":"北关街道","code":"610104003000","PAC":"610104","省":"陕西省","省代码":"610000","市":"西安市","市代码":"610100","类型":"乡镇","grade":4,"layer":"乡镇"},"geometry":{"type":"MultiPolygon","coordinates":[[[[108.94261842,34.30443646],[108.94261442,34.30371548],[108.94260942,34.30288249],[108.94478242,34.30287949],[108.94479342,34.3025425],[108.94567742,34.3025565],[108.94569942,34.3024545],[108.94772042,34.3024235],[108.94775942,34.30308349],[108.94719042,34.30306649],[108.94718542,34.30379747],[108.94557142,34.30373648],[108.94552442,34.30446246],[108.94549042,34.30499545],[108.94543142,34.30645243],[108.94453642,34.30643943],[108.94447142,34.30891138],[108.94252842,34.30894638],[108.94253442,34.30867239],[108.94256842,34.30737541],[108.94258842,34.30659942],[108.94259442,34.30637743],[108.94412942,34.30641743],[108.94410342,34.30542345],[108.94407742,34.30442746],[108.94261842,34.30443646]]],[[[108.94253442,34.27904491],[108.94611542,34.27931791],[108.94613642,34.2796719],[108.94688742,34.27992089],[108.94692042,34.28064788],[108.94571942,34.28065888],[108.94570942,34.28014489],[108.94506542,34.28012789],[108.94505442,34.28059688],[108.94411042,34.28061488],[108.94406742,34.28123587],[108.94406642,34.28168386],[108.94417342,34.28203886],[108.94423142,34.28273685],[108.94426742,34.28317484],[108.94427342,34.28323984],[108.94446342,34.2855258],[108.94521442,34.28634778],[108.94525742,34.28639478],[108.94545042,34.28733476],[108.94522142,34.28789275],[108.94522042,34.28807675],[108.94520942,34.2909667],[108.94877142,34.2909977],[108.94876242,34.29264667],[108.94875342,34.29415864],[108.94575042,34.29415664],[108.94549442,34.29415664],[108.94492442,34.29415664],[108.94432142,34.29415664],[108.94425942,34.29415664],[108.94253042,34.29415664],[108.94005142,34.29415664],[108.93711242,34.29415564],[108.93690642,34.29415664],[108.93423442,34.29415764],[108.93139642,34.29415964],[108.93137142,34.29192868],[108.93126442,34.29153169],[108.93130242,34.2911347],[108.93274042,34.2911487],[108.93284542,34.29248867],[108.93287042,34.29280467],[108.93336642,34.29279667],[108.93424642,34.29278367],[108.93469042,34.29277667],[108.93458842,34.2910357],[108.93458342,34.2909447],[108.93441542,34.2909297],[108.93443042,34.29040671],[108.93428542,34.29031871],[108.93431542,34.28988772],[108.93480442,34.28986572],[108.93481142,34.28945973],[108.93481242,34.28900673],[108.93370342,34.28904273],[108.93368842,34.28793975],[108.93377242,34.28792475],[108.93371142,34.28684077],[108.93393242,34.28682177],[108.93391742,34.28607379],[108.93435342,34.28605979],[108.93435642,34.2853558],[108.93436142,34.28421982],[108.93664742,34.28419282],[108.93660942,34.28325384],[108.93610442,34.28324984],[108.93608942,34.28300584],[108.93657842,34.28299484],[108.93657842,34.28290284],[108.93729042,34.28289684],[108.93730042,34.28169086],[108.93785742,34.28169686],[108.93782542,34.28125787],[108.93685042,34.28121787],[108.93687242,34.28060388],[108.93788042,34.28059088],[108.93787042,34.28020289],[108.93786442,34.27995789],[108.93788842,34.2797359],[108.93851042,34.2796949],[108.93854642,34.27925091],[108.93856242,34.27905391],[108.93864842,34.27851292],[108.93864842,34.27822092],[108.93872342,34.27813193],[108.93879842,34.27802593],[108.93978242,34.27801593],[108.94097742,34.27800293],[108.94098442,34.27715494],[108.94317042,34.27717894],[108.94317242,34.27771993],[108.94317342,34.27783393],[108.94317442,34.27793393],[108.94310842,34.27810693],[108.94289442,34.27839992],[108.94253642,34.27862792],[108.94253442,34.27904491]]]]}}]}