{
  "type": "FeatureCollection",
  "features": [
    {
      "type": "Feature",
      "properties": {
        "FID": 1,
        "NAME": "南院门街道",
        "code": "610103001000",
        "PAC": "610103",
        "省": "陕西省",
        "省代码": "610000",
        "市": "西安市",
        "市代码": "610100",
        "类型": "乡镇",
        "grade": 4,
        "layer": "乡镇"
      },
      "geometry": {
        "type": "Polygon",
        "coordinates": [
          [
            [
              108.90492842,
              34.24073958
            ],
            [
              108.90811842,
              34.23930661
            ],
            [
              108.91162142,
              34.23773264
            ],
            [
              108.91525742,
              34.23609966
            ],
            [
              108.91793542,
              34.23489768
            ],
            [
              108.91917242,
              34.23434969
            ],
            [
              108.91961142,
              34.2341507
            ],
            [
              108.91890242,
              34.23282872
            ],
            [
              108.91921742,
              34.23341571
            ],
            [
              108.91988642,
              34.23307972
            ],
            [
              108.91971442,
              34.23272972
            ],
            [
              108.92023542,
              34.23247673
            ],
            [
              108.92049242,
              34.23287572
            ],
            [
              108.92128042,
              34.23247773
            ],
            [
              108.92165042,
              34.23227373
            ],
            [
              108.92213342,
              34.23298372
            ],
            [
              108.92247542,
              34.23285572
            ],
            [
              108.92343142,
              34.23244573
            ],
            [
              108.92446742,
              34.23200074
            ],
            [
              108.92505542,
              34.23174874
            ],
            [
              108.92579342,
              34.23150174
            ],
            [
              108.92610842,
              34.23148874
            ],
            [
              108.92720142,
              34.23144175
            ],
            [
              108.92731842,
              34.23144175
            ],
            [
              108.93284442,
              34.23146475
            ],
            [
              108.93374742,
              34.23146874
            ],
            [
              108.93436142,
              34.23147275
            ],
            [
              108.93592042,
              34.23149674
            ],
            [
              108.93863042,
              34.23154074
            ],
            [
              108.93863042,
              34.23177074
            ],
            [
              108.94196042,
              34.23180374
            ],
            [
              108.94206142,
              34.23180474
            ],
            [
              108.94215842,
              34.23180474
            ],
            [
              108.94372442,
              34.23180874
            ],
            [
              108.94370842,
              34.23157374
            ],
            [
              108.94897442,
              34.23151474
            ],
            [
              108.94904242,
              34.23151774
            ],
            [
              108.94925242,
              34.23152774
            ],
            [
              108.94928442,
              34.23328371
            ],
            [
              108.94946142,
              34.23328371
            ],
            [
              108.94946642,
              34.2339047
            ],
            [
              108.95068942,
              34.2339047
            ],
            [
              108.95073242,
              34.23558567
            ],
            [
              108.95183042,
              34.23558467
            ],
            [
              108.95183142,
              34.23616866
            ],
            [
              108.95342442,
              34.23617766
            ],
            [
              108.95342142,
              34.23572767
            ],
            [
              108.95532342,
              34.23572467
            ],
            [
              108.95531442,
              34.23537868
            ],
            [
              108.95529642,
              34.23467369
            ],
            [
              108.95553042,
              34.23467169
            ],
            [
              108.95550942,
              34.23358071
            ],
            [
              108.95541742,
              34.23358071
            ],
            [
              108.95540742,
              34.23315972
            ],
            [
              108.95507942,
              34.23315672
            ],
            [
              108.95501542,
              34.23152074
            ],
            [
              108.95615642,
              34.23151974
            ],
            [
              108.95697742,
              34.23151874
            ],
            [
              108.95915042,
              34.23151674
            ],
            [
              108.95933242,
              34.23151674
            ],
            [
              108.96037042,
              34.23151574
            ],
            [
              108.96045642,
              34.23152974
            ],
            [
              108.96084942,
              34.23159274
            ],
            [
              108.96224242,
              34.23217273
            ],
            [
              108.96169542,
              34.23315772
            ],
            [
              108.96285442,
              34.23354771
            ],
            [
              108.96350842,
              34.23360071
            ],
            [
              108.96342342,
              34.2337787
            ],
            [
              108.96371242,
              34.2339207
            ],
            [
              108.96436742,
              34.23305972
            ],
            [
              108.96455942,
              34.23312972
            ],
            [
              108.96551642,
              34.23348071
            ],
            [
              108.96611742,
              34.23372071
            ],
            [
              108.96631442,
              34.2337987
            ],
            [
              108.96790242,
              34.23443169
            ],
            [
              108.96791942,
              34.23443869
            ],
            [
              108.96791442,
              34.23434369
            ],
            [
              108.96784842,
              34.23303772
            ],
            [
              108.96780042,
              34.23210573
            ],
            [
              108.96943642,
              34.23210173
            ],
            [
              108.97002642,
              34.23210073
            ],
            [
              108.97000642,
              34.23229373
            ],
            [
              108.96991542,
              34.23253773
            ],
            [
              108.96919042,
              34.23362771
            ],
            [
              108.96849842,
              34.23466669
            ],
            [
              108.96874342,
              34.23476469
            ],
            [
              108.96891842,
              34.23449869
            ],
            [
              108.97009542,
              34.23271572
            ],
            [
              108.97028842,
              34.23180174
            ],
            [
              108.97141042,
              34.23183674
            ],
            [
              108.97197242,
              34.23185474
            ],
            [
              108.97265942,
              34.23205873
            ],
            [
              108.97428942,
              34.23273972
            ],
            [
              108.97431842,
              34.23275172
            ],
            [
              108.97667142,
              34.23373571
            ],
            [
              108.97456842,
              34.23721264
            ],
            [
              108.97481342,
              34.23729964
            ],
            [
              108.97524242,
              34.23662165
            ],
            [
              108.97593442,
              34.23686965
            ],
            [
              108.97550542,
              34.23759264
            ],
            [
              108.97661542,
              34.23805963
            ],
            [
              108.97687242,
              34.23753664
            ],
            [
              108.97738142,
              34.23774963
            ],
            [
              108.97719442,
              34.23798963
            ],
            [
              108.97701242,
              34.23821963
            ],
            [
              108.97803142,
              34.23863562
            ],
            [
              108.97868642,
              34.23808563
            ],
            [
              108.97947442,
              34.23832562
            ],
            [
              108.97893242,
              34.23900861
            ],
            [
              108.98375242,
              34.24103958
            ],
            [
              108.98761542,
              34.24270255
            ],
            [
              108.98789942,
              34.24238855
            ],
            [
              108.99021442,
              34.24315854
            ],
            [
              108.99042442,
              34.24322854
            ],
            [
              108.99098242,
              34.24348553
            ],
            [
              108.99083742,
              34.24375253
            ],
            [
              108.99060342,
              34.24398853
            ],
            [
              108.99163742,
              34.24428252
            ],
            [
              108.99206842,
              34.24418852
            ],
            [
              108.99234242,
              34.24429952
            ],
            [
              108.99245242,
              34.24466451
            ],
            [
              108.99618842,
              34.24466851
            ],
            [
              108.99736742,
              34.24466951
            ],
            [
              108.99851942,
              34.24467051
            ],
            [
              109.00097242,
              34.24467251
            ],
            [
              109.00170042,
              34.24467351
            ],
            [
              109.00170642,
              34.24617249
            ],
            [
              109.00171342,
              34.24776146
            ],
            [
              109.00171442,
              34.24793446
            ],
            [
              109.00172042,
              34.24932043
            ],
            [
              108.99922042,
              34.24926743
            ],
            [
              108.99917742,
              34.25076641
            ],
            [
              108.99850142,
              34.25074041
            ],
            [
              108.99846942,
              34.25012842
            ],
            [
              108.99719542,
              34.25012042
            ],
            [
              108.99645542,
              34.25011542
            ],
            [
              108.99293742,
              34.25009242
            ],
            [
              108.99298042,
              34.25212238
            ],
            [
              108.99249242,
              34.25214938
            ],
            [
              108.99250842,
              34.25253038
            ],
            [
              108.99201142,
              34.25254137
            ],
            [
              108.99201042,
              34.25276337
            ],
            [
              108.99409142,
              34.25269237
            ],
            [
              108.99409042,
              34.25489133
            ],
            [
              108.99699142,
              34.25494433
            ],
            [
              108.99700942,
              34.25494433
            ],
            [
              108.99704242,
              34.2566233
            ],
            [
              108.99704342,
              34.2566963
            ],
            [
              108.99705342,
              34.25724329
            ],
            [
              108.99705842,
              34.25746929
            ],
            [
              108.99706542,
              34.25786928
            ],
            [
              108.99707242,
              34.25820828
            ],
            [
              108.99708042,
              34.25865727
            ],
            [
              108.99709442,
              34.25936026
            ],
            [
              108.99454142,
              34.25934226
            ],
            [
              108.99454142,
              34.26065523
            ],
            [
              108.99338242,
              34.26070823
            ],
            [
              108.99250242,
              34.26065523
            ],
            [
              108.99229042,
              34.26056323
            ],
            [
              108.99196742,
              34.26042224
            ],
            [
              108.99186642,
              34.26081723
            ],
            [
              108.99148742,
              34.26130522
            ],
            [
              108.99096142,
              34.26200621
            ],
            [
              108.99181342,
              34.2623402
            ],
            [
              108.99310042,
              34.26218021
            ],
            [
              108.99497842,
              34.26211821
            ],
            [
              108.99587942,
              34.26203821
            ],
            [
              108.99604042,
              34.26189721
            ],
            [
              108.99837942,
              34.26188821
            ],
            [
              108.99842242,
              34.2624912
            ],
            [
              108.99542942,
              34.26506216
            ],
            [
              108.99475342,
              34.26508015
            ],
            [
              108.99475342,
              34.26531015
            ],
            [
              108.99399142,
              34.26534615
            ],
            [
              108.99386242,
              34.26564714
            ],
            [
              108.99576142,
              34.26567414
            ],
            [
              108.99574242,
              34.2680851
            ],
            [
              108.99396142,
              34.2681211
            ],
            [
              108.99403642,
              34.26914908
            ],
            [
              108.99266442,
              34.26916108
            ],
            [
              108.99081742,
              34.26917608
            ],
            [
              108.99080542,
              34.26941108
            ],
            [
              108.99038642,
              34.26941508
            ],
            [
              108.98954242,
              34.26926808
            ],
            [
              108.98929942,
              34.26933508
            ],
            [
              108.98932342,
              34.26963907
            ],
            [
              108.98880142,
              34.26963408
            ],
            [
              108.98838942,
              34.26963008
            ],
            [
              108.98838542,
              34.26992707
            ],
            [
              108.98679542,
              34.26989607
            ],
            [
              108.98651842,
              34.26989107
            ],
            [
              108.98630542,
              34.26984007
            ],
            [
              108.98628742,
              34.26960508
            ],
            [
              108.98606642,
              34.26961108
            ],
            [
              108.98606842,
              34.26937308
            ],
            [
              108.98502842,
              34.26938308
            ],
            [
              108.98325342,
              34.26940008
            ],
            [
              108.98234842,
              34.26940908
            ],
            [
              108.98232442,
              34.2684281
            ],
            [
              108.98159342,
              34.2684381
            ],
            [
              108.98155842,
              34.26687412
            ],
            [
              108.98069342,
              34.26689412
            ],
            [
              108.98059542,
              34.26689612
            ],
            [
              108.98059842,
              34.26733912
            ],
            [
              108.98060242,
              34.26788611
            ],
            [
              108.98034442,
              34.26788911
            ],
            [
              108.98035342,
              34.2680921
            ],
            [
              108.97968242,
              34.2681091
            ],
            [
              108.97969742,
              34.26849909
            ],
            [
              108.97866142,
              34.2684781
            ],
            [
              108.97748042,
              34.2684541
            ],
            [
              108.97627542,
              34.2684291
            ],
            [
              108.97616742,
              34.2683641
            ],
            [
              108.97582342,
              34.2683671
            ],
            [
              108.97527042,
              34.2683721
            ],
            [
              108.97357442,
              34.2683881
            ],
            [
              108.97157042,
              34.2684061
            ],
            [
              108.97153142,
              34.2684061
            ],
            [
              108.97045142,
              34.2684171
            ],
            [
              108.96893642,
              34.26873909
            ],
            [
              108.96791542,
              34.26895709
            ],
            [
              108.96746842,
              34.26905208
            ],
            [
              108.96747342,
              34.26883509
            ],
            [
              108.96748742,
              34.2682771
            ],
            [
              108.96750342,
              34.26759911
            ],
            [
              108.96751042,
              34.26729712
            ],
            [
              108.96752642,
              34.26662713
            ],
            [
              108.96754642,
              34.26578914
            ],
            [
              108.96757542,
              34.26459616
            ],
            [
              108.96757742,
              34.26449716
            ],
            [
              108.96758742,
              34.26408717
            ],
            [
              108.96760342,
              34.26342018
            ],
            [
              108.96760442,
              34.26338818
            ],
            [
              108.96760542,
              34.26335519
            ],
            [
              108.96760742,
              34.26327219
            ],
            [
              108.96762142,
              34.2626862
            ],
            [
              108.96773442,
              34.26182821
            ],
            [
              108.96776342,
              34.26160822
            ],
            [
              108.96777642,
              34.26151122
            ],
            [
              108.96778542,
              34.26143922
            ],
            [
              108.96786942,
              34.26080623
            ],
            [
              108.96787242,
              34.26078423
            ],
            [
              108.96765342,
              34.26114522
            ],
            [
              108.96739142,
              34.26140422
            ],
            [
              108.96635942,
              34.26142522
            ],
            [
              108.96628442,
              34.26141322
            ],
            [
              108.96616242,
              34.26139422
            ],
            [
              108.96560342,
              34.26130622
            ],
            [
              108.96543942,
              34.26131022
            ],
            [
              108.96518142,
              34.26131622
            ],
            [
              108.96229542,
              34.26138622
            ],
            [
              108.96222842,
              34.26138822
            ],
            [
              108.96217742,
              34.26138922
            ],
            [
              108.96187742,
              34.26139622
            ],
            [
              108.95830742,
              34.26148322
            ],
            [
              108.95593342,
              34.26147322
            ],
            [
              108.95574742,
              34.26147222
            ],
            [
              108.95371342,
              34.26146422
            ],
            [
              108.95128742,
              34.26145522
            ],
            [
              108.94950342,
              34.26144822
            ],
            [
              108.94933842,
              34.26144722
            ],
            [
              108.94686042,
              34.26146222
            ],
            [
              108.94539042,
              34.26147122
            ],
            [
              108.94343742,
              34.26148322
            ],
            [
              108.94307242,
              34.26135922
            ],
            [
              108.94299842,
              34.26112022
            ],
            [
              108.94293242,
              34.26098023
            ],
            [
              108.94284842,
              34.26080123
            ],
            [
              108.94229042,
              34.26071323
            ],
            [
              108.94160342,
              34.26065923
            ],
            [
              108.94010142,
              34.26055323
            ],
            [
              108.93874942,
              34.26050024
            ],
            [
              108.93769342,
              34.26048724
            ],
            [
              108.93731142,
              34.26048224
            ],
            [
              108.93630742,
              34.26048624
            ],
            [
              108.93569542,
              34.26048824
            ],
            [
              108.93563142,
              34.26048824
            ],
            [
              108.93434842,
              34.26049324
            ],
            [
              108.93174542,
              34.26050324
            ],
            [
              108.93177942,
              34.25834527
            ],
            [
              108.93179642,
              34.25730329
            ],
            [
              108.93180142,
              34.2570073
            ],
            [
              108.93186142,
              34.25324636
            ],
            [
              108.93176442,
              34.25259037
            ],
            [
              108.93134642,
              34.25258937
            ],
            [
              108.93140942,
              34.25220338
            ],
            [
              108.92798042,
              34.25220138
            ],
            [
              108.92524642,
              34.25220138
            ],
            [
              108.92294842,
              34.25220038
            ],
            [
              108.91989842,
              34.25219938
            ],
            [
              108.91871742,
              34.25219938
            ],
            [
              108.91872042,
              34.25017942
            ],
            [
              108.91555142,
              34.25018842
            ],
            [
              108.91556442,
              34.24952843
            ],
            [
              108.91546742,
              34.24952743
            ],
            [
              108.91062942,
              34.24954843
            ],
            [
              108.90901342,
              34.24955643
            ],
            [
              108.90896842,
              34.24896144
            ],
            [
              108.90884142,
              34.24894744
            ],
            [
              108.90883442,
              34.24825845
            ],
            [
              108.90651042,
              34.24822345
            ],
            [
              108.90624142,
              34.24775946
            ],
            [
              108.90544542,
              34.24675248
            ],
            [
              108.90545042,
              34.24614649
            ],
            [
              108.90537442,
              34.24614749
            ],
            [
              108.90541042,
              34.24320954
            ],
            [
              108.90543142,
              34.24150557
            ],
            [
              108.90492842,
              34.24073958
            ]
          ]
        ]
      }
    }
  ],
  "_bbox": [
    108.90492842,
    34.23144175,
    109.00172042,
    34.26992707
  ]
}