{"type":"FeatureCollection","features":[{"type":"Feature","properties":{"FID":2,"NAME":"北院门街道","code":"610104002000","PAC":"610104","省":"陕西省","省代码":"610000","市":"西安市","市代码":"610100","类型":"乡镇","grade":4,"layer":"乡镇"},"geometry":{"type":"Polygon","coordinates":[[[108.92524642,34.25220138],[108.92751942,34.25220138],[108.92798042,34.25220138],[108.93140942,34.25220338],[108.93134642,34.25258937],[108.93176442,34.25259037],[108.93186142,34.25324636],[108.93180142,34.2570073],[108.93179642,34.25730329],[108.93177942,34.25834527],[108.93174542,34.26050324],[108.93434842,34.26049324],[108.93563142,34.26048824],[108.93569542,34.26048824],[108.93630742,34.26048624],[108.93731142,34.26048224],[108.93769342,34.26048724],[108.93874942,34.26050024],[108.94010142,34.26055323],[108.94160342,34.26065923],[108.94229042,34.26071323],[108.94284842,34.26080123],[108.94280542,34.26128022],[108.94243242,34.26170921],[108.94247042,34.26326219],[108.94250142,34.26453016],[108.94253342,34.26586814],[108.94253442,34.26592714],[108.94254042,34.26616914],[108.94253542,34.26755111],[108.94253142,34.2684391],[108.94210042,34.26860609],[108.94199342,34.26864709],[108.94196042,34.26864609],[108.94141342,34.26862509],[108.94141942,34.26949808],[108.93874642,34.26948308],[108.93872842,34.26862909],[108.93839042,34.26851809],[108.93832542,34.26848209],[108.93814042,34.26848409],[108.93793142,34.26848709],[108.93793042,34.26939908],[108.93407542,34.26928108],[108.93381942,34.26900009],[108.93381242,34.2683261],[108.93381142,34.2682161],[108.93372442,34.2682211],[108.93371742,34.26781311],[108.93344242,34.26780911],[108.93344942,34.2682251],[108.93312142,34.2682361],[108.93198842,34.2682351],[108.93197142,34.2684031],[108.93170742,34.2684591],[108.93060842,34.2684631],[108.93029742,34.2684641],[108.92998642,34.2684781],[108.92999242,34.26860009],[108.92949842,34.26859609],[108.92949742,34.2684771],[108.92894542,34.2684551],[108.92846742,34.26868809],[108.92846742,34.26928708],[108.92792142,34.26926708],[108.92791442,34.26986207],[108.92593342,34.26983007],[108.92296842,34.26960908],[108.92229642,34.26958708],[108.92165342,34.26956608],[108.92147042,34.26956008],[108.92131542,34.26956008],[108.92088142,34.26955708],[108.92085842,34.26955808],[108.91955942,34.26962508],[108.91954642,34.26702512],[108.91953642,34.26502916],[108.91952742,34.26335119],[108.91952042,34.2625682],[108.91952742,34.26206521],[108.91896942,34.26155022],[108.91896342,34.26136322],[108.91895442,34.26109023],[108.91894842,34.26094723],[108.91892442,34.26023724],[108.91909242,34.25952325],[108.91968842,34.25907426],[108.91977942,34.25892126],[108.91972142,34.25718629],[108.91957242,34.25278437],[108.91989842,34.25219938],[108.92294842,34.25220038],[108.92524642,34.25220138]]]}}]}