{"type":"FeatureCollection","features":[{"type":"Feature","properties":{"FID":7,"NAME":"长安路街道","code":"610103007000","PAC":"610103","省":"陕西省","省代码":"610000","市":"西安市","市代码":"610100","类型":"乡镇","grade":4,"layer":"乡镇"},"geometry":{"type":"Polygon","coordinates":[[[108.94206142,34.23180474],[108.94215842,34.23180474],[108.94372442,34.23180874],[108.94370842,34.23157374],[108.94897442,34.23151474],[108.94895842,34.23197074],[108.94789242,34.23197974],[108.94788642,34.23227073],[108.94669542,34.23227473],[108.94668442,34.23254873],[108.94615842,34.23254773],[108.94614342,34.23303872],[108.94771442,34.23307372],[108.94824942,34.23327571],[108.94838542,34.23356971],[108.94836142,34.2340177],[108.94836642,34.2342927],[108.94822742,34.23459469],[108.94809242,34.23534068],[108.94806842,34.23553967],[108.94803042,34.23585267],[108.94801742,34.23595467],[108.94793642,34.23631366],[108.94789042,34.23667765],[108.94778742,34.23692465],[108.94764242,34.23723164],[108.94761842,34.23727264],[108.94756542,34.23736364],[108.94736942,34.23769764],[108.94691242,34.23819463],[108.94676942,34.23826663],[108.94679642,34.23856462],[108.94681142,34.23906061],[108.94807242,34.23906461],[108.94807242,34.23923261],[108.94807242,34.24003959],[108.94807842,34.24053659],[108.94808142,34.24082458],[108.94809142,34.24139657],[108.94809642,34.24209756],[108.94859442,34.24210056],[108.94859942,34.24266355],[108.94906542,34.24266355],[108.94902942,34.24270955],[108.94899342,34.24275655],[108.94886042,34.24292754],[108.94858142,34.24293254],[108.94833442,34.24293254],[108.94828042,34.24295954],[108.94826942,34.24345253],[108.94860442,34.24352153],[108.94861142,34.24391053],[108.94860042,34.24480051],[108.94860042,34.24503751],[108.94860042,34.24515351],[108.94860042,34.2454745],[108.94860042,34.24585149],[108.94837642,34.24585149],[108.94837142,34.24641448],[108.94859942,34.24649548],[108.94811542,34.24648348],[108.94737542,34.24647048],[108.94734242,34.24722447],[108.94733742,34.24732647],[108.94573842,34.24732647],[108.94573642,34.24748846],[108.94572842,34.24836245],[108.94630342,34.24837145],[108.94630242,34.24867644],[108.94630242,34.24883244],[108.94630142,34.24918043],[108.94652642,34.24922043],[108.94653142,34.24957143],[108.94786342,34.24955443],[108.94793842,34.24965343],[108.94796142,34.2508964],[108.94794642,34.25188739],[108.94793842,34.25237638],[108.94793742,34.25244038],[108.94625442,34.25255038],[108.94618542,34.25248138],[108.94397442,34.25244238],[108.94351542,34.25188839],[108.94323942,34.25168939],[108.94223342,34.25173739],[108.94213942,34.25174239],[108.94199542,34.25174939],[108.94092942,34.25180039],[108.94082142,34.25202938],[108.94069142,34.25212338],[108.94034742,34.25237538],[108.94009842,34.25239638],[108.93817342,34.25255938],[108.93814442,34.25256237],[108.93703642,34.25256537],[108.93511542,34.25256937],[108.93434842,34.25255038],[108.93435042,34.25234138],[108.93435342,34.25202738],[108.93382842,34.25202238],[108.93381442,34.2510094],[108.93381042,34.25075641],[108.93380342,34.25008942],[108.93350342,34.24996542],[108.93349242,34.24929143],[108.93349342,34.24866344],[108.93349342,34.24812045],[108.93385242,34.24810245],[108.93384942,34.24705647],[108.93384242,34.24665548],[108.93383642,34.24634448],[108.93383742,34.2454425],[108.93424642,34.2454425],[108.93424542,34.24497751],[108.93390142,34.24497651],[108.93391642,34.24355953],[108.93384842,34.24273855],[108.93384442,34.24268655],[108.93384042,34.24264555],[108.93378642,34.24198356],[108.93381842,34.24055559],[108.93367742,34.2399046],[108.93359142,34.23859162],[108.93369042,34.23725964],[108.93434542,34.23721964],[108.93434042,34.23694665],[108.93388442,34.23693765],[108.93391542,34.23652866],[108.93397042,34.23581967],[108.93401842,34.23319971],[108.93190942,34.23317671],[108.93194142,34.23280872],[108.93198442,34.23249373],[108.93198442,34.23232973],[108.93286142,34.23232273],[108.93292542,34.23232173],[108.93409042,34.23231173],[108.93410142,34.23195174],[108.93380642,34.23168574],[108.93374742,34.23146874],[108.93436142,34.23147275],[108.93592042,34.23149674],[108.93863042,34.23154074],[108.93863042,34.23177074],[108.94196042,34.23180374],[108.94206142,34.23180474]]]}}]}