{"type":"FeatureCollection","features":[{"type":"Feature","properties":{"FID":2,"NAME":"长乐中路街道","code":"610102002000","PAC":"610102","省":"陕西省","省代码":"610000","市":"西安市","市代码":"610100","类型":"乡镇","grade":4,"layer":"乡镇"},"geometry":{"type":"MultiPolygon","coordinates":[[[[108.991815,34.260741],[108.991748,34.260881],[108.991298,34.261462],[108.991075,34.261757],[108.990941,34.261934],[108.990942,34.261934],[108.99093,34.261949],[108.991579,34.262209],[108.991507,34.262328],[108.991794,34.262364],[108.992419,34.262368],[108.992427,34.262492],[108.99328,34.262417],[108.993398,34.262098],[108.994873,34.262056],[108.995147,34.262032],[108.995147,34.262034],[108.995361,34.262014],[108.995576,34.261996],[108.995576,34.261995],[108.995769,34.261978],[108.99593,34.261836],[108.998261,34.261834],[108.998266,34.261934],[108.998268,34.261934],[108.998304,34.262439],[108.995576,34.264794],[108.995576,34.264793],[108.995361,34.26498],[108.995324,34.265011],[108.994688,34.265024],[108.994688,34.265261],[108.994651,34.265257],[108.993891,34.265288],[108.993765,34.265589],[108.995147,34.265618],[108.995147,34.265618],[108.995361,34.265622],[108.995576,34.265625],[108.995576,34.265625],[108.995587,34.265625],[108.995589,34.266334],[108.995613,34.267498],[108.995562,34.267883],[108.995522,34.268045],[108.995361,34.26805],[108.995147,34.268052],[108.995147,34.268053],[108.993948,34.26807],[108.993948,34.269271],[108.990726,34.269247],[108.990721,34.269344],[108.990659,34.269526],[108.990643,34.270659],[108.990641,34.270659],[108.990641,34.270836],[108.990639,34.270985],[108.990638,34.271013],[108.990639,34.271013],[108.990638,34.271084],[108.994811,34.271153],[108.994761,34.274147],[108.995147,34.274152],[108.995147,34.274152],[108.995361,34.274154],[108.995508,34.274155],[108.995576,34.274158],[108.995576,34.274156],[108.99611,34.274161],[108.99611,34.273899],[108.996879,34.273864],[108.996871,34.272625],[108.997732,34.272627],[108.997722,34.273695],[108.999857,34.273717],[108.999865,34.27428],[108.999854,34.275205],[108.999865,34.275471],[108.999934,34.275468],[109.001538,34.275508],[109.001538,34.278846],[109.006133,34.278903],[109.006133,34.278904],[109.006348,34.278906],[109.006562,34.278908],[109.006562,34.278908],[109.007254,34.278915],[109.00936,34.27893],[109.009362,34.279737],[109.00936,34.279737],[109.009362,34.279914],[109.009362,34.280092],[109.009363,34.280092],[109.009389,34.286944],[109.009392,34.288992],[109.009392,34.289169],[109.009394,34.289169],[109.009397,34.289572],[109.010103,34.289586],[109.011795,34.290747],[109.012683,34.291146],[109.012621,34.291412],[109.011626,34.291866],[109.011396,34.292185],[109.010824,34.292593],[109.010518,34.292932],[109.012407,34.292936],[109.012407,34.292983],[109.013364,34.292941],[109.014392,34.292566],[109.015167,34.292278],[109.015633,34.292079],[109.015918,34.291935],[109.01617,34.291769],[109.016454,34.291613],[109.017058,34.291135],[109.017119,34.291071],[109.017119,34.291073],[109.017329,34.290853],[109.017288,34.290822],[109.017334,34.290778],[109.017431,34.29068],[109.017549,34.290563],[109.017549,34.290563],[109.017653,34.290459],[109.017704,34.290348],[109.017766,34.290366],[109.01805,34.289967],[109.017986,34.28994],[109.018029,34.289841],[109.018388,34.289249],[109.018536,34.289291],[109.018686,34.289083],[109.018734,34.288992],[109.0189,34.288688],[109.018857,34.288679],[109.018911,34.288507],[109.01912,34.288199],[109.019399,34.287547],[109.019442,34.287551],[109.01959,34.287121],[109.019777,34.286277],[109.020056,34.279914],[109.020064,34.279737],[109.020064,34.279737],[109.020091,34.279134],[109.020075,34.27868],[109.020118,34.277596],[109.020177,34.277197],[109.020276,34.274905],[109.02033,34.274254],[109.020274,34.274249],[109.02029,34.274079],[109.020343,34.274083],[109.020461,34.272611],[109.020478,34.272175],[109.020381,34.27217],[109.020421,34.271146],[109.020518,34.270836],[109.020636,34.270466],[109.021408,34.268205],[109.021322,34.268183],[109.021473,34.267755],[109.021556,34.267773],[109.021923,34.2667],[109.021424,34.265833],[109.021309,34.265576],[109.02118,34.265407],[109.020971,34.265414],[109.020974,34.265026],[109.02066,34.264377],[109.020528,34.264142],[109.020488,34.263796],[109.020443,34.263534],[109.020201,34.263539],[109.020199,34.263559],[109.01985,34.263563],[109.018404,34.263557],[109.017787,34.263563],[109.017334,34.26355],[109.016918,34.263543],[109.016376,34.263545],[109.01525,34.26359],[109.013882,34.263594],[109.013126,34.263612],[109.013091,34.263051],[109.011798,34.263107],[109.011803,34.263042],[109.011688,34.263042],[109.011506,34.263071],[109.011506,34.26312],[109.011412,34.263124],[109.01139,34.263],[109.014982,34.262989],[109.014984,34.262898],[109.015014,34.262541],[109.015035,34.261781],[109.015161,34.261757],[109.015518,34.261688],[109.015808,34.260927],[109.017334,34.261242],[109.017396,34.261253],[109.017428,34.261934],[109.017429,34.261934],[109.017436,34.262065],[109.01742,34.262929],[109.017479,34.262936],[109.017549,34.262938],[109.017549,34.262938],[109.01805,34.262954],[109.018093,34.26255],[109.018104,34.262111],[109.01812,34.261757],[109.01812,34.261757],[109.018133,34.261462],[109.018141,34.261096],[109.018254,34.2611],[109.020274,34.261085],[109.020327,34.260852],[109.02051,34.260462],[109.020515,34.26044],[109.020437,34.260435],[109.019201,34.260438],[109.017334,34.260324],[109.017254,34.260318],[109.017201,34.260318],[109.017157,34.260316],[109.011084,34.260404],[109.006562,34.260419],[109.006562,34.260418],[109.006348,34.26042],[109.006133,34.26042],[109.006133,34.26042],[109.002483,34.260429],[108.998298,34.260429],[108.995576,34.26054],[108.995576,34.26054],[108.995361,34.260548],[108.995147,34.260557],[108.995147,34.260557],[108.99328,34.260635],[108.992406,34.260579],[108.991872,34.260344],[108.991815,34.260741]]]]}}]}