{
  "type": "FeatureCollection",
  "features": [
    {
      "type": "Feature",
      "properties": {
        "FID": 3,
        "NAME": "杜城街道",
        "code": "610113003000",
        "PAC": "610113",
        "省": "陕西省",
        "省代码": "610000",
        "市": "西安市",
        "市代码": "610100",
        "类型": "乡镇",
        "grade": 4,
        "layer": "乡镇",
        "name": "杜城街道"
      },
      "geometry": {
        "type": "Polygon",
        "coordinates": [
          [
            [
              108.911011,
              34.189530999999995
            ],
            [
              108.91122194061614,
              34.189389435408714
            ],
            [
              108.91122314483395,
              34.18938938911143
            ],
            [
              108.91434802403946,
              34.1892692502009
            ],
            [
              108.91901543676856,
              34.18895625148211
            ],
            [
              108.92422936802906,
              34.188300338535626
            ],
            [
              108.92916453127236,
              34.187678753107704
            ],
            [
              108.93452912403329,
              34.18741272985983
            ],
            [
              108.94085934349124,
              34.18751913925967
            ],
            [
              108.94583768557338,
              34.18812212332305
            ],
            [
              108.94562310186294,
              34.18546186707259
            ],
            [
              108.94583768557338,
              34.18322718698537
            ],
            [
              108.94635268647843,
              34.18067319439978
            ],
            [
              108.94633063435992,
              34.179408926248065
            ],
            [
              108.94613750902053,
              34.178451144743704
            ],
            [
              108.94571907078513,
              34.17717408582567
            ],
            [
              108.9452040698801,
              34.17557773499818
            ],
            [
              108.94496799931194,
              34.175253837707565
            ],
            [
              108.94498410356685,
              34.17502601703132
            ],
            [
              108.948482,
              34.17508
            ],
            [
              108.948269,
              34.176198
            ],
            [
              108.948222,
              34.177008
            ],
            [
              108.94819199999999,
              34.17752
            ],
            [
              108.948055,
              34.178395
            ],
            [
              108.951173,
              34.178762
            ],
            [
              108.95118599999999,
              34.180098
            ],
            [
              108.95571299999999,
              34.180229
            ],
            [
              108.955756,
              34.180319
            ],
            [
              108.955591,
              34.184107
            ],
            [
              108.957822,
              34.184373
            ],
            [
              108.95731099999999,
              34.185798999999996
            ],
            [
              108.958323,
              34.185963
            ],
            [
              108.958332,
              34.186296
            ],
            [
              108.95947,
              34.186374
            ],
            [
              108.95934299999999,
              34.188015
            ],
            [
              108.963437,
              34.188399
            ],
            [
              108.970556,
              34.188445
            ],
            [
              108.970535,
              34.196473
            ],
            [
              108.970502,
              34.197147
            ],
            [
              108.97048099999999,
              34.197431
            ],
            [
              108.970331,
              34.198505
            ],
            [
              108.970266,
              34.199099
            ],
            [
              108.973874,
              34.199072
            ],
            [
              108.97724799999999,
              34.199298999999996
            ],
            [
              108.977104,
              34.199574
            ],
            [
              108.977012,
              34.199779
            ],
            [
              108.976975,
              34.199987
            ],
            [
              108.976975,
              34.200058
            ],
            [
              108.976964,
              34.200196
            ],
            [
              108.97698,
              34.200320999999995
            ],
            [
              108.977007,
              34.200463
            ],
            [
              108.977114,
              34.200778
            ],
            [
              108.977173,
              34.201
            ],
            [
              108.97724799999999,
              34.201359
            ],
            [
              108.977297,
              34.201732
            ],
            [
              108.977297,
              34.202162
            ],
            [
              108.97728099999999,
              34.202304
            ],
            [
              108.9772,
              34.202557
            ],
            [
              108.977109,
              34.202760999999995
            ],
            [
              108.976986,
              34.202920999999996
            ],
            [
              108.976852,
              34.203067
            ],
            [
              108.976644,
              34.203247
            ],
            [
              108.97638699999999,
              34.203441999999995
            ],
            [
              108.97628999999999,
              34.2035
            ],
            [
              108.975523,
              34.203908
            ],
            [
              108.975421,
              34.203973999999995
            ],
            [
              108.975298,
              34.204085
            ],
            [
              108.975217,
              34.204187
            ],
            [
              108.97501899999999,
              34.204671
            ],
            [
              108.974976,
              34.204702
            ],
            [
              108.97490599999999,
              34.204724
            ],
            [
              108.97388099999999,
              34.20472
            ],
            [
              108.973878,
              34.205568
            ],
            [
              108.97383599999999,
              34.210713999999996
            ],
            [
              108.96935099999999,
              34.210678
            ],
            [
              108.968437,
              34.210501
            ],
            [
              108.968431,
              34.210899999999995
            ],
            [
              108.96721199999999,
              34.210923
            ],
            [
              108.967203,
              34.211739
            ],
            [
              108.966815,
              34.211779
            ],
            [
              108.966793,
              34.212063
            ],
            [
              108.966122,
              34.212095999999995
            ],
            [
              108.966112,
              34.212537999999995
            ],
            [
              108.96556799999999,
              34.212565999999995
            ],
            [
              108.96554599999999,
              34.213243999999996
            ],
            [
              108.96488199999999,
              34.213257
            ],
            [
              108.964891,
              34.215019999999996
            ],
            [
              108.96427,
              34.215035
            ],
            [
              108.96417199999999,
              34.214047
            ],
            [
              108.963624,
              34.214057
            ],
            [
              108.96366499999999,
              34.214988
            ],
            [
              108.96373299999999,
              34.215001
            ],
            [
              108.963737,
              34.215085
            ],
            [
              108.963506,
              34.21507
            ],
            [
              108.962389,
              34.214932
            ],
            [
              108.962391,
              34.214906
            ],
            [
              108.96246,
              34.21396
            ],
            [
              108.961806,
              34.213865
            ],
            [
              108.961773,
              34.21386
            ],
            [
              108.959398,
              34.213513
            ],
            [
              108.95909999999999,
              34.21347
            ],
            [
              108.959013,
              34.213291
            ],
            [
              108.958798,
              34.213114
            ],
            [
              108.958794,
              34.211784
            ],
            [
              108.95633099999999,
              34.211664999999996
            ],
            [
              108.954706,
              34.211587
            ],
            [
              108.95424799999999,
              34.211704999999995
            ],
            [
              108.954252,
              34.212131
            ],
            [
              108.95188399999999,
              34.212154999999996
            ],
            [
              108.951887,
              34.213155
            ],
            [
              108.951892,
              34.215408
            ],
            [
              108.951893,
              34.215621
            ],
            [
              108.951893,
              34.215692
            ],
            [
              108.951894,
              34.215972
            ],
            [
              108.95189599999999,
              34.216712
            ],
            [
              108.951808,
              34.216709
            ],
            [
              108.95173299999999,
              34.216707
            ],
            [
              108.95174399999999,
              34.213218
            ],
            [
              108.94972299999999,
              34.213251
            ],
            [
              108.948762,
              34.213267
            ],
            [
              108.947616,
              34.213287
            ],
            [
              108.94750599999999,
              34.215246
            ],
            [
              108.94567599999999,
              34.215233999999995
            ],
            [
              108.945675,
              34.213899999999995
            ],
            [
              108.945595,
              34.213699999999996
            ],
            [
              108.945582,
              34.21329
            ],
            [
              108.94232099999999,
              34.21329
            ],
            [
              108.94221999999999,
              34.213699
            ],
            [
              108.943507,
              34.213727
            ],
            [
              108.943552,
              34.214605999999996
            ],
            [
              108.944637,
              34.214602
            ],
            [
              108.94466299999999,
              34.214687999999995
            ],
            [
              108.945049,
              34.214798
            ],
            [
              108.945088,
              34.215672999999995
            ],
            [
              108.945179,
              34.215695
            ],
            [
              108.94512399999999,
              34.216253
            ],
            [
              108.944147,
              34.216226
            ],
            [
              108.943815,
              34.216015
            ],
            [
              108.94180999999999,
              34.215676
            ],
            [
              108.94180899999999,
              34.215906
            ],
            [
              108.94113499999999,
              34.215900999999995
            ],
            [
              108.94113499999999,
              34.215419
            ],
            [
              108.938255,
              34.215395
            ],
            [
              108.938244,
              34.213325
            ],
            [
              108.933532,
              34.213342
            ],
            [
              108.933476,
              34.213654999999996
            ],
            [
              108.933365,
              34.21366
            ],
            [
              108.93435799999999,
              34.214341999999995
            ],
            [
              108.932127,
              34.214169999999996
            ],
            [
              108.931612,
              34.214171
            ],
            [
              108.93069,
              34.214214999999996
            ],
            [
              108.929362,
              34.213834999999996
            ],
            [
              108.929169,
              34.21378
            ],
            [
              108.927088,
              34.213695
            ],
            [
              108.927162,
              34.214732
            ],
            [
              108.92685999999999,
              34.214732999999995
            ],
            [
              108.926876,
              34.215471
            ],
            [
              108.92689,
              34.216139999999996
            ],
            [
              108.921662,
              34.216189
            ],
            [
              108.921555,
              34.216190999999995
            ],
            [
              108.921538,
              34.219006
            ],
            [
              108.92065099999999,
              34.219017
            ],
            [
              108.919927,
              34.218998
            ],
            [
              108.91893999999999,
              34.218998
            ],
            [
              108.918897,
              34.218004
            ],
            [
              108.918897,
              34.216975
            ],
            [
              108.91893999999999,
              34.215378
            ],
            [
              108.918962,
              34.213426
            ],
            [
              108.92097899999999,
              34.213338
            ],
            [
              108.92361799999999,
              34.213302
            ],
            [
              108.924594,
              34.213299
            ],
            [
              108.925984,
              34.21329
            ],
            [
              108.926949,
              34.213294
            ],
            [
              108.92704599999999,
              34.213280999999995
            ],
            [
              108.927014,
              34.212496
            ],
            [
              108.927014,
              34.211919
            ],
            [
              108.927008,
              34.211715
            ],
            [
              108.92749599999999,
              34.211706
            ],
            [
              108.92772199999999,
              34.211715
            ],
            [
              108.9277,
              34.211174
            ],
            [
              108.92769,
              34.210823
            ],
            [
              108.927668,
              34.210312
            ],
            [
              108.927073,
              34.210312
            ],
            [
              108.926064,
              34.210302999999996
            ],
            [
              108.925485,
              34.210299
            ],
            [
              108.92545799999999,
              34.211013
            ],
            [
              108.925404,
              34.211425999999996
            ],
            [
              108.925367,
              34.212056
            ],
            [
              108.924562,
              34.212087
            ],
            [
              108.92397199999999,
              34.212081999999995
            ],
            [
              108.92361199999999,
              34.212078
            ],
            [
              108.923597,
              34.211812
            ],
            [
              108.92326399999999,
              34.211839
            ],
            [
              108.923124,
              34.211794999999995
            ],
            [
              108.922545,
              34.211786
            ],
            [
              108.921858,
              34.211777
            ],
            [
              108.921858,
              34.211254
            ],
            [
              108.921869,
              34.210952
            ],
            [
              108.921848,
              34.210854
            ],
            [
              108.92131099999999,
              34.210854
            ],
            [
              108.921258,
              34.210792
            ],
            [
              108.921258,
              34.210464
            ],
            [
              108.921236,
              34.209984999999996
            ],
            [
              108.920356,
              34.209976
            ],
            [
              108.919691,
              34.209869999999995
            ],
            [
              108.91895099999999,
              34.209869999999995
            ],
            [
              108.918994,
              34.208894
            ],
            [
              108.919015,
              34.207918
            ],
            [
              108.920485,
              34.207918
            ],
            [
              108.920474,
              34.207253
            ],
            [
              108.920206,
              34.207253
            ],
            [
              108.920217,
              34.206773999999996
            ],
            [
              108.91974499999999,
              34.206773999999996
            ],
            [
              108.91937999999999,
              34.206765
            ],
            [
              108.919326,
              34.205967
            ],
            [
              108.919337,
              34.205284
            ],
            [
              108.918779,
              34.205275
            ],
            [
              108.918371,
              34.205275
            ],
            [
              108.918275,
              34.204797
            ],
            [
              108.91812499999999,
              34.204743
            ],
            [
              108.91813499999999,
              34.204254999999996
            ],
            [
              108.91755599999999,
              34.204229
            ],
            [
              108.91710499999999,
              34.204273
            ],
            [
              108.91703,
              34.204032999999995
            ],
            [
              108.91663299999999,
              34.203970999999996
            ],
            [
              108.916579,
              34.202996
            ],
            [
              108.916461,
              34.202162
            ],
            [
              108.916478,
              34.202081
            ],
            [
              108.91650399999999,
              34.201958
            ],
            [
              108.91673,
              34.201913999999995
            ],
            [
              108.91675099999999,
              34.20163
            ],
            [
              108.91675099999999,
              34.201364
            ],
            [
              108.916569,
              34.201274999999995
            ],
            [
              108.916558,
              34.201035
            ],
            [
              108.91747,
              34.201043999999996
            ],
            [
              108.91788799999999,
              34.201071
            ],
            [
              108.917878,
              34.200804999999995
            ],
            [
              108.918511,
              34.200697999999996
            ],
            [
              108.91879999999999,
              34.200663
            ],
            [
              108.918736,
              34.200192
            ],
            [
              108.91833899999999,
              34.200165999999996
            ],
            [
              108.918278,
              34.20005
            ],
            [
              108.918189,
              34.199881999999995
            ],
            [
              108.91788799999999,
              34.199883
            ],
            [
              108.91788799999999,
              34.199688
            ],
            [
              108.917631,
              34.199688
            ],
            [
              108.917599,
              34.199439
            ],
            [
              108.917878,
              34.199431
            ],
            [
              108.91789899999999,
              34.198862999999996
            ],
            [
              108.917845,
              34.198285999999996
            ],
            [
              108.917566,
              34.1977
            ],
            [
              108.91719099999999,
              34.197078999999995
            ],
            [
              108.917019,
              34.196689
            ],
            [
              108.91703,
              34.196493
            ],
            [
              108.917395,
              34.196264
            ],
            [
              108.91722299999999,
              34.195519
            ],
            [
              108.917373,
              34.195208
            ],
            [
              108.91720199999999,
              34.194472
            ],
            [
              108.916901,
              34.19338
            ],
            [
              108.916826,
              34.193123
            ],
            [
              108.915742,
              34.193007
            ],
            [
              108.915313,
              34.192980999999996
            ],
            [
              108.91493799999999,
              34.19292
            ],
            [
              108.91497,
              34.191953
            ],
            [
              108.91412199999999,
              34.192042
            ],
            [
              108.912942,
              34.192228
            ],
            [
              108.91292,
              34.191918
            ],
            [
              108.91277,
              34.191811
            ],
            [
              108.912223,
              34.191927
            ],
            [
              108.911751,
              34.192023999999996
            ],
            [
              108.91144,
              34.191013
            ],
            [
              108.911172,
              34.190179
            ],
            [
              108.911011,
              34.189530999999995
            ]
          ]
        ]
      }
    }
  ],
  "_bbox": [
    108.80247642,
    34.1655909,
    109.05031042,
    34.2565603
  ]
}