{"type":"FeatureCollection","features":[{"type":"Feature","properties":{"FID":17,"NAME":"大兆街道","code":"610116017000","PAC":"610116","省":"陕西省","省代码":"610000","市":"西安市","市代码":"610100","类型":"乡镇","grade":4,"layer":"乡镇"},"geometry":{"type":"Polygon","coordinates":[[[109.044451,34.0966],[109.044467,34.095876],[109.044381,34.095889],[109.044427,34.095008],[109.044231,34.09501],[109.044172,34.096422],[109.041624,34.096187],[109.04167,34.095916],[109.040948,34.095869],[109.040881,34.09616],[109.039993,34.096056],[109.039795,34.097189],[109.039733,34.09748],[109.039521,34.097442],[109.039521,34.097442],[109.039307,34.097404],[109.039092,34.097364],[109.039092,34.097365],[109.038513,34.097258],[109.038279,34.097226],[109.038026,34.097982],[109.038025,34.097982],[109.037968,34.098153],[109.035157,34.097791],[109.03512,34.097982],[109.03512,34.097982],[109.035085,34.098159],[109.035015,34.098539],[109.033765,34.098386],[109.033728,34.098559],[109.032287,34.098377],[109.032129,34.099465],[109.031888,34.099448],[109.031735,34.100447],[109.032006,34.1005],[109.031941,34.10192],[109.031662,34.104001],[109.031383,34.105806],[109.030002,34.105629],[109.030257,34.103494],[109.029887,34.103512],[109.029747,34.104536],[109.029589,34.10556],[109.0292,34.105477],[109.028347,34.105406],[109.02832,34.105545],[109.028021,34.107079],[109.02802,34.107079],[109.027988,34.10725],[109.027623,34.107128],[109.027583,34.107256],[109.027532,34.107434],[109.027534,34.107434],[109.027376,34.10798],[109.027282,34.108493],[109.025989,34.107256],[109.025708,34.106985],[109.025252,34.106588],[109.025193,34.106559],[109.0246,34.106499],[109.024571,34.107079],[109.024571,34.107079],[109.024563,34.107256],[109.024554,34.107434],[109.024555,34.107434],[109.02452,34.108216],[109.024479,34.108573],[109.023117,34.108504],[109.02313,34.108287],[109.020756,34.108218],[109.020719,34.108858],[109.020419,34.108847],[109.020078,34.108789],[109.018383,34.108669],[109.018332,34.109624],[109.018257,34.109937],[109.017549,34.109628],[109.017549,34.109628],[109.017334,34.109535],[109.017149,34.109453],[109.01698,34.109668],[109.017119,34.109715],[109.017119,34.109715],[109.017334,34.109786],[109.017549,34.109857],[109.017549,34.109856],[109.01798,34.109997],[109.018106,34.110135],[109.0182,34.110557],[109.018085,34.111063],[109.018088,34.111229],[109.01823,34.111514],[109.018254,34.111682],[109.018259,34.112033],[109.01897,34.112084],[109.018935,34.113399],[109.01827,34.113375],[109.018214,34.114083],[109.018101,34.115251],[109.017667,34.115189],[109.017514,34.116352],[109.017495,34.116506],[109.017492,34.11653],[109.017492,34.11653],[109.017433,34.117112],[109.017334,34.117096],[109.017133,34.117063],[109.017017,34.118733],[109.017119,34.118744],[109.017119,34.118746],[109.017334,34.118768],[109.017549,34.118793],[109.017549,34.118792],[109.017951,34.118837],[109.017935,34.118964],[109.017905,34.118959],[109.017334,34.118919],[109.015843,34.118815],[109.015642,34.120587],[109.015532,34.121928],[109.01429,34.121784],[109.014139,34.123383],[109.01374,34.123336],[109.013619,34.124326],[109.013603,34.124326],[109.01352,34.125103],[109.013482,34.12527],[109.013482,34.12527],[109.013445,34.125448],[109.013222,34.126489],[109.013946,34.126551],[109.013906,34.127242],[109.014515,34.127306],[109.014384,34.128565],[109.014687,34.128598],[109.014491,34.130072],[109.015494,34.130172],[109.015293,34.132548],[109.014939,34.13253],[109.014831,34.13374],[109.013858,34.133647],[109.013834,34.134042],[109.013871,34.134406],[109.01385,34.134542],[109.013826,34.134719],[109.013824,34.134719],[109.013675,34.135765],[109.013198,34.135703],[109.013042,34.137197],[109.012206,34.137139],[109.011793,34.137148],[109.011685,34.138977],[109.010285,34.138915],[109.010164,34.140511],[109.009915,34.142363],[109.009947,34.142443],[109.009923,34.142571],[109.009505,34.142827],[109.009475,34.142831],[109.009255,34.142813],[109.007842,34.142605],[109.007498,34.142518],[109.006871,34.142463],[109.006774,34.143129],[109.006565,34.143124],[109.006562,34.143167],[109.006562,34.143206],[109.00653,34.143706],[109.006348,34.143697],[109.006133,34.143686],[109.006133,34.143686],[109.005621,34.143659],[109.005614,34.143812],[109.005516,34.145912],[109.005425,34.147437],[109.005412,34.148141],[109.003392,34.14807],[109.003486,34.149573],[109.003263,34.149575],[109.003268,34.149899],[109.005956,34.150376],[109.005725,34.150625],[109.005994,34.1508],[109.005572,34.151184],[109.006133,34.151475],[109.006348,34.151586],[109.006686,34.151759],[109.006771,34.151892],[109.006946,34.152228],[109.007066,34.152359],[109.007185,34.152465],[109.00745,34.152543],[109.007519,34.152549],[109.007611,34.152558],[109.007571,34.152727],[109.007552,34.152809],[109.008032,34.152905],[109.008971,34.153091],[109.008896,34.1533],[109.010205,34.15353],[109.01076,34.153615],[109.0105,34.156116],[109.010701,34.156187],[109.010972,34.156263],[109.011063,34.156314],[109.011256,34.156465],[109.0115,34.156687],[109.011557,34.15672],[109.011661,34.156767],[109.012122,34.156904],[109.01223,34.156915],[109.012364,34.156949],[109.012415,34.156993],[109.01234,34.157366],[109.012884,34.157308],[109.012731,34.158951],[109.012452,34.161641],[109.012452,34.161641],[109.012434,34.161818],[109.012416,34.161996],[109.0122,34.164124],[109.012417,34.164137],[109.012364,34.164967],[109.013273,34.164996],[109.013026,34.166765],[109.012986,34.167238],[109.013321,34.167253],[109.01301,34.169952],[109.012168,34.169865],[109.011889,34.169812],[109.011806,34.170731],[109.011806,34.170731],[109.01179,34.170908],[109.011774,34.171093],[109.011727,34.171086],[109.011725,34.171086],[109.010518,34.170913],[109.010481,34.171363],[109.010398,34.172005],[109.010293,34.173014],[109.010191,34.174328],[109.010079,34.176188],[109.009676,34.176139],[109.00966,34.176201],[109.008684,34.176074],[109.008649,34.176086],[109.008625,34.176121],[109.008585,34.176241],[109.008531,34.177171],[109.00841,34.17767],[109.008684,34.17773],[109.009143,34.177901],[109.009153,34.178455],[109.009244,34.178349],[109.009867,34.178358],[109.009869,34.179126],[109.012664,34.179134],[109.012729,34.179596],[109.017119,34.179647],[109.017119,34.179647],[109.017313,34.179649],[109.017278,34.17826],[109.017334,34.178262],[109.020783,34.178316],[109.020915,34.178495],[109.020917,34.178979],[109.020368,34.178957],[109.020333,34.179711],[109.021465,34.179729],[109.021427,34.177495],[109.022961,34.177521],[109.023023,34.177242],[109.023339,34.176305],[109.025284,34.176283],[109.02563,34.177619],[109.026939,34.177674],[109.026901,34.178673],[109.02743,34.178695],[109.027465,34.178313],[109.028106,34.178323],[109.028106,34.178324],[109.02832,34.178327],[109.028342,34.178327],[109.028535,34.178331],[109.028535,34.17833],[109.029015,34.178338],[109.029039,34.177876],[109.029686,34.177839],[109.029916,34.179217],[109.030005,34.17982],[109.030005,34.17982],[109.030032,34.179998],[109.030058,34.180175],[109.03006,34.180175],[109.030072,34.180253],[109.031247,34.180337],[109.031174,34.180967],[109.031091,34.180961],[109.031067,34.181711],[109.031064,34.181921],[109.03358,34.182061],[109.03318,34.182461],[109.034476,34.182516],[109.035133,34.182607],[109.035093,34.182696],[109.038368,34.182938],[109.038526,34.182955],[109.039076,34.183037],[109.039092,34.183037],[109.039092,34.183037],[109.039229,34.183033],[109.039307,34.183042],[109.039521,34.183066],[109.039521,34.183065],[109.039897,34.183106],[109.040339,34.18519],[109.041841,34.186122],[109.042976,34.186732],[109.043453,34.187053],[109.043459,34.187191],[109.044025,34.187562],[109.043663,34.18797],[109.04359,34.188045],[109.044312,34.188578],[109.044261,34.188908],[109.044261,34.188908],[109.044234,34.189086],[109.044207,34.189263],[109.044207,34.189263],[109.044191,34.189372],[109.044529,34.189263],[109.044529,34.189263],[109.045012,34.189108],[109.04535,34.189106],[109.046667,34.189259],[109.046675,34.189086],[109.046693,34.188746],[109.047691,34.188828],[109.047689,34.188908],[109.047689,34.188908],[109.047683,34.189086],[109.04768,34.189263],[109.047681,34.189263],[109.04768,34.189299],[109.048217,34.189405],[109.048423,34.189086],[109.048453,34.189041],[109.048576,34.188919],[109.048681,34.189044],[109.048689,34.189086],[109.048721,34.189263],[109.048724,34.189263],[109.048767,34.189485],[109.049545,34.189643],[109.049963,34.18972],[109.049901,34.189359],[109.049915,34.189101],[109.049915,34.189086],[109.04992,34.188877],[109.049939,34.188658],[109.050033,34.188407],[109.050078,34.188339],[109.050078,34.18834],[109.050293,34.188021],[109.050398,34.187863],[109.050508,34.187721],[109.050508,34.187721],[109.050878,34.187242],[109.051216,34.1869],[109.051586,34.186381],[109.05169,34.186286],[109.051943,34.186106],[109.052407,34.185838],[109.052863,34.185474],[109.053262,34.185052],[109.053538,34.184868],[109.053809,34.18458],[109.053925,34.184398],[109.053973,34.184222],[109.054035,34.18402],[109.054131,34.183743],[109.054327,34.183368],[109.054456,34.18304],[109.054791,34.18181],[109.054939,34.181433],[109.055167,34.180262],[109.055172,34.179998],[109.055175,34.179913],[109.055099,34.179507],[109.054917,34.178815],[109.054689,34.178225],[109.054496,34.177752],[109.054437,34.177373],[109.054458,34.177097],[109.054566,34.176503],[109.054818,34.175824],[109.055124,34.175313],[109.055502,34.174843],[109.055842,34.174397],[109.056639,34.173633],[109.05702,34.173309],[109.057326,34.173096],[109.057623,34.17293],[109.05798,34.172752],[109.058329,34.172555],[109.05915,34.172002],[109.059734,34.171572],[109.060241,34.171086],[109.060241,34.171086],[109.060426,34.170908],[109.061065,34.170251],[109.061065,34.170251],[109.061279,34.17003],[109.061416,34.16989],[109.061494,34.169821],[109.061494,34.16982],[109.061757,34.169584],[109.062006,34.16922],[109.0621,34.168947],[109.062285,34.168596],[109.062518,34.16813],[109.063127,34.168119],[109.063919,34.16809],[109.064165,34.168145],[109.064275,34.168287],[109.064399,34.168589],[109.064814,34.168372],[109.065426,34.167839],[109.065992,34.168081],[109.066451,34.167704],[109.067365,34.16791],[109.067357,34.168345],[109.068009,34.168671],[109.068741,34.168216],[109.068907,34.168319],[109.06883,34.168685],[109.069597,34.168913],[109.069476,34.169368],[109.07082,34.169648],[109.071338,34.169872],[109.070809,34.170689],[109.070926,34.170731],[109.070925,34.170731],[109.071415,34.170908],[109.072051,34.171139],[109.072051,34.171139],[109.072266,34.171217],[109.07248,34.171294],[109.07248,34.171293],[109.072952,34.171461],[109.072563,34.171907],[109.073097,34.172204],[109.07248,34.173569],[109.07248,34.173569],[109.072266,34.174044],[109.072212,34.174162],[109.072266,34.174177],[109.07248,34.174237],[109.07248,34.174236],[109.07428,34.174727],[109.074301,34.174696],[109.077812,34.171175],[109.077855,34.170908],[109.077888,34.170731],[109.077886,34.170731],[109.078867,34.164959],[109.078389,34.16479],[109.078617,34.164342],[109.078732,34.164379],[109.078952,34.164459],[109.0794,34.161818],[109.079441,34.161592],[109.080275,34.160677],[109.080704,34.160198],[109.081112,34.159754],[109.083037,34.157629],[109.083037,34.15763],[109.083252,34.157393],[109.083467,34.157157],[109.083467,34.157156],[109.087326,34.152905],[109.087326,34.152905],[109.087487,34.152727],[109.088528,34.151582],[109.083252,34.147657],[109.083037,34.147497],[109.083037,34.147497],[109.078319,34.143986],[109.078038,34.143635],[109.075286,34.140216],[109.07248,34.136735],[109.07248,34.136733],[109.070858,34.134719],[109.07086,34.134719],[109.070715,34.134542],[109.070573,34.134364],[109.070573,34.134364],[109.068961,34.132359],[109.070552,34.132459],[109.07067,34.132273],[109.069811,34.132064],[109.068671,34.131811],[109.068492,34.131784],[109.068899,34.13035],[109.067996,34.130186],[109.068068,34.130084],[109.068299,34.129278],[109.068261,34.129242],[109.064506,34.128767],[109.064941,34.126977],[109.06354,34.126842],[109.063532,34.126307],[109.061494,34.126092],[109.061279,34.126069],[109.061065,34.126047],[109.061065,34.126047],[109.060461,34.125983],[109.06077,34.125756],[109.060935,34.125625],[109.060933,34.125625],[109.061159,34.125448],[109.061381,34.12527],[109.061383,34.12527],[109.061553,34.125099],[109.062403,34.124084],[109.061494,34.124],[109.061494,34.124],[109.061279,34.12398],[109.061065,34.12396],[109.061065,34.123959],[109.060754,34.123929],[109.060965,34.122745],[109.061016,34.12219],[109.061065,34.121881],[109.061255,34.12066],[109.061065,34.120651],[109.061065,34.120651],[109.060408,34.12062],[109.059665,34.120607],[109.059911,34.120378],[109.060158,34.117525],[109.06022,34.117163],[109.060062,34.117139],[109.059906,34.117141],[109.059394,34.117298],[109.057905,34.118136],[109.057049,34.11848],[109.056564,34.118711],[109.055928,34.118964],[109.055413,34.11915],[109.054815,34.119335],[109.054925,34.116954],[109.054654,34.117074],[109.054685,34.11653],[109.054684,34.11653],[109.054694,34.116352],[109.054737,34.115629],[109.053375,34.115642],[109.053286,34.115695],[109.053219,34.115773],[109.053203,34.115813],[109.05319,34.115957],[109.052133,34.115924],[109.052128,34.11478],[109.051725,34.115127],[109.051736,34.114385],[109.051197,34.114345],[109.051323,34.112633],[109.051398,34.111838],[109.052095,34.107256],[109.052122,34.107079],[109.052123,34.107079],[109.052144,34.106943],[109.053388,34.107077],[109.053579,34.106015],[109.05492,34.106228],[109.055513,34.103277],[109.056706,34.103488],[109.056779,34.103217],[109.057084,34.101777],[109.057098,34.101644],[109.053587,34.101153],[109.053978,34.099585],[109.051409,34.099234],[109.05157,34.098337],[109.05157,34.098337],[109.051602,34.098159],[109.051634,34.097982],[109.051634,34.097982],[109.051698,34.097629],[109.051004,34.097653],[109.051232,34.096118],[109.050508,34.096043],[109.050508,34.096043],[109.050293,34.09602],[109.049845,34.095972],[109.049078,34.095838],[109.047887,34.09559],[109.047305,34.095416],[109.045736,34.095201],[109.045489,34.096722],[109.044451,34.0966]]]}}]}