{
  "type": "FeatureCollection",
  "features": [
    {
      "type": "Feature",
      "properties": {
        "FID": 4,
        "NAME": "电子城街道",
        "code": "610113004000",
        "PAC": "610113",
        "省": "陕西省",
        "省代码": "610000",
        "市": "西安市",
        "市代码": "610100",
        "类型": "乡镇",
        "grade": 4,
        "layer": "乡镇",
        "name": "电子城街道"
      },
      "geometry": {
        "type": "Polygon",
        "coordinates": [
          [
            [
              108.87808269521908,
              34.18934262206705
            ],
            [
              108.87964008492438,
              34.18935761604712
            ],
            [
              108.8804769613951,
              34.18940195229101
            ],
            [
              108.88197904736813,
              34.18942855402615
            ],
            [
              108.88411415528701,
              34.18949062470888
            ],
            [
              108.88599176275336,
              34.18952609364995
            ],
            [
              108.88760114058164,
              34.189579297033525
            ],
            [
              108.88927464994781,
              34.189562220881335
            ],
            [
              108.89100204881682,
              34.18949128301472
            ],
            [
              108.89299755431315,
              34.18941135815137
            ],
            [
              108.89482151585187,
              34.18927834936457
            ],
            [
              108.8971067187928,
              34.18914525059871
            ],
            [
              108.90116244109235,
              34.189204370752236
            ],
            [
              108.9048532809119,
              34.18936398141118
            ],
            [
              108.90828662027889,
              34.18947038834934
            ],
            [
              108.911181809282,
              34.18941636799296
            ],
            [
              108.911011,
              34.189530999999995
            ],
            [
              108.911172,
              34.190179
            ],
            [
              108.91144,
              34.191013
            ],
            [
              108.911751,
              34.192023999999996
            ],
            [
              108.912223,
              34.191927
            ],
            [
              108.91277,
              34.191811
            ],
            [
              108.91292,
              34.191918
            ],
            [
              108.912942,
              34.192228
            ],
            [
              108.91412199999999,
              34.192042
            ],
            [
              108.91497,
              34.191953
            ],
            [
              108.91493799999999,
              34.19292
            ],
            [
              108.915313,
              34.192980999999996
            ],
            [
              108.915742,
              34.193007
            ],
            [
              108.916826,
              34.193123
            ],
            [
              108.916901,
              34.19338
            ],
            [
              108.91720199999999,
              34.194472
            ],
            [
              108.917373,
              34.195208
            ],
            [
              108.91722299999999,
              34.195519
            ],
            [
              108.917395,
              34.196264
            ],
            [
              108.91703,
              34.196493
            ],
            [
              108.917019,
              34.196689
            ],
            [
              108.91719099999999,
              34.197078999999995
            ],
            [
              108.917566,
              34.1977
            ],
            [
              108.917845,
              34.198285999999996
            ],
            [
              108.91789899999999,
              34.198862999999996
            ],
            [
              108.917878,
              34.199431
            ],
            [
              108.917599,
              34.199439
            ],
            [
              108.917631,
              34.199688
            ],
            [
              108.91788799999999,
              34.199688
            ],
            [
              108.91788799999999,
              34.199883
            ],
            [
              108.918189,
              34.199881999999995
            ],
            [
              108.918278,
              34.20005
            ],
            [
              108.91833899999999,
              34.200165999999996
            ],
            [
              108.918736,
              34.200192
            ],
            [
              108.91879999999999,
              34.200663
            ],
            [
              108.918511,
              34.200697999999996
            ],
            [
              108.917878,
              34.200804999999995
            ],
            [
              108.91788799999999,
              34.201071
            ],
            [
              108.91747,
              34.201043999999996
            ],
            [
              108.916558,
              34.201035
            ],
            [
              108.916569,
              34.201274999999995
            ],
            [
              108.91675099999999,
              34.201364
            ],
            [
              108.91675099999999,
              34.20163
            ],
            [
              108.91673,
              34.201913999999995
            ],
            [
              108.91650399999999,
              34.201958
            ],
            [
              108.916478,
              34.202081
            ],
            [
              108.916461,
              34.202162
            ],
            [
              108.916579,
              34.202996
            ],
            [
              108.91663299999999,
              34.203970999999996
            ],
            [
              108.91703,
              34.204032999999995
            ],
            [
              108.91710499999999,
              34.204273
            ],
            [
              108.91755599999999,
              34.204229
            ],
            [
              108.91813499999999,
              34.204254999999996
            ],
            [
              108.91812499999999,
              34.204743
            ],
            [
              108.918275,
              34.204797
            ],
            [
              108.918371,
              34.205275
            ],
            [
              108.918779,
              34.205275
            ],
            [
              108.919337,
              34.205284
            ],
            [
              108.919326,
              34.205967
            ],
            [
              108.91937999999999,
              34.206765
            ],
            [
              108.91974499999999,
              34.206773999999996
            ],
            [
              108.920217,
              34.206773999999996
            ],
            [
              108.920206,
              34.207253
            ],
            [
              108.920474,
              34.207253
            ],
            [
              108.920485,
              34.207918
            ],
            [
              108.919015,
              34.207918
            ],
            [
              108.918994,
              34.208894
            ],
            [
              108.91895099999999,
              34.209869999999995
            ],
            [
              108.919691,
              34.209869999999995
            ],
            [
              108.920356,
              34.209976
            ],
            [
              108.921236,
              34.209984999999996
            ],
            [
              108.921258,
              34.210464
            ],
            [
              108.921258,
              34.210792
            ],
            [
              108.92131099999999,
              34.210854
            ],
            [
              108.921848,
              34.210854
            ],
            [
              108.921869,
              34.210952
            ],
            [
              108.921858,
              34.211254
            ],
            [
              108.921858,
              34.211777
            ],
            [
              108.922545,
              34.211786
            ],
            [
              108.923124,
              34.211794999999995
            ],
            [
              108.92326399999999,
              34.211839
            ],
            [
              108.923597,
              34.211812
            ],
            [
              108.92361199999999,
              34.212078
            ],
            [
              108.92362899999999,
              34.212371
            ],
            [
              108.92361799999999,
              34.213302
            ],
            [
              108.92097899999999,
              34.213338
            ],
            [
              108.918962,
              34.213426
            ],
            [
              108.91893999999999,
              34.215378
            ],
            [
              108.918897,
              34.216975
            ],
            [
              108.918897,
              34.218004
            ],
            [
              108.91893999999999,
              34.218998
            ],
            [
              108.919927,
              34.218998
            ],
            [
              108.92065099999999,
              34.219017
            ],
            [
              108.920631,
              34.22007
            ],
            [
              108.92050599999999,
              34.220073
            ],
            [
              108.919253,
              34.220099
            ],
            [
              108.91926099999999,
              34.220521
            ],
            [
              108.918201,
              34.220532999999996
            ],
            [
              108.918149,
              34.220921
            ],
            [
              108.91738,
              34.220901
            ],
            [
              108.917355,
              34.220563999999996
            ],
            [
              108.91627899999999,
              34.220561
            ],
            [
              108.916209,
              34.220563
            ],
            [
              108.916085,
              34.220559
            ],
            [
              108.91600899999999,
              34.220579
            ],
            [
              108.91605799999999,
              34.220743999999996
            ],
            [
              108.916095,
              34.220841
            ],
            [
              108.916305,
              34.220831
            ],
            [
              108.916423,
              34.220943
            ],
            [
              108.917395,
              34.221433
            ],
            [
              108.91741499999999,
              34.221699
            ],
            [
              108.917147,
              34.222142999999996
            ],
            [
              108.91746499999999,
              34.222629999999995
            ],
            [
              108.917654,
              34.222919999999995
            ],
            [
              108.918388,
              34.224046
            ],
            [
              108.918387,
              34.224371
            ],
            [
              108.91838399999999,
              34.225584
            ],
            [
              108.917301,
              34.225606
            ],
            [
              108.917857,
              34.226344
            ],
            [
              108.916811,
              34.226268
            ],
            [
              108.916854,
              34.227215
            ],
            [
              108.91772999999999,
              34.228591
            ],
            [
              108.917958,
              34.228594
            ],
            [
              108.918137,
              34.229071999999995
            ],
            [
              108.91822599999999,
              34.22924
            ],
            [
              108.918301,
              34.229382
            ],
            [
              108.91866499999999,
              34.229897
            ],
            [
              108.918257,
              34.230154
            ],
            [
              108.918257,
              34.230488
            ],
            [
              108.91754999999999,
              34.230492999999996
            ],
            [
              108.917699,
              34.230787
            ],
            [
              108.91706099999999,
              34.231091
            ],
            [
              108.917164,
              34.231487
            ],
            [
              108.917186,
              34.231536
            ],
            [
              108.91765,
              34.231324
            ],
            [
              108.918095,
              34.231494
            ],
            [
              108.918745,
              34.231472
            ],
            [
              108.91877199999999,
              34.231893
            ],
            [
              108.918769,
              34.232372
            ],
            [
              108.91876699999999,
              34.232656999999996
            ],
            [
              108.918724,
              34.232887999999996
            ],
            [
              108.91923399999999,
              34.233871
            ],
            [
              108.918155,
              34.234476
            ],
            [
              108.91798299999999,
              34.234573
            ],
            [
              108.917935,
              34.234898
            ],
            [
              108.915257,
              34.2361
            ],
            [
              108.911621,
              34.237733
            ],
            [
              108.908118,
              34.239307
            ],
            [
              108.904928,
              34.240739999999995
            ],
            [
              108.90455999999999,
              34.239764
            ],
            [
              108.904471,
              34.239627999999996
            ],
            [
              108.90415399999999,
              34.239143
            ],
            [
              108.903756,
              34.239155
            ],
            [
              108.903418,
              34.239191
            ],
            [
              108.90285999999999,
              34.239182
            ],
            [
              108.90244399999999,
              34.239182
            ],
            [
              108.90206599999999,
              34.239173
            ],
            [
              108.901921,
              34.239013
            ],
            [
              108.901776,
              34.238973
            ],
            [
              108.90146,
              34.238951
            ],
            [
              108.901111,
              34.238929
            ],
            [
              108.900988,
              34.238925
            ],
            [
              108.900875,
              34.23873
            ],
            [
              108.900387,
              34.23892
            ],
            [
              108.899512,
              34.239288
            ],
            [
              108.898493,
              34.239701
            ],
            [
              108.898338,
              34.239793999999996
            ],
            [
              108.896935,
              34.240401
            ],
            [
              108.89642699999999,
              34.240626999999996
            ],
            [
              108.89615699999999,
              34.240747
            ],
            [
              108.895814,
              34.240907
            ],
            [
              108.896152,
              34.241441
            ],
            [
              108.896453,
              34.241895
            ],
            [
              108.896678,
              34.242235
            ],
            [
              108.897048,
              34.242781
            ],
            [
              108.897256,
              34.243094
            ],
            [
              108.89755799999999,
              34.243547
            ],
            [
              108.89778299999999,
              34.243871
            ],
            [
              108.895713,
              34.244779
            ],
            [
              108.895473,
              34.244884
            ],
            [
              108.892854,
              34.240786
            ],
            [
              108.89205899999999,
              34.239481
            ],
            [
              108.89172699999999,
              34.238996
            ],
            [
              108.891179,
              34.238194
            ],
            [
              108.89113599999999,
              34.238132
            ],
            [
              108.89081499999999,
              34.237640999999996
            ],
            [
              108.890278,
              34.23682
            ],
            [
              108.892724,
              34.235737
            ],
            [
              108.894956,
              34.234708999999995
            ],
            [
              108.89746699999999,
              34.233644
            ],
            [
              108.899694,
              34.232703
            ],
            [
              108.902999,
              34.231176999999995
            ],
            [
              108.902681,
              34.230956
            ],
            [
              108.901585,
              34.229247
            ],
            [
              108.898983,
              34.225187
            ],
            [
              108.898956,
              34.223875
            ],
            [
              108.901258,
              34.222657
            ],
            [
              108.901777,
              34.222381999999996
            ],
            [
              108.90372599999999,
              34.221351999999996
            ],
            [
              108.906482,
              34.219894
            ],
            [
              108.90515099999999,
              34.218102
            ],
            [
              108.903413,
              34.218919
            ],
            [
              108.900409,
              34.220054
            ],
            [
              108.89908,
              34.218052
            ],
            [
              108.898006,
              34.216435
            ],
            [
              108.89718699999999,
              34.216405
            ],
            [
              108.897021,
              34.213597
            ],
            [
              108.89695499999999,
              34.213583
            ],
            [
              108.896762,
              34.213543
            ],
            [
              108.896765,
              34.213311
            ],
            [
              108.89678099999999,
              34.211723
            ],
            [
              108.899537,
              34.21171
            ],
            [
              108.899571,
              34.211414
            ],
            [
              108.89950999999999,
              34.210212999999996
            ],
            [
              108.896495,
              34.210111999999995
            ],
            [
              108.89651699999999,
              34.208995
            ],
            [
              108.89631299999999,
              34.208843
            ],
            [
              108.89629099999999,
              34.207525
            ],
            [
              108.89640899999999,
              34.207434
            ],
            [
              108.896332,
              34.207371
            ],
            [
              108.896343,
              34.206579
            ],
            [
              108.896351,
              34.205988999999995
            ],
            [
              108.89571699999999,
              34.205325
            ],
            [
              108.895822,
              34.205363999999996
            ],
            [
              108.89454599999999,
              34.204087
            ],
            [
              108.893559,
              34.202988
            ],
            [
              108.89344399999999,
              34.202929
            ],
            [
              108.89271199999999,
              34.202048
            ],
            [
              108.892163,
              34.201471
            ],
            [
              108.89170999999999,
              34.200914
            ],
            [
              108.891356,
              34.200586
            ],
            [
              108.890895,
              34.200106999999996
            ],
            [
              108.89063499999999,
              34.199836
            ],
            [
              108.890205,
              34.198881
            ],
            [
              108.889479,
              34.197784999999996
            ],
            [
              108.88909,
              34.196892999999996
            ],
            [
              108.887462,
              34.194204
            ],
            [
              108.88694699999999,
              34.193494
            ],
            [
              108.886389,
              34.192499999999995
            ],
            [
              108.886045,
              34.191825
            ],
            [
              108.885573,
              34.190974
            ],
            [
              108.88325599999999,
              34.190937999999996
            ],
            [
              108.882505,
              34.190882
            ],
            [
              108.880916,
              34.190765
            ],
            [
              108.879909,
              34.190306
            ],
            [
              108.87861099999999,
              34.189715
            ],
            [
              108.87808269521908,
              34.18934262206705
            ]
          ]
        ]
      }
    }
  ],
  "_bbox": [
    108.80247642,
    34.1655909,
    109.05031042,
    34.2565603
  ]
}