{
  "type": "FeatureCollection",
  "features": [
    {
      "type": "Feature",
      "properties": {
        "FID": 3,
        "NAME": "长延堡街道",
        "code": "610113003000",
        "PAC": "610113",
        "省": "陕西省",
        "省代码": "610000",
        "市": "西安市",
        "市代码": "610100",
        "类型": "乡镇",
        "grade": 4,
        "layer": "乡镇",
        "name": "长延堡街道"
      },
      "geometry": {
        "type": "Polygon",
        "coordinates": [
          [
            [
              108.84313013811905,
              34.18606738523268
            ],
            [
              108.84325299999999,
              34.184915
            ],
            [
              108.844146,
              34.185403
            ],
            [
              108.844668,
              34.183127
            ],
            [
              108.847741,
              34.183091999999995
            ],
            [
              108.84786899999999,
              34.182006
            ],
            [
              108.851007,
              34.182095
            ],
            [
              108.85108,
              34.181252
            ],
            [
              108.85231499999999,
              34.181153
            ],
            [
              108.852325,
              34.180088
            ],
            [
              108.852758,
              34.180057999999995
            ],
            [
              108.852689,
              34.18212
            ],
            [
              108.85484799999999,
              34.182313
            ],
            [
              108.85825899999999,
              34.181405999999996
            ],
            [
              108.85922,
              34.181149999999995
            ],
            [
              108.85927799999999,
              34.181104999999995
            ],
            [
              108.859483,
              34.18094
            ],
            [
              108.860649,
              34.180011
            ],
            [
              108.862359,
              34.180037999999996
            ],
            [
              108.861948,
              34.17787
            ],
            [
              108.862693,
              34.177932999999996
            ],
            [
              108.862787,
              34.178872999999996
            ],
            [
              108.86443,
              34.178891
            ],
            [
              108.864516,
              34.181235
            ],
            [
              108.870395,
              34.181235
            ],
            [
              108.87073699999999,
              34.181225
            ],
            [
              108.872423,
              34.181176
            ],
            [
              108.87411,
              34.181245
            ],
            [
              108.87578699999999,
              34.181283
            ],
            [
              108.875671,
              34.183713
            ],
            [
              108.876306,
              34.183709
            ],
            [
              108.876398,
              34.181339
            ],
            [
              108.876976,
              34.181325
            ],
            [
              108.876961,
              34.18372
            ],
            [
              108.877405,
              34.183727
            ],
            [
              108.87743599999999,
              34.181356
            ],
            [
              108.87771699999999,
              34.181351
            ],
            [
              108.877719,
              34.180020999999996
            ],
            [
              108.877721,
              34.178942
            ],
            [
              108.87706,
              34.178656
            ],
            [
              108.87698599999999,
              34.178459
            ],
            [
              108.877219,
              34.176832
            ],
            [
              108.878678,
              34.176229
            ],
            [
              108.880866,
              34.176051
            ],
            [
              108.88090899999999,
              34.175412
            ],
            [
              108.88219699999999,
              34.17527
            ],
            [
              108.882111,
              34.172891
            ],
            [
              108.877562,
              34.172962
            ],
            [
              108.877556,
              34.1719
            ],
            [
              108.87754,
              34.169308
            ],
            [
              108.877533,
              34.168158999999996
            ],
            [
              108.878451,
              34.168085999999995
            ],
            [
              108.878452,
              34.166683
            ],
            [
              108.878097,
              34.166107
            ],
            [
              108.878053,
              34.166036
            ],
            [
              108.87785099999999,
              34.165707999999995
            ],
            [
              108.87818299999999,
              34.165678
            ],
            [
              108.87894399999999,
              34.165763999999996
            ],
            [
              108.882128,
              34.166123
            ],
            [
              108.884873,
              34.165591
            ],
            [
              108.885758,
              34.166677
            ],
            [
              108.885975,
              34.167369
            ],
            [
              108.889387,
              34.167451
            ],
            [
              108.889451,
              34.16887
            ],
            [
              108.891989,
              34.168876
            ],
            [
              108.892094,
              34.169396
            ],
            [
              108.893357,
              34.169416999999996
            ],
            [
              108.893452,
              34.17059
            ],
            [
              108.89411799999999,
              34.17069
            ],
            [
              108.894095,
              34.172062
            ],
            [
              108.89699399999999,
              34.172022999999996
            ],
            [
              108.896964,
              34.17142
            ],
            [
              108.897442,
              34.171389999999995
            ],
            [
              108.897407,
              34.170288
            ],
            [
              108.89801999999999,
              34.170299
            ],
            [
              108.89832399999999,
              34.169342
            ],
            [
              108.901207,
              34.169292999999996
            ],
            [
              108.901398,
              34.168876
            ],
            [
              108.904484,
              34.168529
            ],
            [
              108.90489799999999,
              34.16964
            ],
            [
              108.90529599999999,
              34.171684
            ],
            [
              108.905968,
              34.171732999999996
            ],
            [
              108.90617499999999,
              34.172216999999996
            ],
            [
              108.90630999999999,
              34.172233
            ],
            [
              108.90664,
              34.172052
            ],
            [
              108.906763,
              34.172092
            ],
            [
              108.907012,
              34.172703
            ],
            [
              108.90749,
              34.172674
            ],
            [
              108.907269,
              34.171839
            ],
            [
              108.907833,
              34.171330999999995
            ],
            [
              108.908181,
              34.172556
            ],
            [
              108.909855,
              34.172858
            ],
            [
              108.911722,
              34.173266
            ],
            [
              108.91290199999999,
              34.173497
            ],
            [
              108.91363199999999,
              34.173674999999996
            ],
            [
              108.915734,
              34.174047
            ],
            [
              108.916528,
              34.174065
            ],
            [
              108.91828799999999,
              34.17403
            ],
            [
              108.92264399999999,
              34.173834
            ],
            [
              108.92275099999999,
              34.174118
            ],
            [
              108.92285799999999,
              34.174721999999996
            ],
            [
              108.92296599999999,
              34.175397
            ],
            [
              108.92307299999999,
              34.175841
            ],
            [
              108.923159,
              34.176497
            ],
            [
              108.923245,
              34.177261
            ],
            [
              108.923352,
              34.178077
            ],
            [
              108.923459,
              34.178787
            ],
            [
              108.923592,
              34.179798999999996
            ],
            [
              108.925287,
              34.179494999999996
            ],
            [
              108.9253,
              34.179335
            ],
            [
              108.924427,
              34.179325999999996
            ],
            [
              108.924398,
              34.178720999999996
            ],
            [
              108.92893799999999,
              34.178739
            ],
            [
              108.92919599999999,
              34.180166
            ],
            [
              108.930281,
              34.180216
            ],
            [
              108.93028,
              34.179894
            ],
            [
              108.93059199999999,
              34.179899
            ],
            [
              108.930486,
              34.178824
            ],
            [
              108.93068,
              34.17882
            ],
            [
              108.93088999999999,
              34.179677999999996
            ],
            [
              108.931271,
              34.179641
            ],
            [
              108.93125699999999,
              34.177442
            ],
            [
              108.934362,
              34.1774
            ],
            [
              108.934646,
              34.178584
            ],
            [
              108.935673,
              34.178596
            ],
            [
              108.93572599999999,
              34.17884
            ],
            [
              108.938271,
              34.179307
            ],
            [
              108.938385,
              34.179238
            ],
            [
              108.938458,
              34.178666
            ],
            [
              108.940519,
              34.178661999999996
            ],
            [
              108.94056599999999,
              34.178618
            ],
            [
              108.940418,
              34.178155
            ],
            [
              108.94080199999999,
              34.178049
            ],
            [
              108.94122399999999,
              34.177932
            ],
            [
              108.940709,
              34.175934
            ],
            [
              108.94442099999999,
              34.176035
            ],
            [
              108.944577,
              34.173877
            ],
            [
              108.94497899999999,
              34.173888999999996
            ],
            [
              108.94498,
              34.174163
            ],
            [
              108.944983,
              34.175025999999995
            ],
            [
              108.94498410356685,
              34.17502601703132
            ],
            [
              108.94496799931194,
              34.175253837707565
            ],
            [
              108.9452040698801,
              34.17557773499818
            ],
            [
              108.94571907078513,
              34.17717408582567
            ],
            [
              108.94613750902053,
              34.178451144743704
            ],
            [
              108.94633063435992,
              34.179408926248065
            ],
            [
              108.94635268647843,
              34.18067319439978
            ],
            [
              108.94583768557338,
              34.18322718698537
            ],
            [
              108.94562310186294,
              34.18546186707259
            ],
            [
              108.94583768557338,
              34.18812212332305
            ],
            [
              108.94085934349124,
              34.18751913925967
            ],
            [
              108.93452912403329,
              34.18741272985983
            ],
            [
              108.92916453127236,
              34.187678753107704
            ],
            [
              108.92422936802906,
              34.188300338535626
            ],
            [
              108.91901543676856,
              34.18895625148211
            ],
            [
              108.91434802403946,
              34.1892692502009
            ],
            [
              108.91122314483395,
              34.18938938911143
            ],
            [
              108.91122194061614,
              34.189389435408714
            ],
            [
              108.911181809282,
              34.18941636799296
            ],
            [
              108.90828662027889,
              34.18947038834934
            ],
            [
              108.9048532809119,
              34.18936398141118
            ],
            [
              108.90116244109235,
              34.189204370752236
            ],
            [
              108.8971067187928,
              34.18914525059871
            ],
            [
              108.89482151585187,
              34.18927834936457
            ],
            [
              108.89299755431315,
              34.18941135815137
            ],
            [
              108.89100204881682,
              34.18949128301472
            ],
            [
              108.88927464994781,
              34.189562220881335
            ],
            [
              108.88760114058164,
              34.189579297033525
            ],
            [
              108.88599176275336,
              34.18952609364995
            ],
            [
              108.88411415528701,
              34.18949062470888
            ],
            [
              108.88197904736813,
              34.18942855402615
            ],
            [
              108.8804769613951,
              34.18940195229101
            ],
            [
              108.87964008492438,
              34.18935761604712
            ],
            [
              108.87808269521909,
              34.18934262206705
            ],
            [
              108.87814719638247,
              34.18938808599386
            ],
            [
              108.87814692035569,
              34.189388079906045
            ],
            [
              108.87466233344458,
              34.1893112267376
            ],
            [
              108.86985565833076,
              34.18904520863848
            ],
            [
              108.86369765731473,
              34.188587483320696
            ],
            [
              108.85556469423706,
              34.187097929583445
            ],
            [
              108.85024301821822,
              34.18653040839913
            ],
            [
              108.8464663449145,
              34.18910195821639
            ],
            [
              108.84367847172298,
              34.18656614278656
            ],
            [
              108.84367816692617,
              34.186565865547095
            ],
            [
              108.843684,
              34.186527999999996
            ],
            [
              108.84363108015465,
              34.186523035994405
            ],
            [
              108.84313013811905,
              34.18606738523268
            ]
          ]
        ]
      }
    }
  ],
  "_bbox": [
    108.80247642,
    34.1655909,
    109.05031042,
    34.2565603
  ]
}