{"type":"FeatureCollection","features":[{"type":"Feature","properties":{"FID":10,"NAME":"汉城街道","code":"610112010000","PAC":"610112","省":"陕西省","省代码":"610000","市":"西安市","市代码":"610100","类型":"乡镇","grade":4,"layer":"乡镇"},"geometry":{"type":"Polygon","coordinates":[[[108.91508,34.315399],[108.914884,34.315372],[108.914541,34.315372],[108.914576,34.315299],[108.914654,34.315062],[108.91467,34.314962],[108.914667,34.3149],[108.914648,34.31484],[108.91456,34.314767],[108.91452,34.314719],[108.914509,34.314676],[108.914493,34.314315],[108.914546,34.314256],[108.914603,34.314236],[108.914664,34.314189],[108.914686,34.314072],[108.914664,34.313183],[108.91468,34.312138],[108.914785,34.311608],[108.914812,34.311331],[108.91479,34.311114],[108.914737,34.310917],[108.914739,34.310582],[108.914664,34.310503],[108.914514,34.310425],[108.914474,34.310062],[108.91442,34.309756],[108.914284,34.309528],[108.914265,34.309424],[108.914265,34.309271],[108.913409,34.309291],[108.913396,34.308699],[108.913071,34.308712],[108.913068,34.309238],[108.913074,34.30943],[108.913141,34.309428],[108.913205,34.310516],[108.910445,34.310511],[108.910437,34.310751],[108.910416,34.310828],[108.910397,34.311686],[108.907905,34.311668],[108.907916,34.311553],[108.907685,34.311553],[108.907278,34.311553],[108.907275,34.31165],[108.905472,34.311599],[108.904062,34.311548],[108.904121,34.311894],[108.90411,34.313039],[108.901841,34.313033],[108.901862,34.314242],[108.901849,34.314814],[108.901664,34.314816],[108.90157,34.315764],[108.901428,34.315758],[108.901403,34.316041],[108.901401,34.316041],[108.901387,34.316218],[108.901371,34.316396],[108.901372,34.316396],[108.901328,34.31691],[108.901318,34.317353],[108.901229,34.318374],[108.900653,34.318358],[108.900602,34.318715],[108.900569,34.31881],[108.900478,34.318888],[108.900465,34.318937],[108.900476,34.318979],[108.899867,34.318983],[108.89848,34.319023],[108.898483,34.318866],[108.897906,34.318815],[108.897917,34.319019],[108.89756,34.319021],[108.897184,34.318988],[108.897203,34.318132],[108.896484,34.318106],[108.89627,34.318097],[108.89627,34.318097],[108.896101,34.31809],[108.896101,34.318152],[108.894988,34.318157],[108.894797,34.318163],[108.894615,34.317395],[108.893539,34.317401],[108.893405,34.317381],[108.8934,34.317078],[108.893365,34.317078],[108.893384,34.316834],[108.893378,34.316396],[108.893378,34.316396],[108.893376,34.316218],[108.893376,34.316041],[108.893375,34.316041],[108.89337,34.315392],[108.89336,34.315365],[108.892606,34.31527],[108.892654,34.314727],[108.892662,34.314313],[108.892587,34.314313],[108.89259,34.314014],[108.890769,34.313832],[108.888808,34.313755],[108.888835,34.313152],[108.886912,34.313214],[108.886914,34.313299],[108.88644,34.313294],[108.885713,34.313277],[108.885713,34.313274],[108.885498,34.313272],[108.885393,34.313267],[108.885342,34.313976],[108.885498,34.31399],[108.88567,34.314003],[108.885654,34.314621],[108.885707,34.314621],[108.885697,34.315259],[108.885638,34.315984],[108.885498,34.315981],[108.885283,34.315972],[108.885283,34.315974],[108.884221,34.315939],[108.884214,34.316041],[108.884213,34.316041],[108.884203,34.316218],[108.884192,34.316396],[108.884192,34.316396],[108.884162,34.316907],[108.883921,34.316896],[108.883881,34.317486],[108.883175,34.317944],[108.882891,34.318225],[108.882789,34.31819],[108.882652,34.318175],[108.882521,34.318194],[108.882462,34.318234],[108.882432,34.318281],[108.882395,34.318465],[108.882408,34.318611],[108.882338,34.319072],[108.881595,34.319036],[108.881542,34.319838],[108.882127,34.319905],[108.881877,34.320405],[108.881822,34.320489],[108.881823,34.320489],[108.881429,34.321085],[108.881223,34.321475],[108.881011,34.321801],[108.88097,34.321836],[108.882735,34.321905],[108.882743,34.321796],[108.883725,34.321728],[108.883688,34.321535],[108.885283,34.321533],[108.885283,34.321533],[108.885498,34.321533],[108.88579,34.321531],[108.885734,34.323161],[108.885717,34.325115],[108.885715,34.325292],[108.885715,34.325469],[108.885715,34.325602],[108.885713,34.325676],[108.885713,34.325677],[108.885697,34.326118],[108.885713,34.326118],[108.885761,34.326118],[108.885758,34.326224],[108.885713,34.326224],[108.885691,34.326224],[108.885678,34.326579],[108.885643,34.326847],[108.885565,34.327897],[108.885536,34.328714],[108.885498,34.328714],[108.885283,34.32871],[108.885283,34.328709],[108.883631,34.32867],[108.88361,34.329543],[108.883612,34.329868],[108.883561,34.330081],[108.88357,34.330236],[108.885283,34.330179],[108.885283,34.330178],[108.885498,34.330172],[108.885713,34.330163],[108.885713,34.330164],[108.885879,34.330158],[108.887569,34.330176],[108.887577,34.330581],[108.887574,34.334364],[108.887574,34.334542],[108.887574,34.334949],[108.887534,34.336039],[108.887212,34.339695],[108.885498,34.339585],[108.885283,34.339571],[108.885283,34.339571],[108.884251,34.339503],[108.884119,34.340632],[108.883921,34.340615],[108.883886,34.340938],[108.883666,34.342324],[108.882354,34.342253],[108.882314,34.342499],[108.881351,34.342408],[108.881247,34.343263],[108.88192,34.343343],[108.88189,34.343436],[108.881837,34.343613],[108.881837,34.343613],[108.881823,34.343658],[108.881542,34.345285],[108.881266,34.345243],[108.881011,34.346014],[108.88052,34.347207],[108.880587,34.34723],[108.880439,34.347555],[108.880386,34.347537],[108.88037,34.347577],[108.88012,34.348058],[108.879903,34.348425],[108.879517,34.348253],[108.879729,34.347878],[108.879316,34.347661],[108.878693,34.347425],[108.878548,34.347595],[108.877969,34.348459],[108.87761,34.349218],[108.877328,34.349123],[108.877068,34.349739],[108.876644,34.349612],[108.876443,34.350104],[108.876236,34.350153],[108.876038,34.350252],[108.875472,34.350221],[108.875107,34.350186],[108.874868,34.351087],[108.874726,34.351474],[108.874726,34.351475],[108.874512,34.352057],[108.874297,34.352569],[108.874297,34.352564],[108.874247,34.352684],[108.873994,34.353286],[108.874297,34.353335],[108.874512,34.35337],[108.874726,34.353403],[108.874726,34.353404],[108.877068,34.353771],[108.87666,34.354743],[108.876236,34.356293],[108.876054,34.356833],[108.874726,34.356044],[108.874726,34.356045],[108.874512,34.355917],[108.874152,34.355702],[108.873975,34.358078],[108.8737,34.361399],[108.873702,34.361399],[108.873688,34.361576],[108.873653,34.362026],[108.873519,34.363356],[108.874512,34.363715],[108.874655,34.363767],[108.874683,34.363777],[108.874726,34.363792],[108.875869,34.364182],[108.876236,34.364289],[108.878074,34.364962],[108.879994,34.365566],[108.881276,34.366024],[108.88229,34.366629],[108.882765,34.36697],[108.882735,34.366994],[108.882861,34.367085],[108.882886,34.367056],[108.88413,34.368017],[108.885283,34.369027],[108.885498,34.369215],[108.885713,34.369402],[108.885729,34.369416],[108.886303,34.36987],[108.886721,34.370021],[108.888054,34.370337],[108.888556,34.370468],[108.889237,34.370645],[108.88992,34.370822],[108.890133,34.370877],[108.890369,34.370902],[108.891734,34.371161],[108.892646,34.371413],[108.893408,34.371657],[108.894027,34.371878],[108.896028,34.372496],[108.89627,34.372564],[108.896484,34.372624],[108.896683,34.372677],[108.896699,34.372682],[108.898507,34.373147],[108.89969,34.373494],[108.901803,34.374203],[108.902734,34.374661],[108.902884,34.374867],[108.903034,34.375117],[108.90327,34.375314],[108.903404,34.375447],[108.90356,34.375533],[108.905349,34.376044],[108.905776,34.375128],[108.907219,34.375551],[108.907288,34.375524],[108.907471,34.375476],[108.908224,34.375272],[108.913618,34.375358],[108.914517,34.375347],[108.915254,34.375312],[108.915912,34.375214],[108.917073,34.375106],[108.917494,34.375004],[108.918242,34.37492],[108.918457,34.374896],[108.918672,34.37487],[108.919828,34.374734],[108.919997,34.374628],[108.920595,34.374676],[108.921491,34.374703],[108.921426,34.374878],[108.922008,34.374915],[108.922459,34.374995],[108.922864,34.375104],[108.923644,34.375104],[108.925125,34.375422],[108.925114,34.376357],[108.925138,34.376737],[108.925114,34.377154],[108.92513,34.377216],[108.925128,34.377289],[108.925211,34.377512],[108.926091,34.377871],[108.926804,34.378028],[108.927284,34.377047],[108.927539,34.377271],[108.928223,34.377913],[108.928373,34.378086],[108.92822,34.378539],[108.92866,34.378652],[108.928775,34.379161],[108.92888,34.379713],[108.928915,34.37989],[108.928926,34.379947],[108.928977,34.380093],[108.929062,34.380279],[108.92914,34.380383],[108.929229,34.380551],[108.929231,34.380556],[108.929403,34.380667],[108.929229,34.380797],[108.929229,34.380797],[108.928623,34.381249],[108.928923,34.381503],[108.928907,34.381517],[108.929443,34.38201],[108.929636,34.382185],[108.929714,34.382198],[108.929934,34.382329],[108.931181,34.383281],[108.931262,34.383265],[108.931372,34.383068],[108.931645,34.382471],[108.933257,34.383713],[108.933646,34.384022],[108.934864,34.38311],[108.936661,34.38],[108.940215,34.380643],[108.940215,34.380645],[108.94043,34.380682],[108.940644,34.380722],[108.940644,34.380721],[108.942862,34.38112],[108.943074,34.379713],[108.943308,34.378185],[108.943246,34.376691],[108.943238,34.374289],[108.943144,34.374285],[108.94043,34.373762],[108.940215,34.37372],[108.940215,34.37372],[108.936417,34.372981],[108.934387,34.372542],[108.929443,34.371484],[108.929138,34.371418],[108.925624,34.370791],[108.925093,34.370822],[108.925093,34.370822],[108.921491,34.371032],[108.918457,34.371453],[108.918242,34.371482],[108.918242,34.371482],[108.917617,34.371566],[108.91533,34.370645],[108.91489,34.370468],[108.914889,34.370468],[108.914576,34.370342],[108.91445,34.363157],[108.918457,34.364271],[108.918672,34.364331],[108.918672,34.364328],[108.920082,34.364718],[108.92012,34.361576],[108.920123,34.361399],[108.920122,34.361399],[108.92015,34.359391],[108.922901,34.359462],[108.92487,34.359603],[108.924835,34.359896],[108.924803,34.36031],[108.924792,34.360708],[108.924758,34.361399],[108.924758,34.361399],[108.924749,34.361576],[108.924741,34.361753],[108.924742,34.361753],[108.924728,34.362097],[108.923443,34.365482],[108.924599,34.365723],[108.929229,34.365838],[108.929229,34.365838],[108.929443,34.365843],[108.929658,34.365849],[108.929658,34.365848],[108.937992,34.366053],[108.940215,34.366017],[108.940215,34.366018],[108.94043,34.366013],[108.943841,34.365949],[108.94385,34.365903],[108.944179,34.365923],[108.944394,34.363863],[108.944281,34.363872],[108.94415,34.363968],[108.943917,34.364244],[108.943887,34.364355],[108.943841,34.364432],[108.943208,34.364486],[108.943037,34.364565],[108.942138,34.364581],[108.941682,34.364481],[108.94043,34.364364],[108.940215,34.364344],[108.940215,34.364344],[108.939705,34.364293],[108.939912,34.36286],[108.939432,34.362827],[108.939625,34.361753],[108.939628,34.361753],[108.93966,34.361576],[108.939738,34.36116],[108.94043,34.35824],[108.940682,34.357436],[108.941216,34.356227],[108.941462,34.355228],[108.941068,34.354407],[108.940929,34.354404],[108.940926,34.354179],[108.940961,34.354181],[108.940711,34.353663],[108.94043,34.353158],[108.940408,34.353118],[108.940207,34.353105],[108.939995,34.353434],[108.93985,34.353543],[108.939638,34.353578],[108.939574,34.353574],[108.939598,34.353098],[108.939711,34.352507],[108.939746,34.35233],[108.939745,34.35233],[108.93984,34.351847],[108.939123,34.351767],[108.938952,34.35163],[108.938622,34.35174],[108.938136,34.351729],[108.938155,34.350319],[108.938222,34.350321],[108.938225,34.349971],[108.938161,34.349969],[108.938182,34.348536],[108.938737,34.348525],[108.940148,34.348589],[108.940132,34.348217],[108.940215,34.34816],[108.940215,34.348162],[108.940231,34.348149],[108.94043,34.348158],[108.940644,34.348166],[108.940644,34.348166],[108.941031,34.348182],[108.941108,34.347571],[108.940894,34.347059],[108.940811,34.346891],[108.940644,34.346909],[108.940644,34.346909],[108.94043,34.346933],[108.937796,34.347212],[108.93304,34.346993],[108.933102,34.348093],[108.933134,34.348089],[108.933164,34.348574],[108.933129,34.348576],[108.933147,34.348906],[108.929658,34.348935],[108.929658,34.348935],[108.929443,34.348937],[108.924843,34.348972],[108.924827,34.347666],[108.923218,34.347646],[108.923215,34.348071],[108.921257,34.348067],[108.921306,34.346565],[108.920375,34.34651],[108.920386,34.345035],[108.920276,34.344515],[108.920308,34.343436],[108.920313,34.343325],[108.919077,34.343248],[108.918993,34.343257],[108.919036,34.342506],[108.919466,34.339051],[108.921228,34.33906],[108.921367,34.338876],[108.924243,34.338887],[108.924213,34.338103],[108.924554,34.338079],[108.924556,34.337795],[108.925616,34.337689],[108.925664,34.336145],[108.92707,34.336145],[108.927027,34.335414],[108.92836,34.335372],[108.928354,34.334637],[108.928207,34.334646],[108.92818,34.334364],[108.928167,34.334187],[108.928165,34.334187],[108.928097,34.333352],[108.927453,34.333363],[108.927485,34.332513],[108.926844,34.332517],[108.926547,34.332511],[108.926552,34.332088],[108.926791,34.332088],[108.926729,34.331598],[108.926514,34.330834],[108.926375,34.330683],[108.926037,34.330663],[108.926013,34.330134],[108.925455,34.330105],[108.92546,34.329711],[108.924428,34.328679],[108.923545,34.328025],[108.923231,34.327968],[108.923183,34.327932],[108.923146,34.327166],[108.923143,34.32634],[108.922875,34.326324],[108.922781,34.326322],[108.922762,34.32577],[108.92325,34.325779],[108.923242,34.325485],[108.923242,34.325469],[108.923242,34.325292],[108.923245,34.325115],[108.923245,34.325115],[108.923256,34.324335],[108.923242,34.323239],[108.922767,34.323241],[108.922655,34.322711],[108.923915,34.322605],[108.923902,34.322146],[108.922526,34.322155],[108.922526,34.320452],[108.922606,34.320454],[108.92262,34.319586],[108.922486,34.319579],[108.922523,34.317851],[108.921944,34.317851],[108.921939,34.317796],[108.921568,34.317785],[108.921558,34.317973],[108.920327,34.317933],[108.920187,34.317891],[108.920147,34.317867],[108.920209,34.316726],[108.918457,34.316712],[108.918314,34.316712],[108.91817,34.31671],[108.918234,34.316356],[108.917269,34.316314],[108.915635,34.316267],[108.915633,34.316218],[108.915627,34.315855],[108.915576,34.315782],[108.91508,34.315399]]]}}]}