{
  "type": "Feature",
  "geometry": {
    "type": "MultiPolygon",
    "coordinates": [
      [
        [
          [
            109.15480585432098,
            34.25985759771086
          ],
          [
            109.1541843304371,
            34.25982341603718
          ],
          [
            109.15341434013294,
            34.25926268922847
          ],
          [
            109.15346951421958,
            34.25819510859431
          ],
          [
            109.15306722924156,
            34.25812223545806
          ],
          [
            109.15277703470318,
            34.25777496785258
          ],
          [
            109.15219481772498,
            34.25742469703794
          ],
          [
            109.15186567734528,
            34.257012291554375
          ],
          [
            109.15143527794912,
            34.256779942696575
          ],
          [
            109.15117864386492,
            34.25639315494278
          ],
          [
            109.1504720630647,
            34.256107761051666
          ],
          [
            109.15023406305866,
            34.25568892129767
          ],
          [
            109.14970092582756,
            34.25554947361054
          ],
          [
            109.14889989851316,
            34.25569646916668
          ],
          [
            109.14845900466842,
            34.25553979434809
          ],
          [
            109.14769009754058,
            34.25505860750852
          ],
          [
            109.14694429625506,
            34.25502179514506
          ],
          [
            109.14601571025968,
            34.254490390990505
          ],
          [
            109.146128204858,
            34.25395698208758
          ],
          [
            109.14646317696403,
            34.253622857092104
          ],
          [
            109.14866400002448,
            34.25308639678758
          ],
          [
            109.14884787128888,
            34.25288388314031
          ],
          [
            109.14882125108116,
            34.25269351282937
          ],
          [
            109.14753800766844,
            34.25142667426706
          ],
          [
            109.1474153707967,
            34.25109620048217
          ],
          [
            109.14805680839837,
            34.25032036148973
          ],
          [
            109.14549023070576,
            34.24979746925263
          ],
          [
            109.1450994940548,
            34.25013681081251
          ],
          [
            109.14471114923626,
            34.25064949203372
          ],
          [
            109.14456265919848,
            34.2506471566355
          ],
          [
            109.14386052639244,
            34.24996920815647
          ],
          [
            109.14318371655828,
            34.24953801397237
          ],
          [
            109.14231943178916,
            34.248626425729654
          ],
          [
            109.14183860339736,
            34.24799802952351
          ],
          [
            109.14166022171058,
            34.24761910274667
          ],
          [
            109.13978849787296,
            34.24906812980382
          ],
          [
            109.13831575990146,
            34.250006312292214
          ],
          [
            109.13746156733988,
            34.25072370963145
          ],
          [
            109.13579832661743,
            34.25182994994766
          ],
          [
            109.1328688209569,
            34.254778878283815
          ],
          [
            109.13486752279852,
            34.25604173122874
          ],
          [
            109.13453956544603,
            34.25643443435821
          ],
          [
            109.13423438369368,
            34.256254996061976
          ],
          [
            109.1332199086124,
            34.257510260786596
          ],
          [
            109.13360865247408,
            34.2577620715286
          ],
          [
            109.1330360729104,
            34.2582503285091
          ],
          [
            109.13358555772976,
            34.25859761058444
          ],
          [
            109.13366912868344,
            34.25869288304069
          ],
          [
            109.13365430628424,
            34.25878832567148
          ],
          [
            109.13223516975636,
            34.260214916027635
          ],
          [
            109.13190698147396,
            34.260157520910234
          ],
          [
            109.13143382016882,
            34.26067651741368
          ],
          [
            109.1311895228601,
            34.26051237715638
          ],
          [
            109.13073237828895,
            34.25998981795381
          ],
          [
            109.13006830424266,
            34.260230409818256
          ],
          [
            109.12675710694307,
            34.26354144100685
          ],
          [
            109.12505546022312,
            34.2615349051991
          ],
          [
            109.12433068204103,
            34.26194688677949
          ],
          [
            109.12264452981496,
            34.263178909106344
          ],
          [
            109.12156893681066,
            34.2637856426498
          ],
          [
            109.11825759506598,
            34.266009657135136
          ],
          [
            109.1160143168366,
            34.26765366335066
          ],
          [
            109.11514466987724,
            34.26837485168612
          ],
          [
            109.11401577901223,
            34.269572604151485
          ],
          [
            109.11257507189428,
            34.2713671728864
          ],
          [
            109.11170383422186,
            34.27245272426227
          ],
          [
            109.1098878343622,
            34.27392526661648
          ],
          [
            109.1092697269225,
            34.27454351790504
          ],
          [
            109.10899883287908,
            34.27477689773087
          ],
          [
            109.1076217191946,
            34.27596612283592
          ],
          [
            109.10657643549833,
            34.277011498798444
          ],
          [
            109.10579317361152,
            34.27762448131994
          ],
          [
            109.10229607222723,
            34.28036078152605
          ],
          [
            109.10062526407933,
            34.28176456690447
          ],
          [
            109.0988553810647,
            34.28297005241194
          ],
          [
            109.09698594166188,
            34.28410320959074
          ],
          [
            109.09528015171855,
            34.28526728322789
          ],
          [
            109.0950513259082,
            34.28542324920716
          ],
          [
            109.09503733660804,
            34.285433247004896
          ],
          [
            109.09095881736708,
            34.28821562871127
          ],
          [
            109.08989817865562,
            34.28913870681456
          ],
          [
            109.08718924068503,
            34.29179774584992
          ],
          [
            109.08579879911608,
            34.293360305369546
          ],
          [
            109.08819677950764,
            34.29553983998939
          ],
          [
            109.087502464876,
            34.2962224670134
          ],
          [
            109.08818159084352,
            34.296764411147585
          ],
          [
            109.08927230749448,
            34.2957116036816
          ],
          [
            109.08982957172424,
            34.29696273753977
          ],
          [
            109.09013472419193,
            34.29824086250724
          ],
          [
            109.09049324868722,
            34.29924019404753
          ],
          [
            109.09111134707923,
            34.29979714060081
          ],
          [
            109.09121022755826,
            34.29999162305448
          ],
          [
            109.0918667179963,
            34.3027649941971
          ],
          [
            109.09326246730927,
            34.30287168797687
          ],
          [
            109.09590811744874,
            34.30281856983891
          ],
          [
            109.09719393874762,
            34.305317351071494
          ],
          [
            109.09632227802354,
            34.308773257304026
          ],
          [
            109.09579567318184,
            34.30891044879175
          ],
          [
            109.09594047737735,
            34.309852706181175
          ],
          [
            109.09604728108609,
            34.31000532581169
          ],
          [
            109.09639145917528,
            34.31182116776125
          ],
          [
            109.09269836482012,
            34.31239333035366
          ],
          [
            109.09071464295482,
            34.31262980843903
          ],
          [
            109.09041683343231,
            34.312950465167106
          ],
          [
            109.0901572216746,
            34.31287409328579
          ],
          [
            109.0894555946524,
            34.31294642732218
          ],
          [
            109.0900814369556,
            34.31593721595664
          ],
          [
            109.08999730431772,
            34.3162236151594
          ],
          [
            109.09033300233062,
            34.31777617582707
          ],
          [
            109.09079349336773,
            34.317963829335724
          ],
          [
            109.09143689022028,
            34.317210970403785
          ],
          [
            109.09268065833314,
            34.317237610278944
          ],
          [
            109.09496361902065,
            34.31723515267986
          ],
          [
            109.0954559369516,
            34.320425603866845
          ],
          [
            109.09783324071584,
            34.320793452132854
          ],
          [
            109.09796304871516,
            34.320843126287016
          ],
          [
            109.09811493029171,
            34.32103743344781
          ],
          [
            109.09893159217292,
            34.321194165794694
          ],
          [
            109.09912216873448,
            34.32240730411976
          ],
          [
            109.1000072520781,
            34.32237286641701
          ],
          [
            109.100961344538,
            34.32344095353462
          ],
          [
            109.10140351312248,
            34.3235475575525
          ],
          [
            109.10155641466017,
            34.32382224917259
          ],
          [
            109.10224296610556,
            34.32415809644297
          ],
          [
            109.10334151558156,
            34.32862139554412
          ],
          [
            109.1048601008325,
            34.32955212752449
          ],
          [
            109.10595883873468,
            34.33012048851007
          ],
          [
            109.107949937299,
            34.33001736811039
          ],
          [
            109.10795756249026,
            34.329716114981636
          ],
          [
            109.1107808506173,
            34.32936529800051
          ],
          [
            109.11001757081122,
            34.32601579996593
          ],
          [
            109.10982718227544,
            34.32601220863691
          ],
          [
            109.10928852719618,
            34.32368544970091
          ],
          [
            109.10922655613308,
            34.323419545966225
          ],
          [
            109.10902585170248,
            34.32255206118715
          ],
          [
            109.11011658135568,
            34.322410744764575
          ],
          [
            109.11152090233904,
            34.32193400476303
          ],
          [
            109.11309241516594,
            34.321670845663924
          ],
          [
            109.11425940045532,
            34.32118621646258
          ],
          [
            109.1149694367921,
            34.32098039135012
          ],
          [
            109.11713054398362,
            34.32094558375094
          ],
          [
            109.11876086763272,
            34.320919001425054
          ],
          [
            109.11928776993656,
            34.32082368872538
          ],
          [
            109.12019576171662,
            34.32049562854196
          ],
          [
            109.12115670528704,
            34.32026680029471
          ],
          [
            109.1233182376513,
            34.31987055021488
          ],
          [
            109.12398782840006,
            34.31974788003092
          ],
          [
            109.12518545928774,
            34.319690847878206
          ],
          [
            109.12639087281369,
            34.3194161734124
          ],
          [
            109.1292514106779,
            34.3190184268829
          ],
          [
            109.13039895979348,
            34.318819103058985
          ],
          [
            109.13061294906645,
            34.31870351916339
          ],
          [
            109.1308306590174,
            34.31840692515907
          ],
          [
            109.13095721872254,
            34.31781305693699
          ],
          [
            109.13115502418644,
            34.31740309248832
          ],
          [
            109.13090825250804,
            34.3169490956413
          ],
          [
            109.13094611336258,
            34.31662239336463
          ],
          [
            109.13111949225248,
            34.31627506897483
          ],
          [
            109.13113312804852,
            34.31599981279836
          ],
          [
            109.1315187228133,
            34.315309712915884
          ],
          [
            109.13176525936431,
            34.31508202840091
          ],
          [
            109.13199402137116,
            34.31440692840507
          ],
          [
            109.1320081376094,
            34.314365165510495
          ],
          [
            109.13326104375771,
            34.31367020009762
          ],
          [
            109.13444661421777,
            34.313256859960724
          ],
          [
            109.13496775861424,
            34.31290702282497
          ],
          [
            109.135226149264,
            34.312535143993365
          ],
          [
            109.13563738274172,
            34.31232880104748
          ],
          [
            109.13574369310211,
            34.31230535800424
          ],
          [
            109.13613107128631,
            34.31253009095905
          ],
          [
            109.13625930387794,
            34.312532168174236
          ],
          [
            109.13651419311496,
            34.31226054758571
          ],
          [
            109.13727562508105,
            34.31195905714041
          ],
          [
            109.13769951926506,
            34.311527757046186
          ],
          [
            109.1378180653845,
            34.311328117510726
          ],
          [
            109.13785523310088,
            34.31101581284083
          ],
          [
            109.1382120328258,
            34.310908674459604
          ],
          [
            109.13838974221392,
            34.310754301301046
          ],
          [
            109.14015831623986,
            34.30993047265908
          ],
          [
            109.14075526808736,
            34.309299852328955
          ],
          [
            109.14106705488544,
            34.30908501982685
          ],
          [
            109.1416935054554,
            34.30905428546283
          ],
          [
            109.14218147280437,
            34.30931641442772
          ],
          [
            109.14240604410682,
            34.309345747033746
          ],
          [
            109.14289405821644,
            34.30918307623889
          ],
          [
            109.1434033748638,
            34.30937038561237
          ],
          [
            109.14423673394474,
            34.30927354110239
          ],
          [
            109.1461879515304,
            34.309412806100916
          ],
          [
            109.14717274447128,
            34.309635313073414
          ],
          [
            109.147657566613,
            34.31000624327462
          ],
          [
            109.1482884129258,
            34.31015991898699
          ],
          [
            109.14851010479894,
            34.3103019236599
          ],
          [
            109.14861823590697,
            34.31050481189878
          ],
          [
            109.14872678781556,
            34.31047880499143
          ],
          [
            109.1490080094223,
            34.31010344600583
          ],
          [
            109.14912978010464,
            34.31008325938339
          ],
          [
            109.14919145982034,
            34.31015173185585
          ],
          [
            109.14920045044876,
            34.310402533106995
          ],
          [
            109.14934324649654,
            34.3104331591907
          ],
          [
            109.1494751438748,
            34.31027905115121
          ],
          [
            109.1498540779547,
            34.31023820913944
          ],
          [
            109.15015111257377,
            34.31004729873717
          ],
          [
            109.15035018587643,
            34.31013739578467
          ],
          [
            109.15060256108596,
            34.30993551672786
          ],
          [
            109.15126772112454,
            34.30980551232773
          ],
          [
            109.15271950281874,
            34.31002381857363
          ],
          [
            109.15345319420628,
            34.30985457357046
          ],
          [
            109.15482173189991,
            34.30980729977489
          ],
          [
            109.1554296692727,
            34.30953260068056
          ],
          [
            109.15555226936868,
            34.3093584972006
          ],
          [
            109.15570960122508,
            34.30827696590292
          ],
          [
            109.15606577741715,
            34.30785539031031
          ],
          [
            109.1566200519391,
            34.30749794141933
          ],
          [
            109.15688896467968,
            34.30747613286099
          ],
          [
            109.15856440833628,
            34.30792654899361
          ],
          [
            109.15890233019556,
            34.30796874258724
          ],
          [
            109.15918457614632,
            34.30790108570368
          ],
          [
            109.15931519225576,
            34.30776178602276
          ],
          [
            109.15959252751132,
            34.30659601579598
          ],
          [
            109.1598005814418,
            34.306275638977105
          ],
          [
            109.15997796913098,
            34.30616891054115
          ],
          [
            109.16031409080048,
            34.3062478890799
          ],
          [
            109.16061945011155,
            34.306500534256784
          ],
          [
            109.16157134170756,
            34.30667610217875
          ],
          [
            109.16168201065815,
            34.30675497028922
          ],
          [
            109.16155103746785,
            34.307503892150564
          ],
          [
            109.16159969896026,
            34.30768539982155
          ],
          [
            109.16176084669787,
            34.30778145301723
          ],
          [
            109.16280941875767,
            34.30778738462541
          ],
          [
            109.1630056244829,
            34.30788380396802
          ],
          [
            109.16303446167782,
            34.30798731061532
          ],
          [
            109.1629078392704,
            34.30821297453499
          ],
          [
            109.16245025144968,
            34.30885933698572
          ],
          [
            109.162496013604,
            34.30898496463914
          ],
          [
            109.16271155189834,
            34.30905593064574
          ],
          [
            109.16539827657348,
            34.309077609044834
          ],
          [
            109.16633698358991,
            34.30812069383297
          ],
          [
            109.16655292873018,
            34.30819156550564
          ],
          [
            109.16699280225198,
            34.308684765533805
          ],
          [
            109.16715586604036,
            34.308708160187145
          ],
          [
            109.16759321151828,
            34.30834104520812
          ],
          [
            109.16813672360254,
            34.30806388920478
          ],
          [
            109.16833424581895,
            34.30807315551355
          ],
          [
            109.16866636422418,
            34.30836174839452
          ],
          [
            109.16872692728228,
            34.30877727426706
          ],
          [
            109.1688303911192,
            34.30884143946411
          ],
          [
            109.16977514368696,
            34.30879413535169
          ],
          [
            109.16984115322563,
            34.3087796659407
          ],
          [
            109.1699467695922,
            34.308283388705085
          ],
          [
            109.17019028613755,
            34.30808833448825
          ],
          [
            109.17054798123274,
            34.30799734801674
          ],
          [
            109.17099543899636,
            34.307733508441004
          ],
          [
            109.17124107034206,
            34.30741291490902
          ],
          [
            109.17154358414751,
            34.30721987083527
          ],
          [
            109.17203550823692,
            34.30703917743501
          ],
          [
            109.1724288754971,
            34.30680002490821
          ],
          [
            109.17393850592212,
            34.305072338700384
          ],
          [
            109.1749139177889,
            34.30494892602372
          ],
          [
            109.17498425684612,
            34.3046759802239
          ],
          [
            109.17463632052927,
            34.30427750519145
          ],
          [
            109.17462801609094,
            34.30417153695427
          ],
          [
            109.17527030636911,
            34.30374873141745
          ],
          [
            109.17594647858554,
            34.30300782984343
          ],
          [
            109.17647547503016,
            34.30265387848482
          ],
          [
            109.17664635618648,
            34.30263410720575
          ],
          [
            109.17686740994638,
            34.30272128209428
          ],
          [
            109.17720243338772,
            34.3029954865972
          ],
          [
            109.17757019281062,
            34.30346476471403
          ],
          [
            109.17793209292942,
            34.304500677808456
          ],
          [
            109.17835218480288,
            34.30440870257039
          ],
          [
            109.17896840872775,
            34.30414876661325
          ],
          [
            109.17954284705584,
            34.304068770484655
          ],
          [
            109.1797285276576,
            34.30429961217656
          ],
          [
            109.18008654360077,
            34.305026651192975
          ],
          [
            109.18027113002822,
            34.30516173287243
          ],
          [
            109.18120255075704,
            34.304927261041875
          ],
          [
            109.1815119489095,
            34.304912438711824
          ],
          [
            109.1820444607825,
            34.305390305759985
          ],
          [
            109.18238550240804,
            34.30543081478247
          ],
          [
            109.18262790112657,
            34.305293221656946
          ],
          [
            109.18276133581136,
            34.30503918033249
          ],
          [
            109.18273863601895,
            34.30461902675282
          ],
          [
            109.18263088161484,
            34.304418518682816
          ],
          [
            109.18238198779513,
            34.30437987882828
          ],
          [
            109.18157437712078,
            34.30458849881418
          ],
          [
            109.1813878788134,
            34.30457695994045
          ],
          [
            109.18134822667604,
            34.30444374633885
          ],
          [
            109.18161620802876,
            34.303851605264285
          ],
          [
            109.18163581628194,
            34.30296463696763
          ],
          [
            109.18227546387492,
            34.302690936479124
          ],
          [
            109.18261038899868,
            34.30280080288261
          ],
          [
            109.18285456264182,
            34.3029793713571
          ],
          [
            109.18353092950194,
            34.30307066897472
          ],
          [
            109.18592621153262,
            34.30288900041543
          ],
          [
            109.1861750035834,
            34.302834173328236
          ],
          [
            109.18636541265656,
            34.30268178396453
          ],
          [
            109.18639607559764,
            34.30250451801616
          ],
          [
            109.18633549648584,
            34.30233168589967
          ],
          [
            109.1854312388196,
            34.301731920696916
          ],
          [
            109.18458187771584,
            34.30090174846561
          ],
          [
            109.184133338427,
            34.30011677951985
          ],
          [
            109.18410920972708,
            34.30000808360269
          ],
          [
            109.18429023008976,
            34.299607890156445
          ],
          [
            109.18484951674616,
            34.29953673836737
          ],
          [
            109.1857962938088,
            34.29959672593758
          ],
          [
            109.18650587733316,
            34.29982990132199
          ],
          [
            109.18711594422288,
            34.29956171434808
          ],
          [
            109.18768380937809,
            34.299662784669145
          ],
          [
            109.1878363349655,
            34.29975961385158
          ],
          [
            109.1883285062631,
            34.29954438448683
          ],
          [
            109.1886987659285,
            34.29959361944619
          ],
          [
            109.18899663138193,
            34.29944011423676
          ],
          [
            109.1893150513886,
            34.298999270814186
          ],
          [
            109.18981652872058,
            34.2987495633886
          ],
          [
            109.18981764896284,
            34.298534859925525
          ],
          [
            109.18992332471672,
            34.298338132066824
          ],
          [
            109.19055386080151,
            34.29842359827257
          ],
          [
            109.1911661051895,
            34.29802364065952
          ],
          [
            109.19190085723938,
            34.298386853410726
          ],
          [
            109.19214100516469,
            34.29843474649399
          ],
          [
            109.19223473004683,
            34.29857644550418
          ],
          [
            109.19265253887065,
            34.29858256066092
          ],
          [
            109.19298130344336,
            34.298729258983755
          ],
          [
            109.19328235354948,
            34.29855734868516
          ],
          [
            109.19342115248224,
            34.298570879206544
          ],
          [
            109.19358265194128,
            34.298951886096035
          ],
          [
            109.19452825626544,
            34.29948625052155
          ],
          [
            109.19461656991672,
            34.299620339997595
          ],
          [
            109.19486782173054,
            34.299662243755535
          ],
          [
            109.1952700486722,
            34.30011871577119
          ],
          [
            109.19542296519072,
            34.30009478175162
          ],
          [
            109.19557797564404,
            34.30016940722897
          ],
          [
            109.19618467637846,
            34.30067179246296
          ],
          [
            109.19619547150214,
            34.30090140862373
          ],
          [
            109.19609121495309,
            34.301041174036456
          ],
          [
            109.19562324209085,
            34.30129038617356
          ],
          [
            109.19520291024544,
            34.30178756398443
          ],
          [
            109.19452474306938,
            34.30189697705698
          ],
          [
            109.1926590697602,
            34.30180734567535
          ],
          [
            109.19220228682538,
            34.301999575379085
          ],
          [
            109.19169639975728,
            34.302517472089235
          ],
          [
            109.19150241799504,
            34.303627441728246
          ],
          [
            109.19135486293752,
            34.304057793798016
          ],
          [
            109.19171934535596,
            34.30469474026853
          ],
          [
            109.19175386595109,
            34.30504404357963
          ],
          [
            109.19172179552837,
            34.30531296764738
          ],
          [
            109.19137383140632,
            34.305903800059454
          ],
          [
            109.19145173834262,
            34.3059976929791
          ],
          [
            109.19205742461727,
            34.30605081613859
          ],
          [
            109.19219942625752,
            34.306123528150735
          ],
          [
            109.19222325000172,
            34.30625201145315
          ],
          [
            109.19221450287024,
            34.306649317800805
          ],
          [
            109.19207207737249,
            34.306845884010286
          ],
          [
            109.1915427675576,
            34.307213403993124
          ],
          [
            109.19157990086808,
            34.30746135657734
          ],
          [
            109.1917310102288,
            34.307613649366445
          ],
          [
            109.1925435946856,
            34.30767422199478
          ],
          [
            109.1945041225658,
            34.307583697374476
          ],
          [
            109.19484261444288,
            34.307438731994765
          ],
          [
            109.1953272640255,
            34.30665999424549
          ],
          [
            109.195736757241,
            34.30642308335209
          ],
          [
            109.1954876782268,
            34.30562472698824
          ],
          [
            109.1955068179579,
            34.30547482612943
          ],
          [
            109.19763670896155,
            34.304791542451476
          ],
          [
            109.19833715089078,
            34.304797475607444
          ],
          [
            109.19877942171048,
            34.305011591997676
          ],
          [
            109.19904507068574,
            34.30504410339228
          ],
          [
            109.19932264171892,
            34.30498347411024
          ],
          [
            109.19950939547046,
            34.3048831166096
          ],
          [
            109.1995631843874,
            34.30466899801602
          ],
          [
            109.19941903719354,
            34.30418558472277
          ],
          [
            109.20007512036352,
            34.30386866723921
          ],
          [
            109.20027187362626,
            34.30388447063035
          ],
          [
            109.20059775552862,
            34.304321987575925
          ],
          [
            109.20123176972967,
            34.30426090541391
          ],
          [
            109.20155145321289,
            34.30449939498254
          ],
          [
            109.20182219111192,
            34.30452570172121
          ],
          [
            109.20227598353858,
            34.304218836809206
          ],
          [
            109.20309599692986,
            34.30416910858803
          ],
          [
            109.2032755099297,
            34.30423335141377
          ],
          [
            109.20372529985534,
            34.30485794917942
          ],
          [
            109.20414698703712,
            34.3050629879984
          ],
          [
            109.2054690486761,
            34.30494109280985
          ],
          [
            109.2061602380504,
            34.30496458530376
          ],
          [
            109.20662125086083,
            34.30505070926809
          ],
          [
            109.2070262851882,
            34.30525539533286
          ],
          [
            109.20728146409768,
            34.30529453970113
          ],
          [
            109.20783358470648,
            34.30510390258479
          ],
          [
            109.2087205289647,
            34.30518729796232
          ],
          [
            109.20906757830848,
            34.30537808930103
          ],
          [
            109.20944336252587,
            34.30546726211414
          ],
          [
            109.21027984317524,
            34.30518831525784
          ],
          [
            109.21060417090202,
            34.30517085547754
          ],
          [
            109.2107151778348,
            34.305216782246816
          ],
          [
            109.21109198349328,
            34.306003926855425
          ],
          [
            109.21154888327548,
            34.30654928011622
          ],
          [
            109.21221182395692,
            34.307658338656005
          ],
          [
            109.21296944531372,
            34.30984191675675
          ],
          [
            109.2133103168069,
            34.31032392720786
          ],
          [
            109.21515939291426,
            34.3109468144982
          ],
          [
            109.21523644716233,
            34.31107604817881
          ],
          [
            109.21526093666589,
            34.31143861250574
          ],
          [
            109.21538562961112,
            34.3115815965573
          ],
          [
            109.21571809695152,
            34.311705635556805
          ],
          [
            109.21649422809487,
            34.311739030946036
          ],
          [
            109.21747448124964,
            34.311938964206796
          ],
          [
            109.21776847457626,
            34.3122993313908
          ],
          [
            109.21800804228282,
            34.312448231670054
          ],
          [
            109.21849760032804,
            34.31249955095201
          ],
          [
            109.21904086879636,
            34.312773119621774
          ],
          [
            109.21922025980024,
            34.313192022120106
          ],
          [
            109.21918594840504,
            34.31420432142046
          ],
          [
            109.21929541858866,
            34.31428470257242
          ],
          [
            109.2204013549478,
            34.314491179166154
          ],
          [
            109.22065170650812,
            34.31464027054319
          ],
          [
            109.221440482978,
            34.31610470248324
          ],
          [
            109.2218039827822,
            34.31638213913762
          ],
          [
            109.22263896763022,
            34.316497407288374
          ],
          [
            109.2231122556261,
            34.31627176686334
          ],
          [
            109.22385275891452,
            34.31626616744026
          ],
          [
            109.22436320565716,
            34.31648083907402
          ],
          [
            109.22666204817683,
            34.31676511980662
          ],
          [
            109.2278555989648,
            34.316994488014984
          ],
          [
            109.22868789437616,
            34.31697664663879
          ],
          [
            109.22889775082342,
            34.31712973612328
          ],
          [
            109.229131803992,
            34.317389392981426
          ],
          [
            109.22921681087809,
            34.31762154937166
          ],
          [
            109.22938965335707,
            34.317752117843504
          ],
          [
            109.2296946436078,
            34.31776993450036
          ],
          [
            109.22996697610004,
            34.31714512154789
          ],
          [
            109.23007820529932,
            34.31716909062666
          ],
          [
            109.23047716748754,
            34.31770022893546
          ],
          [
            109.23119433101012,
            34.319022012539875
          ],
          [
            109.23100450694704,
            34.319942255114256
          ],
          [
            109.23055537567528,
            34.321326597923104
          ],
          [
            109.2305164165577,
            34.32189570453092
          ],
          [
            109.23060892630455,
            34.32206039239175
          ],
          [
            109.2307612586688,
            34.322133064614725
          ],
          [
            109.23125417252926,
            34.322184978462175
          ],
          [
            109.23201474303757,
            34.3220932263149
          ],
          [
            109.2325652583444,
            34.32194454852427
          ],
          [
            109.23365489711156,
            34.32108831471192
          ],
          [
            109.23393315780967,
            34.32077882238753
          ],
          [
            109.23420789666882,
            34.320680326779744
          ],
          [
            109.23492865639678,
            34.32073390453135
          ],
          [
            109.23506945737267,
            34.320838332299715
          ],
          [
            109.23499952787776,
            34.32228621769819
          ],
          [
            109.23518522834075,
            34.32242485300983
          ],
          [
            109.23655755129036,
            34.32268693205534
          ],
          [
            109.23687005355865,
            34.3226486002285
          ],
          [
            109.23714695387254,
            34.32259315631525
          ],
          [
            109.23779283779072,
            34.32134693190579
          ],
          [
            109.23797714158796,
            34.32118658744776
          ],
          [
            109.23840301228712,
            34.321192366331594
          ],
          [
            109.23853828837451,
            34.321344551534146
          ],
          [
            109.23862855299318,
            34.322827994451124
          ],
          [
            109.23895785878771,
            34.323562382849204
          ],
          [
            109.23934080409296,
            34.32370976329411
          ],
          [
            109.23975045254174,
            34.32370372024258
          ],
          [
            109.240255891398,
            34.32354937431168
          ],
          [
            109.24045384500228,
            34.323713965490256
          ],
          [
            109.24076074725284,
            34.32422922651578
          ],
          [
            109.2409249126127,
            34.324280056426645
          ],
          [
            109.24239673570378,
            34.32372545487117
          ],
          [
            109.24257018254016,
            34.32382495432967
          ],
          [
            109.24272879952372,
            34.32430177133343
          ],
          [
            109.24303439326204,
            34.324560426432164
          ],
          [
            109.24333990111518,
            34.32460717775961
          ],
          [
            109.2436545087529,
            34.32457546455959
          ],
          [
            109.24420410170336,
            34.323766561747526
          ],
          [
            109.24439335080358,
            34.32361477059362
          ],
          [
            109.24474502916529,
            34.32359744486074
          ],
          [
            109.2454423223752,
            34.324134909487846
          ],
          [
            109.24615199961796,
            34.32454441725763
          ],
          [
            109.24657510807926,
            34.32465351673907
          ],
          [
            109.247172837255,
            34.324651478012335
          ],
          [
            109.24767010936584,
            34.32453787138522
          ],
          [
            109.2479971627412,
            34.32435507855899
          ],
          [
            109.24872803373394,
            34.323760590700864
          ],
          [
            109.24904068047717,
            34.32356648962963
          ],
          [
            109.24953042043744,
            34.32339177632918
          ],
          [
            109.24997049656388,
            34.32301434988073
          ],
          [
            109.25046411202244,
            34.32285881006008
          ],
          [
            109.25076525169776,
            34.32254754363327
          ],
          [
            109.25083513266364,
            34.32225767605089
          ],
          [
            109.2504642008876,
            34.32182679337049
          ],
          [
            109.24960864232985,
            34.321455383264414
          ],
          [
            109.24850587061954,
            34.32122107271353
          ],
          [
            109.24853606990004,
            34.321044556286566
          ],
          [
            109.24920753910112,
            34.32065135663122
          ],
          [
            109.25017181863991,
            34.320202360232095
          ],
          [
            109.25071728432472,
            34.320196744030625
          ],
          [
            109.25102740960205,
            34.31994614498007
          ],
          [
            109.25106380525156,
            34.3197259453602
          ],
          [
            109.25046437813349,
            34.319768253623266
          ],
          [
            109.24986605152664,
            34.31960964170149
          ],
          [
            109.24964729080362,
            34.31947300707061
          ],
          [
            109.24966099582014,
            34.31932277683715
          ],
          [
            109.25001971611977,
            34.318966038393675
          ],
          [
            109.25011008340476,
            34.31871985084573
          ],
          [
            109.2500240676568,
            34.318337729799474
          ],
          [
            109.2504645363127,
            34.31793100638959
          ],
          [
            109.25116636197114,
            34.3183011008435
          ],
          [
            109.2521277085814,
            34.31843336251382
          ],
          [
            109.25238271994208,
            34.31856537498403
          ],
          [
            109.25374741823622,
            34.31976603456414
          ],
          [
            109.25486691630402,
            34.32000642021922
          ],
          [
            109.25502286411064,
            34.32145641198056
          ],
          [
            109.25527323477814,
            34.32172123496032
          ],
          [
            109.25574192467508,
            34.32190684213837
          ],
          [
            109.25604765916208,
            34.32194335143955
          ],
          [
            109.25626777337352,
            34.32187742709702
          ],
          [
            109.25802595616626,
            34.32083820640326
          ],
          [
            109.258597819049,
            34.320663198408646
          ],
          [
            109.25995032699008,
            34.32099344725034
          ],
          [
            109.26011903999031,
            34.321123819604054
          ],
          [
            109.2604688281945,
            34.32162714262262
          ],
          [
            109.2617795566833,
            34.32212983561136
          ],
          [
            109.2634135864722,
            34.32195361640137
          ],
          [
            109.26372101474436,
            34.322000532671794
          ],
          [
            109.2642987898662,
            34.32226489554646
          ],
          [
            109.26522533286052,
            34.32227826136687
          ],
          [
            109.2657746594826,
            34.32309724978583
          ],
          [
            109.2659047602748,
            34.32345510258834
          ],
          [
            109.26596442994828,
            34.324067578178145
          ],
          [
            109.26591113521113,
            34.32480756240196
          ],
          [
            109.265986996072,
            34.325278193987124
          ],
          [
            109.2661023235833,
            34.325536201144416
          ],
          [
            109.26637235212137,
            34.3257394368984
          ],
          [
            109.26703675455106,
            34.32589683736721
          ],
          [
            109.2672722388328,
            34.32587279424327
          ],
          [
            109.26759581304432,
            34.32570255916419
          ],
          [
            109.26781180246334,
            34.325865636186634
          ],
          [
            109.26790206262216,
            34.3260433906942
          ],
          [
            109.2684424113157,
            34.32603092250628
          ],
          [
            109.26859338556748,
            34.326185343120116
          ],
          [
            109.26887549926428,
            34.32719026632534
          ],
          [
            109.26900669975356,
            34.32733610276451
          ],
          [
            109.26954122380748,
            34.327417773154885
          ],
          [
            109.27013190199833,
            34.326936057948714
          ],
          [
            109.27029510198804,
            34.3264606583587
          ],
          [
            109.27026462722948,
            34.325533619936756
          ],
          [
            109.27036241819242,
            34.32511904050577
          ],
          [
            109.27099442041916,
            34.324563808989694
          ],
          [
            109.27107930495598,
            34.32441561147564
          ],
          [
            109.27113428973404,
            34.323628737846406
          ],
          [
            109.27147013497516,
            34.32297637475771
          ],
          [
            109.27194426332166,
            34.32230790116672
          ],
          [
            109.27232603011431,
            34.321605012877946
          ],
          [
            109.27243828622684,
            34.32123619099618
          ],
          [
            109.27241994421937,
            34.32089806425951
          ],
          [
            109.27219214359648,
            34.320396388774846
          ],
          [
            109.2715476845913,
            34.319872862080814
          ],
          [
            109.27105665493929,
            34.319606379876305
          ],
          [
            109.27096610675687,
            34.31943183274518
          ],
          [
            109.2709470593277,
            34.31915587603018
          ],
          [
            109.27140186756094,
            34.318021639397735
          ],
          [
            109.27134298129332,
            34.31774461503784
          ],
          [
            109.27058489306744,
            34.31695148089352
          ],
          [
            109.26936873658376,
            34.318584144443385
          ],
          [
            109.26885822632012,
            34.3190600939584
          ],
          [
            109.2681190420772,
            34.31932858924485
          ],
          [
            109.26782175668508,
            34.31929131024688
          ],
          [
            109.26768515314986,
            34.319190849460504
          ],
          [
            109.26761686579566,
            34.31897009799592
          ],
          [
            109.26766433338643,
            34.31859244129721
          ],
          [
            109.26815514494332,
            34.31755638603899
          ],
          [
            109.26813858079822,
            34.31740806609594
          ],
          [
            109.26706339206562,
            34.316942903570414
          ],
          [
            109.26577640272424,
            34.31562112345649
          ],
          [
            109.26522882062878,
            34.31541864333829
          ],
          [
            109.26389347681308,
            34.31539490533757
          ],
          [
            109.2634827610678,
            34.31549987498102
          ],
          [
            109.26206123870064,
            34.316349490148205
          ],
          [
            109.26152733826012,
            34.31632374818736
          ],
          [
            109.26112819510766,
            34.31611022378538
          ],
          [
            109.2610803675029,
            34.31587455320873
          ],
          [
            109.2618010319964,
            34.315183148547106
          ],
          [
            109.2618704678205,
            34.31502508908969
          ],
          [
            109.2614017311217,
            34.31337745817504
          ],
          [
            109.26127767375525,
            34.313304346749995
          ],
          [
            109.2607500230529,
            34.313571152675756
          ],
          [
            109.26050588780473,
            34.313523776395414
          ],
          [
            109.26017616731684,
            34.31315707849342
          ],
          [
            109.25988158676996,
            34.31300996232771
          ],
          [
            109.25963633715575,
            34.31303424579434
          ],
          [
            109.2574884035744,
            34.314556880454504
          ],
          [
            109.25606867822916,
            34.31571093894163
          ],
          [
            109.2554873770734,
            34.31567529276633
          ],
          [
            109.25535876605664,
            34.31357118755492
          ],
          [
            109.25483080463805,
            34.313519822269505
          ],
          [
            109.25427143563574,
            34.313698346836944
          ],
          [
            109.2531266218055,
            34.31466998192446
          ],
          [
            109.25256471158733,
            34.31485206883404
          ],
          [
            109.25219236840188,
            34.3148991873405
          ],
          [
            109.25046483316495,
            34.314482696131066
          ],
          [
            109.24984450759762,
            34.314461820286986
          ],
          [
            109.2486795884988,
            34.314138256643744
          ],
          [
            109.2483391879496,
            34.313904350625066
          ],
          [
            109.2484140728445,
            34.3136268810361
          ],
          [
            109.24898552594516,
            34.31294171266547
          ],
          [
            109.2493076001632,
            34.31232519904359
          ],
          [
            109.24931221744002,
            34.31209440439586
          ],
          [
            109.24921618333336,
            34.31195446723082
          ],
          [
            109.24766359821376,
            34.3119322128527
          ],
          [
            109.24705046192436,
            34.31225181640758
          ],
          [
            109.24677088370736,
            34.31231465990216
          ],
          [
            109.2461648494639,
            34.312290500454836
          ],
          [
            109.24587198769704,
            34.31209635000577
          ],
          [
            109.24569140646582,
            34.31156486659891
          ],
          [
            109.2454492258096,
            34.311289355676976
          ],
          [
            109.24378590886003,
            34.311322131034366
          ],
          [
            109.24309134839376,
            34.31095673711596
          ],
          [
            109.24204045340508,
            34.310596424088864
          ],
          [
            109.24177443365464,
            34.31037944601228
          ],
          [
            109.24185363411,
            34.31016496648714
          ],
          [
            109.2437454191939,
            34.309026264312735
          ],
          [
            109.2441247037444,
            34.30894987926683
          ],
          [
            109.24446227870978,
            34.309077988279306
          ],
          [
            109.24533460819256,
            34.30968576616151
          ],
          [
            109.24593444413188,
            34.30998192051417
          ],
          [
            109.2476087571987,
            34.31039620789957
          ],
          [
            109.24780876676824,
            34.310306462512465
          ],
          [
            109.2478804465143,
            34.31012804810334
          ],
          [
            109.24745799842174,
            34.30960145703633
          ],
          [
            109.2466729142878,
            34.30898286365251
          ],
          [
            109.2455891570782,
            34.307964583992785
          ],
          [
            109.24351058184727,
            34.30681490974786
          ],
          [
            109.24270447026696,
            34.30613132112276
          ],
          [
            109.24228308426166,
            34.306067537623896
          ],
          [
            109.24043402767153,
            34.30652766016032
          ],
          [
            109.23884699372402,
            34.30701884771869
          ],
          [
            109.23823366849736,
            34.30674101917608
          ],
          [
            109.23768791270876,
            34.30659244868427
          ],
          [
            109.23748414094987,
            34.306361860930465
          ],
          [
            109.2379871752764,
            34.305683688381585
          ],
          [
            109.23827660071696,
            34.30516914311295
          ],
          [
            109.23826111594724,
            34.30500491012604
          ],
          [
            109.23736343627552,
            34.304139502017726
          ],
          [
            109.23637417214655,
            34.30383776691209
          ],
          [
            109.23524012437468,
            34.303919047952334
          ],
          [
            109.23486320169452,
            34.30388246027371
          ],
          [
            109.23457659551885,
            34.30367849275512
          ],
          [
            109.23335255909748,
            34.302464423133806
          ],
          [
            109.23311383509191,
            34.302337634659665
          ],
          [
            109.23276858561188,
            34.30227614887096
          ],
          [
            109.23247693223738,
            34.30231304909373
          ],
          [
            109.2318784988373,
            34.30253566432273
          ],
          [
            109.23151841842936,
            34.302586803333554
          ],
          [
            109.23126056936576,
            34.302485574964024
          ],
          [
            109.23073348610563,
            34.30198003795463
          ],
          [
            109.23046485713476,
            34.301514056736146
          ],
          [
            109.22850572458675,
            34.29963733911423
          ],
          [
            109.2275038115678,
            34.29903761163158
          ],
          [
            109.22763637259814,
            34.29891617195807
          ],
          [
            109.22880209663997,
            34.2987997363274
          ],
          [
            109.22876611111394,
            34.2984925441634
          ],
          [
            109.2286724841214,
            34.298441994701875
          ],
          [
            109.2277145771122,
            34.29804421860825
          ],
          [
            109.22734873115448,
            34.29811149382657
          ],
          [
            109.22705524063242,
            34.29781108580629
          ],
          [
            109.22638105645376,
            34.2978545040485
          ],
          [
            109.22605794231386,
            34.29754376546342
          ],
          [
            109.22565275663668,
            34.29758019947275
          ],
          [
            109.22517665910588,
            34.29728611032798
          ],
          [
            109.224964560574,
            34.29724394005389
          ],
          [
            109.22489183687144,
            34.29710753483549
          ],
          [
            109.22442643171898,
            34.29679874963427
          ],
          [
            109.22425796847912,
            34.29653451140679
          ],
          [
            109.22381596000656,
            34.296274416726376
          ],
          [
            109.22323896343082,
            34.29608585621826
          ],
          [
            109.2228744572493,
            34.296108297731
          ],
          [
            109.22228513003388,
            34.29594749521985
          ],
          [
            109.22133054437532,
            34.29600651770121
          ],
          [
            109.22085582266196,
            34.29624053115058
          ],
          [
            109.2201525558627,
            34.296292677958256
          ],
          [
            109.21985080166456,
            34.29571371307665
          ],
          [
            109.21955572836966,
            34.29537124883909
          ],
          [
            109.2190741030154,
            34.295225994124614
          ],
          [
            109.21889609920878,
            34.29495621853876
          ],
          [
            109.21869335927607,
            34.294884728345366
          ],
          [
            109.21819472855836,
            34.294478755474906
          ],
          [
            109.21789070706414,
            34.29441054620147
          ],
          [
            109.21722919655788,
            34.29446057709379
          ],
          [
            109.21528696657282,
            34.29392813900836
          ],
          [
            109.214890991612,
            34.293202677914856
          ],
          [
            109.21486438777698,
            34.292981641701395
          ],
          [
            109.21472027453788,
            34.29285352265756
          ],
          [
            109.2144482858525,
            34.29229843207598
          ],
          [
            109.21353270986232,
            34.29185149494066
          ],
          [
            109.21352701630978,
            34.291716746133346
          ],
          [
            109.21396914892642,
            34.2913021744244
          ],
          [
            109.2139648790362,
            34.290908239279304
          ],
          [
            109.2139180470434,
            34.290795030239316
          ],
          [
            109.21345933127522,
            34.29083034457249
          ],
          [
            109.21313865237698,
            34.29066981151881
          ],
          [
            109.21317180895804,
            34.2903659842639
          ],
          [
            109.21300538500796,
            34.29002762026472
          ],
          [
            109.21303745605238,
            34.28954586808773
          ],
          [
            109.21236264649566,
            34.289315609129766
          ],
          [
            109.21255437724422,
            34.28873020563204
          ],
          [
            109.2125042647614,
            34.288329013772696
          ],
          [
            109.21205674462608,
            34.288289156643486
          ],
          [
            109.212222231044,
            34.28795201409105
          ],
          [
            109.21219080988897,
            34.28785141679024
          ],
          [
            109.21127957998038,
            34.28728547603141
          ],
          [
            109.21056862728216,
            34.28668879230817
          ],
          [
            109.21058345957906,
            34.286486198489484
          ],
          [
            109.2109081017015,
            34.28626812167896
          ],
          [
            109.21084325702176,
            34.28604003321091
          ],
          [
            109.21069771448065,
            34.28601325186571
          ],
          [
            109.2103012892021,
            34.28633078858668
          ],
          [
            109.21010088495514,
            34.28634461421605
          ],
          [
            109.20988107968414,
            34.28612521206898
          ],
          [
            109.20997549831203,
            34.285867948862006
          ],
          [
            109.20959711413256,
            34.28582005818955
          ],
          [
            109.20945949156808,
            34.285590469123896
          ],
          [
            109.20886998898948,
            34.28543113109552
          ],
          [
            109.20850162679422,
            34.28510236279272
          ],
          [
            109.2082007993934,
            34.28400431133755
          ],
          [
            109.20839555173454,
            34.283498096341596
          ],
          [
            109.20791113364778,
            34.283460337497054
          ],
          [
            109.2077648916893,
            34.28326511520575
          ],
          [
            109.20754352038756,
            34.28361055781646
          ],
          [
            109.20731326819042,
            34.283603735723204
          ],
          [
            109.20730028093718,
            34.283289650285056
          ],
          [
            109.2072155984769,
            34.28316268410624
          ],
          [
            109.20698425830872,
            34.282976334479486
          ],
          [
            109.20674859821987,
            34.28294701095671
          ],
          [
            109.20674964694275,
            34.282394945628596
          ],
          [
            109.2066801778653,
            34.282294588695464
          ],
          [
            109.20651799582278,
            34.2822951562052
          ],
          [
            109.20640267372129,
            34.28220492873282
          ],
          [
            109.20645316346024,
            34.281823761960865
          ],
          [
            109.2062008240004,
            34.28129332229699
          ],
          [
            109.2058538580906,
            34.28095486294663
          ],
          [
            109.20540294562404,
            34.28088433622043
          ],
          [
            109.2053391811136,
            34.28077658829471
          ],
          [
            109.2050353342657,
            34.28070287376374
          ],
          [
            109.20502202452336,
            34.28063568242779
          ],
          [
            109.20520585346964,
            34.28046292484028
          ],
          [
            109.20517843218435,
            34.28034003623054
          ],
          [
            109.20496260439916,
            34.2800637351195
          ],
          [
            109.20450989526614,
            34.27979917744937
          ],
          [
            109.20428936825834,
            34.27940271610972
          ],
          [
            109.20428828105608,
            34.27923918295286
          ],
          [
            109.20393365482472,
            34.27927933722495
          ],
          [
            109.20373430695362,
            34.279380496276374
          ],
          [
            109.20360412804833,
            34.27963759310955
          ],
          [
            109.20347399327257,
            34.28053841942267
          ],
          [
            109.2041734091805,
            34.28313087468024
          ],
          [
            109.20421261505555,
            34.28360413282486
          ],
          [
            109.20405649739506,
            34.2839712445494
          ],
          [
            109.20392272258748,
            34.28414387147163
          ],
          [
            109.20361063604776,
            34.284277846705905
          ],
          [
            109.20282417470384,
            34.28433333410454
          ],
          [
            109.2013867013866,
            34.284137508278604
          ],
          [
            109.20066720201622,
            34.28394716657376
          ],
          [
            109.20062651094295,
            34.284398311465985
          ],
          [
            109.20092225781175,
            34.28592262634113
          ],
          [
            109.20139871428697,
            34.286483828989006
          ],
          [
            109.20155808323392,
            34.28685611715052
          ],
          [
            109.20160020701984,
            34.28719533743273
          ],
          [
            109.20086656328309,
            34.28851413152359
          ],
          [
            109.20064415415293,
            34.28879856124911
          ],
          [
            109.19989076119188,
            34.289028875080525
          ],
          [
            109.19883556029669,
            34.289203217763855
          ],
          [
            109.19865210051591,
            34.28939054246491
          ],
          [
            109.198527231231,
            34.29058472723721
          ],
          [
            109.19849337415748,
            34.29072301303034
          ],
          [
            109.19841296472744,
            34.290747472814786
          ],
          [
            109.1982658730733,
            34.290688960541374
          ],
          [
            109.19785357809911,
            34.29000508729689
          ],
          [
            109.19742172485074,
            34.2896445392997
          ],
          [
            109.1965933191284,
            34.28933461387105
          ],
          [
            109.19638242518658,
            34.289372449683064
          ],
          [
            109.19603132185748,
            34.28957288246694
          ],
          [
            109.19513006848152,
            34.28950301098733
          ],
          [
            109.19500209644784,
            34.28940863720399
          ],
          [
            109.19496137321558,
            34.289012739050975
          ],
          [
            109.19488357417964,
            34.288888461905074
          ],
          [
            109.19463330996663,
            34.28900779012715
          ],
          [
            109.19422917649182,
            34.28969511332757
          ],
          [
            109.19390070571006,
            34.28971564869474
          ],
          [
            109.19369412498789,
            34.28953827453238
          ],
          [
            109.19350418511728,
            34.289155616171634
          ],
          [
            109.19346134837068,
            34.28886726711918
          ],
          [
            109.19333367390648,
            34.28875759676245
          ],
          [
            109.1924348880416,
            34.28855424599677
          ],
          [
            109.1917521537103,
            34.287794994655385
          ],
          [
            109.1908861992706,
            34.28749971847765
          ],
          [
            109.19011289493952,
            34.28692881158358
          ],
          [
            109.18972672947368,
            34.286763704352396
          ],
          [
            109.1888927741524,
            34.286710256684614
          ],
          [
            109.18729635550255,
            34.28645552564935
          ],
          [
            109.18633551067452,
            34.285979304793734
          ],
          [
            109.1858768447502,
            34.28542821285406
          ],
          [
            109.18576509282548,
            34.28516992096797
          ],
          [
            109.18571646983064,
            34.28455839292935
          ],
          [
            109.18560109696,
            34.28447442009718
          ],
          [
            109.18542191843848,
            34.28445650365791
          ],
          [
            109.18440078801716,
            34.28476991763862
          ],
          [
            109.18364680030432,
            34.284727860774765
          ],
          [
            109.1812346256476,
            34.28386559527106
          ],
          [
            109.18087154697444,
            34.28380584966355
          ],
          [
            109.18051936429268,
            34.28282791172375
          ],
          [
            109.18010692301328,
            34.282547266028544
          ],
          [
            109.1800111026452,
            34.28099394278647
          ],
          [
            109.17988631300592,
            34.28085456985616
          ],
          [
            109.17891317500222,
            34.280409748030486
          ],
          [
            109.17807237419612,
            34.27964760072761
          ],
          [
            109.17715366655068,
            34.278607619805115
          ],
          [
            109.17625654337162,
            34.27811164778973
          ],
          [
            109.17592841578517,
            34.27800287830555
          ],
          [
            109.1756194336785,
            34.27772701403551
          ],
          [
            109.17488202540753,
            34.277721832554775
          ],
          [
            109.17380426883028,
            34.27758096676958
          ],
          [
            109.1734346856092,
            34.277306986192016
          ],
          [
            109.17334306462712,
            34.276966455667875
          ],
          [
            109.17258804907384,
            34.27668035490834
          ],
          [
            109.1723088920909,
            34.27666113786902
          ],
          [
            109.1720929552584,
            34.27645411774813
          ],
          [
            109.17161518398254,
            34.276296984374426
          ],
          [
            109.17108985414386,
            34.275916454272405
          ],
          [
            109.17093984263224,
            34.2755148386694
          ],
          [
            109.17057065906457,
            34.275255152021906
          ],
          [
            109.17048844642264,
            34.27499800389286
          ],
          [
            109.17005686242172,
            34.274719507757055
          ],
          [
            109.1693493740452,
            34.27389441914844
          ],
          [
            109.16903141795537,
            34.27314782973046
          ],
          [
            109.168782340123,
            34.272802504225226
          ],
          [
            109.1679814772748,
            34.272263223405055
          ],
          [
            109.16742841655766,
            34.271777386368775
          ],
          [
            109.16706453538448,
            34.271638162102086
          ],
          [
            109.16689909921976,
            34.27125390999187
          ],
          [
            109.16634340821008,
            34.27110233288826
          ],
          [
            109.16546183461118,
            34.27044425634554
          ],
          [
            109.16487519742904,
            34.2703051201615
          ],
          [
            109.1645290649601,
            34.270000000748304
          ],
          [
            109.16405561941656,
            34.26979790343004
          ],
          [
            109.16357899858212,
            34.269272833241075
          ],
          [
            109.16308253414078,
            34.268905863157826
          ],
          [
            109.16297469001628,
            34.26857679754476
          ],
          [
            109.16248442647009,
            34.2683442860704
          ],
          [
            109.16172619031845,
            34.26752112262401
          ],
          [
            109.16141320614469,
            34.26737560601041
          ],
          [
            109.16115543143816,
            34.2669874898156
          ],
          [
            109.15904215812456,
            34.266449148382776
          ],
          [
            109.1590277532292,
            34.26624710392089
          ],
          [
            109.15925713810996,
            34.26593494688609
          ],
          [
            109.15856560600848,
            34.26542359828662
          ],
          [
            109.15844523434866,
            34.26524985040585
          ],
          [
            109.15843914578552,
            34.26500953624258
          ],
          [
            109.15833740849774,
            34.26477474673069
          ],
          [
            109.15785509487816,
            34.26440592398983
          ],
          [
            109.15773492338704,
            34.26424707121271
          ],
          [
            109.15752732779671,
            34.26397050846783
          ],
          [
            109.15709357763927,
            34.26378990135234
          ],
          [
            109.15680876404645,
            34.26353499292063
          ],
          [
            109.15681057953704,
            34.26338865489064
          ],
          [
            109.15690072660114,
            34.26328195925031
          ],
          [
            109.15662173527292,
            34.262882319739084
          ],
          [
            109.1564198296702,
            34.26285916796147
          ],
          [
            109.15631818752642,
            34.26271554391347
          ],
          [
            109.1556493942864,
            34.26248284552726
          ],
          [
            109.1553808052332,
            34.26229894216985
          ],
          [
            109.15497844127889,
            34.26183131636956
          ],
          [
            109.15490745613616,
            34.26158688846554
          ],
          [
            109.1550293714382,
            34.26121265341342
          ],
          [
            109.15491692561883,
            34.260950758951374
          ],
          [
            109.1551112448627,
            34.26063113007132
          ],
          [
            109.15508893737127,
            34.260332009644216
          ],
          [
            109.15480585432098,
            34.25985759771086
          ]
        ]
      ]
    ]
  },
  "properties": {
    "省名": "陕西省",
    "乡镇名": "洪庆街道",
    "区县名": "灞桥区",
    "地级市�": "西安市"
  }
}