{"type":"FeatureCollection","features":[{"type":"Feature","properties":{"FID":4,"NAME":"红庙坡街道","code":"610104004000","PAC":"610104","省":"陕西省","省代码":"610000","市":"西安市","市代码":"610100","类型":"乡镇","grade":4,"layer":"乡镇"},"geometry":{"type":"Polygon","coordinates":[[[108.92837642,34.27793493],[108.93416842,34.27809693],[108.93784242,34.27819892],[108.93864842,34.27822092],[108.93864842,34.27851292],[108.93856242,34.27905391],[108.93854642,34.27925091],[108.93851042,34.2796949],[108.93788842,34.2797359],[108.93786442,34.27995789],[108.93787042,34.28020289],[108.93788042,34.28059088],[108.93687242,34.28060388],[108.93685042,34.28121787],[108.93782542,34.28125787],[108.93785742,34.28169686],[108.93730042,34.28169086],[108.93729042,34.28289684],[108.93657842,34.28290284],[108.93657842,34.28299484],[108.93608942,34.28300584],[108.93610442,34.28324984],[108.93660942,34.28325384],[108.93664742,34.28419282],[108.93436142,34.28421982],[108.93435642,34.2853558],[108.93435342,34.28605979],[108.93391742,34.28607379],[108.93393242,34.28682177],[108.93371142,34.28684077],[108.93377242,34.28792475],[108.93368842,34.28793975],[108.93370342,34.28904273],[108.93481242,34.28900673],[108.93481142,34.28945973],[108.93480442,34.28986572],[108.93431542,34.28988772],[108.93428542,34.29031871],[108.93443042,34.29040671],[108.93441542,34.2909297],[108.93458342,34.2909447],[108.93458842,34.2910357],[108.93469042,34.29277667],[108.93424642,34.29278367],[108.93336642,34.29279667],[108.93287042,34.29280467],[108.93284542,34.29248867],[108.93274042,34.2911487],[108.93130242,34.2911347],[108.93126442,34.29153169],[108.93137142,34.29192868],[108.93139642,34.29415964],[108.93129542,34.29415064],[108.93131742,34.29549362],[108.93058742,34.29549362],[108.93058742,34.29536062],[108.93029242,34.29534762],[108.93030342,34.29485063],[108.92983742,34.29485163],[108.92983742,34.29502063],[108.92966042,34.29501563],[108.92967142,34.29414764],[108.92919942,34.29416464],[108.92918342,34.29475863],[108.92876942,34.29475463],[108.92875942,34.29416964],[108.92671642,34.29419164],[108.92673742,34.29490563],[108.92621242,34.29491863],[108.92624442,34.29447564],[108.92568042,34.29446664],[108.92565942,34.29461664],[108.92534842,34.29460364],[108.92533742,34.29454164],[108.92486042,34.29453764],[108.92473642,34.29417364],[108.92403442,34.29416464],[108.92400142,34.29480763],[108.92310042,34.29480263],[108.92311642,34.29416064],[108.92210442,34.29416164],[108.92211042,34.29432564],[108.92140342,34.29451764],[108.92134442,34.29442464],[108.92103342,34.29457964],[108.92075442,34.29476563],[108.92041442,34.29475563],[108.92042042,34.29417064],[108.91996942,34.29414864],[108.91996442,34.29499463],[108.91946242,34.29497863],[108.91920542,34.29497063],[108.91908742,34.29502363],[108.91812142,34.29501463],[108.91798742,34.29508963],[108.91786342,34.29510463],[108.91782042,34.29495663],[108.91778242,34.29481763],[108.91774542,34.29468264],[108.91772042,34.29459264],[108.91760142,34.29415864],[108.91591042,34.29409364],[108.91368242,34.29414064],[108.91307742,34.29422064],[108.91057342,34.29407565],[108.90662042,34.29406565],[108.89752242,34.29404365],[108.88824342,34.29402165],[108.88768642,34.29204168],[108.88710742,34.28783376],[108.88681042,34.28567479],[108.88669942,34.28486881],[108.88675942,34.28152587],[108.88682142,34.28118587],[108.88647742,34.28038089],[108.89126142,34.27886391],[108.89353442,34.27842792],[108.89413042,34.27838092],[108.89757242,34.27844592],[108.90610142,34.27855892],[108.91587042,34.27868892],[108.91777942,34.27871392],[108.91788642,34.27837892],[108.91805442,34.27826092],[108.91942242,34.27819292],[108.91942842,34.27755294],[108.91956042,34.27765893],[108.91983542,34.27769693],[108.92296942,34.27778393],[108.92606842,34.27787093],[108.92837642,34.27793493]]]}}]}