{"type":"FeatureCollection","features":[{"type":"Feature","properties":{"FID":5,"NAME":"环城西路街道","code":"610104005000","PAC":"610104","省":"陕西省","省代码":"610000","市":"西安市","市代码":"610100","类型":"乡镇","grade":4,"layer":"乡镇"},"geometry":{"type":"Polygon","coordinates":[[[108.91952942,34.27140704],[108.91951642,34.27221003],[108.91951542,34.27227103],[108.91951142,34.27252002],[108.91947142,34.27496998],[108.91942842,34.27755294],[108.91942242,34.27819292],[108.91805442,34.27826092],[108.91788642,34.27837892],[108.91777942,34.27871392],[108.91587042,34.27868892],[108.90610142,34.27855892],[108.89757242,34.27844592],[108.89758742,34.27816692],[108.89874042,34.27765893],[108.89937342,34.27724694],[108.89977842,34.27683095],[108.89996942,34.27655295],[108.90000242,34.27650395],[108.90027442,34.27610996],[108.90088542,34.27566697],[108.90181642,34.27529298],[108.90253442,34.27515598],[108.90322142,34.27512098],[108.90319042,34.27120205],[108.90473242,34.27118305],[108.90477042,34.27056106],[108.90492342,34.27048806],[108.90501042,34.27053306],[108.90505242,34.26760111],[108.90506842,34.26653613],[108.90509342,34.26481916],[108.90509342,34.26478816],[108.90510142,34.26422117],[108.90510742,34.26383118],[108.90507542,34.26121422],[108.90507642,34.26100923],[108.90506842,34.26082023],[108.90506342,34.26079823],[108.90537842,34.26082223],[108.90555042,34.26083523],[108.90606742,34.26087523],[108.90608742,34.2627172],[108.90765942,34.2627482],[108.90763842,34.26344418],[108.90818242,34.26348418],[108.90821442,34.26411817],[108.90826842,34.26410417],[108.90937342,34.26382518],[108.90951842,34.26439317],[108.91007542,34.26437517],[108.91208642,34.26430817],[108.91201842,34.26400317],[108.91191142,34.26336218],[108.91208642,34.26316319],[108.91319442,34.26309519],[108.91488442,34.26312019],[108.91553942,34.26313819],[108.91772542,34.26330819],[108.91832442,34.26328319],[108.91839442,34.26323019],[108.91850642,34.26296319],[108.91891942,34.2625332],[108.91952042,34.2625682],[108.91952742,34.26335119],[108.91953642,34.26502916],[108.91954642,34.26702512],[108.91955942,34.26962508],[108.91955442,34.26993307],[108.91953442,34.27111205],[108.91953242,34.27122105],[108.91952942,34.27140704]]]}}]}