{"type":"FeatureCollection","features":[{"type":"Feature","properties":{"FID":11,"NAME":"建章路街道","code":"610112011000","PAC":"610112","省":"陕西省","省代码":"610000","市":"西安市","市代码":"610100","类型":"乡镇","grade":4,"layer":"乡镇"},"geometry":{"type":"Polygon","coordinates":[[[108.794032,34.313427],[108.793608,34.313281],[108.79363,34.313201],[108.792975,34.313064],[108.790333,34.312151],[108.790062,34.3134],[108.790245,34.313522],[108.789968,34.314783],[108.790679,34.314807],[108.790604,34.315616],[108.789765,34.3156],[108.789822,34.316041],[108.789821,34.316041],[108.789845,34.316218],[108.790076,34.317953],[108.790116,34.318396],[108.791275,34.318405],[108.791216,34.319032],[108.79054,34.319714],[108.79007,34.320204],[108.789977,34.320602],[108.789883,34.322809],[108.789808,34.325115],[108.789808,34.325115],[108.789802,34.325292],[108.789797,34.325469],[108.789797,34.325469],[108.789783,34.325963],[108.791194,34.32756],[108.7911,34.329131],[108.791074,34.329647],[108.789226,34.329567],[108.789158,34.330798],[108.789177,34.331109],[108.789102,34.331109],[108.789081,34.331959],[108.788906,34.331988],[108.787941,34.331992],[108.787879,34.333044],[108.787576,34.33304],[108.787536,34.333467],[108.787522,34.333569],[108.787533,34.334052],[108.787495,34.334364],[108.787466,34.334635],[108.790762,34.334717],[108.790744,34.335069],[108.7908,34.335071],[108.790926,34.335716],[108.792656,34.335711],[108.795757,34.335747],[108.795735,34.336597],[108.795647,34.33751],[108.79566,34.338834],[108.795998,34.33898],[108.796038,34.339266],[108.796087,34.340493],[108.796175,34.340679],[108.796282,34.34073],[108.796811,34.340778],[108.796889,34.341133],[108.797393,34.341102],[108.797393,34.341102],[108.797607,34.341089],[108.797613,34.341086],[108.797607,34.341259],[108.797602,34.34143],[108.79669,34.341481],[108.796524,34.341567],[108.796524,34.341842],[108.795582,34.341791],[108.79529,34.341917],[108.795201,34.342147],[108.795124,34.342546],[108.793718,34.342506],[108.793461,34.34257],[108.793517,34.342936],[108.79349,34.342989],[108.792879,34.343033],[108.792482,34.342936],[108.792369,34.343133],[108.792377,34.343259],[108.792374,34.343259],[108.792377,34.343266],[108.792428,34.343319],[108.792444,34.343323],[108.792669,34.343436],[108.792688,34.343445],[108.792865,34.343613],[108.792867,34.343613],[108.792897,34.343642],[108.793083,34.343906],[108.793257,34.344191],[108.793391,34.344457],[108.793898,34.34453],[108.793981,34.344492],[108.794381,34.344537],[108.795577,34.344754],[108.795735,34.344745],[108.79643,34.344825],[108.79661,34.345243],[108.797245,34.345334],[108.79695,34.346811],[108.797001,34.347511],[108.797028,34.348217],[108.797039,34.34872],[108.795247,34.348257],[108.792868,34.347081],[108.792522,34.34692],[108.792372,34.346904],[108.792222,34.346924],[108.792173,34.346975],[108.792168,34.347119],[108.792447,34.347759],[108.792836,34.348558],[108.793281,34.349619],[108.794464,34.35233],[108.794461,34.35233],[108.794528,34.352478],[108.794568,34.352507],[108.794829,34.352684],[108.794829,34.352684],[108.794949,34.352766],[108.79562,34.353136],[108.79613,34.353607],[108.796489,34.354187],[108.796628,34.354531],[108.796733,34.354814],[108.796768,34.35537],[108.79684,34.358678],[108.796889,34.360606],[108.79691,34.361238],[108.796977,34.361576],[108.797015,34.361753],[108.797017,34.361753],[108.797232,34.362781],[108.797393,34.362861],[108.797393,34.362863],[108.797607,34.362969],[108.8007,34.364508],[108.802272,34.365256],[108.803396,34.365818],[108.80563,34.366925],[108.808288,34.368094],[108.808379,34.368136],[108.808379,34.368137],[108.808594,34.368234],[108.808783,34.36832],[108.808808,34.368331],[108.808808,34.368331],[108.80987,34.368812],[108.811662,34.369711],[108.813733,34.370645],[108.814055,34.370789],[108.814089,34.370804],[108.81413,34.370822],[108.814131,34.370822],[108.815482,34.371413],[108.816485,34.371834],[108.818354,34.372677],[108.81958,34.373129],[108.820025,34.37329],[108.821203,34.373793],[108.822726,34.37442],[108.825312,34.375542],[108.827426,34.376421],[108.829113,34.377129],[108.830352,34.37769],[108.830352,34.377691],[108.830566,34.377789],[108.830754,34.377872],[108.830781,34.377884],[108.830781,34.377884],[108.830792,34.377889],[108.83364,34.379006],[108.835435,34.379535],[108.835435,34.379535],[108.836035,34.379713],[108.836089,34.379728],[108.836722,34.37989],[108.83673,34.37989],[108.838726,34.380399],[108.840206,34.380837],[108.841338,34.381181],[108.841338,34.381182],[108.841553,34.381247],[108.842162,34.38143],[108.845573,34.382411],[108.846563,34.382615],[108.848044,34.383037],[108.849607,34.383498],[108.851611,34.384248],[108.852324,34.384463],[108.852324,34.384463],[108.852539,34.384527],[108.852754,34.384591],[108.852754,34.384591],[108.85322,34.384729],[108.854527,34.385098],[108.855377,34.385284],[108.856141,34.385525],[108.857128,34.385915],[108.857968,34.386236],[108.860135,34.386993],[108.863311,34.388225],[108.863311,34.388226],[108.86341,34.388264],[108.863525,34.388299],[108.86374,34.388365],[108.86374,34.388364],[108.865113,34.388779],[108.865172,34.388797],[108.865577,34.388956],[108.865579,34.388956],[108.867415,34.389676],[108.869383,34.390256],[108.873452,34.39115],[108.874297,34.391344],[108.874297,34.391345],[108.874512,34.391393],[108.874726,34.391442],[108.874726,34.391442],[108.875287,34.391568],[108.876384,34.391798],[108.87702,34.391995],[108.877583,34.392221],[108.878945,34.39283],[108.880455,34.393591],[108.881531,34.394248],[108.883033,34.395098],[108.885283,34.396294],[108.885283,34.396296],[108.885332,34.39632],[108.885498,34.396395],[108.885713,34.396493],[108.885713,34.396492],[108.887791,34.397429],[108.888286,34.397668],[108.888285,34.397668],[108.888652,34.397845],[108.891152,34.399188],[108.892756,34.399934],[108.89384,34.400235],[108.895757,34.400454],[108.896484,34.400576],[108.896699,34.400611],[108.896699,34.400608],[108.899711,34.401096],[108.900907,34.401304],[108.903388,34.401678],[108.905483,34.402101],[108.906331,34.402196],[108.907256,34.402368],[108.907256,34.402369],[108.907471,34.402408],[108.907685,34.402448],[108.907685,34.402448],[108.910118,34.4029],[108.911081,34.403021],[108.912232,34.403081],[108.913404,34.403274],[108.9153,34.403692],[108.917832,34.404117],[108.918242,34.404198],[108.918242,34.404199],[108.918457,34.404241],[108.918672,34.404283],[108.918672,34.404283],[108.91964,34.404471],[108.921158,34.404697],[108.921796,34.404854],[108.923658,34.405429],[108.925173,34.405974],[108.926705,34.406387],[108.928794,34.40691],[108.929443,34.407073],[108.930819,34.407427],[108.932254,34.407839],[108.935505,34.40889],[108.937165,34.40924],[108.938874,34.409696],[108.940215,34.410089],[108.940215,34.41009],[108.94043,34.410152],[108.940615,34.410205],[108.940644,34.410218],[108.940644,34.410217],[108.941486,34.410576],[108.942677,34.411249],[108.946768,34.414046],[108.949406,34.415796],[108.949404,34.415796],[108.949673,34.415973],[108.951201,34.416984],[108.951201,34.416985],[108.951416,34.417126],[108.953296,34.418376],[108.955796,34.420003],[108.957089,34.420945],[108.957236,34.421071],[108.957322,34.420883],[108.957708,34.420242],[108.957993,34.419684],[108.958146,34.41931],[108.958229,34.418996],[108.958226,34.41866],[108.958057,34.41769],[108.957934,34.417347],[108.957655,34.416772],[108.95835,34.416513],[108.958714,34.416341],[108.958991,34.416161],[108.959135,34.415973],[108.959575,34.415411],[108.960227,34.414615],[108.959583,34.414192],[108.959012,34.413907],[108.95799,34.413327],[108.957263,34.412814],[108.956689,34.412238],[108.95412,34.409917],[108.953141,34.409114],[108.951416,34.408052],[108.951201,34.407919],[108.951201,34.407919],[108.950947,34.407762],[108.95059,34.407558],[108.949525,34.407018],[108.949286,34.40691],[108.9489,34.406733],[108.948899,34.406733],[108.946392,34.405586],[108.945016,34.405088],[108.944512,34.404883],[108.94423,34.404546],[108.943911,34.404387],[108.94352,34.4043],[108.94352,34.404301],[108.940644,34.403664],[108.940644,34.403665],[108.94054,34.403641],[108.94043,34.403588],[108.940215,34.403482],[108.940215,34.403481],[108.940017,34.403382],[108.938378,34.402822],[108.937962,34.40267],[108.937055,34.402369],[108.935642,34.401846],[108.934019,34.401424],[108.932356,34.401056],[108.931471,34.400839],[108.929658,34.400343],[108.929658,34.400344],[108.929645,34.400339],[108.929443,34.400284],[108.929229,34.400223],[108.927263,34.399664],[108.925675,34.399168],[108.924098,34.398746],[108.923446,34.398586],[108.922255,34.398197],[108.921643,34.398022],[108.921024,34.397845],[108.920407,34.397668],[108.920409,34.397668],[108.919777,34.397486],[108.918672,34.397162],[108.918457,34.397099],[108.918242,34.397035],[108.918242,34.397033],[108.917848,34.396915],[108.916242,34.39642],[108.915212,34.396174],[108.914689,34.39601],[108.91387,34.395822],[108.913098,34.395758],[108.912331,34.395749],[108.911363,34.395661],[108.909788,34.39549],[108.908109,34.395282],[108.907903,34.395284],[108.907854,34.395309],[108.907838,34.39534],[108.907838,34.395514],[108.907827,34.395559],[108.907776,34.39561],[108.907685,34.395622],[108.907685,34.395623],[108.907591,34.395634],[108.907471,34.395627],[108.907256,34.395612],[108.905344,34.395475],[108.903134,34.39528],[108.899655,34.395032],[108.899341,34.394981],[108.898705,34.394804],[108.897748,34.394589],[108.896699,34.394268],[108.896699,34.394268],[108.896591,34.394235],[108.896484,34.394202],[108.89627,34.394131],[108.89627,34.394131],[108.894615,34.39358],[108.894266,34.393485],[108.892729,34.39294],[108.891796,34.392518],[108.891174,34.39229],[108.888588,34.391163],[108.886061,34.390025],[108.885713,34.389879],[108.885713,34.389879],[108.885498,34.389789],[108.885283,34.389698],[108.885283,34.389697],[108.883972,34.38914],[108.883573,34.388956],[108.883572,34.388956],[108.883189,34.388779],[108.882805,34.388602],[108.882806,34.388602],[108.881896,34.388182],[108.880839,34.387633],[108.880198,34.387232],[108.879812,34.387028],[108.879034,34.386654],[108.876191,34.385393],[108.874726,34.38479],[108.874726,34.384791],[108.874512,34.384702],[108.874297,34.384616],[108.874297,34.384614],[108.8736,34.384346],[108.869711,34.383099],[108.869697,34.383737],[108.869646,34.38493],[108.869627,34.385067],[108.869574,34.385143],[108.869501,34.385189],[108.869407,34.385213],[108.86904,34.385262],[108.868933,34.385224],[108.86842,34.384886],[108.867297,34.383934],[108.865784,34.382969],[108.86529,34.382774],[108.865231,34.38292],[108.86437,34.382922],[108.86374,34.38261],[108.86374,34.38261],[108.863525,34.382504],[108.863525,34.382504],[108.863311,34.382398],[108.863311,34.382398],[108.86212,34.381807],[108.861964,34.381725],[108.861919,34.381568],[108.861967,34.381459],[108.862107,34.38128],[108.862157,34.381094],[108.862074,34.380961],[108.861701,34.38087],[108.861487,34.380764],[108.860082,34.37989],[108.860081,34.37989],[108.859861,34.379752],[108.859427,34.379788],[108.859164,34.379713],[108.858547,34.379535],[108.858548,34.379535],[108.854792,34.378455],[108.854591,34.37838],[108.852754,34.377861],[108.852539,34.3778],[108.852324,34.377738],[108.852324,34.377737],[108.851053,34.377375],[108.850071,34.377065],[108.849481,34.376983],[108.849331,34.376943],[108.848328,34.376864],[108.847698,34.376472],[108.847733,34.376578],[108.847912,34.376948],[108.848089,34.377196],[108.848245,34.377317],[108.848264,34.377348],[108.84729,34.377116],[108.846732,34.376961],[108.846045,34.376631],[108.843312,34.375265],[108.842167,34.374749],[108.842178,34.374765],[108.841767,34.374556],[108.841553,34.374446],[108.841338,34.374336],[108.839761,34.373525],[108.837867,34.372635],[108.836188,34.371969],[108.835051,34.371564],[108.832929,34.370875],[108.83277,34.370822],[108.832768,34.370822],[108.83224,34.370645],[108.831711,34.370468],[108.831586,34.370426],[108.830781,34.370157],[108.830781,34.370158],[108.830566,34.370085],[108.830352,34.370012],[108.830175,34.369952],[108.828013,34.369275],[108.82727,34.369004],[108.826216,34.368697],[108.824853,34.36821],[108.823094,34.367647],[108.82042,34.366744],[108.819795,34.366546],[108.819795,34.366547],[108.81958,34.366478],[108.819366,34.36641],[108.819366,34.36641],[108.81803,34.365982],[108.813443,34.364415],[108.813186,34.364346],[108.812609,34.364032],[108.815496,34.361753],[108.815492,34.361753],[108.815718,34.361576],[108.815866,34.36146],[108.815943,34.361399],[108.815944,34.361399],[108.816018,34.361342],[108.819366,34.359136],[108.81958,34.358995],[108.819795,34.358853],[108.820736,34.358231],[108.821431,34.357852],[108.821629,34.358036],[108.822209,34.357713],[108.822176,34.358184],[108.823874,34.358228],[108.824309,34.358162],[108.824478,34.358149],[108.824958,34.358158],[108.827334,34.358222],[108.828171,34.358308],[108.828346,34.358348],[108.828426,34.358233],[108.827672,34.35812],[108.827946,34.355999],[108.828152,34.354668],[108.828305,34.353049],[108.828702,34.353051],[108.829907,34.352914],[108.830153,34.352919],[108.830352,34.352906],[108.830352,34.352905],[108.830566,34.352892],[108.830781,34.352876],[108.830781,34.352877],[108.83088,34.35287],[108.830998,34.35279],[108.832951,34.352733],[108.83371,34.352772],[108.834635,34.352876],[108.835531,34.353131],[108.83596,34.353131],[108.836153,34.353164],[108.836998,34.35339],[108.837492,34.353499],[108.838798,34.353709],[108.839469,34.353789],[108.839774,34.353849],[108.839836,34.353908],[108.84056,34.354072],[108.841338,34.354102],[108.841419,34.354105],[108.841553,34.354125],[108.841767,34.354155],[108.843449,34.354389],[108.844471,34.354504],[108.844568,34.354511],[108.844712,34.352684],[108.844726,34.352507],[108.84474,34.35233],[108.845032,34.348744],[108.841767,34.347875],[108.841767,34.347876],[108.841631,34.347839],[108.84169,34.347644],[108.841553,34.347613],[108.841349,34.347566],[108.841338,34.347588],[108.841338,34.347587],[108.84074,34.34876],[108.836025,34.347367],[108.838174,34.343613],[108.83817,34.343613],[108.838272,34.343436],[108.838375,34.343259],[108.838648,34.342787],[108.840284,34.337645],[108.841338,34.334896],[108.841471,34.33455],[108.841474,34.334542],[108.841472,34.334542],[108.841528,34.334401],[108.841609,34.334187],[108.84161,34.334187],[108.841767,34.333778],[108.841767,34.333778],[108.84243,34.33205],[108.843269,34.328382],[108.844321,34.328278],[108.844659,34.328276],[108.845176,34.32828],[108.845174,34.327968],[108.845192,34.32748],[108.845235,34.326714],[108.845282,34.325469],[108.845281,34.325469],[108.845289,34.325292],[108.845294,34.325115],[108.845296,34.325115],[108.845305,34.32486],[108.845305,34.322572],[108.844235,34.322587],[108.843462,34.322618],[108.843371,34.320704],[108.843361,34.320647],[108.843334,34.320647],[108.843221,34.318225],[108.842674,34.318695],[108.84185,34.319205],[108.841791,34.319118],[108.841797,34.318542],[108.841706,34.318518],[108.841553,34.318518],[108.840472,34.318505],[108.839884,34.318529],[108.837191,34.318467],[108.837076,34.318478],[108.837076,34.318921],[108.836725,34.318903],[108.836727,34.319083],[108.835877,34.319074],[108.835217,34.319076],[108.834407,34.319069],[108.833688,34.319085],[108.833353,34.319107],[108.830781,34.319103],[108.830781,34.319103],[108.830566,34.319103],[108.829249,34.319098],[108.82926,34.317384],[108.829301,34.316396],[108.829303,34.316396],[108.829308,34.316218],[108.829311,34.316196],[108.827321,34.316112],[108.827324,34.31609],[108.827246,34.316085],[108.827608,34.314169],[108.827026,34.3141],[108.825291,34.313742],[108.824644,34.313646],[108.824285,34.313642],[108.824287,34.313487],[108.824215,34.312488],[108.824392,34.312481],[108.824478,34.311843],[108.824843,34.3114],[108.824832,34.311059],[108.824904,34.310968],[108.824928,34.310828],[108.82525,34.310788],[108.825384,34.31074],[108.825451,34.310658],[108.825527,34.309896],[108.823933,34.310006],[108.823898,34.307496],[108.823105,34.307567],[108.822874,34.307571],[108.822882,34.30811],[108.822053,34.308143],[108.82208,34.308901],[108.822072,34.30932],[108.820221,34.309326],[108.820253,34.309424],[108.819795,34.309436],[108.819795,34.309435],[108.81958,34.309441],[108.819366,34.309446],[108.819366,34.309446],[108.818046,34.309475],[108.818014,34.310777],[108.817936,34.310777],[108.817874,34.313066],[108.815297,34.312873],[108.8131,34.312756],[108.813073,34.313128],[108.812893,34.31482],[108.81284,34.315467],[108.812177,34.315463],[108.812185,34.315516],[108.812167,34.316041],[108.812166,34.316041],[108.812161,34.316218],[108.812124,34.317377],[108.811115,34.31739],[108.810627,34.317428],[108.809916,34.317443],[108.808594,34.317379],[108.808521,34.317375],[108.808379,34.317373],[108.808379,34.317373],[108.807556,34.317348],[108.807451,34.318403],[108.805877,34.31844],[108.805866,34.318108],[108.805909,34.317067],[108.803723,34.317056],[108.803704,34.316524],[108.803503,34.316513],[108.803505,34.316396],[108.803506,34.316396],[108.803508,34.316218],[108.803514,34.316041],[108.803513,34.316041],[108.80353,34.315352],[108.803406,34.315337],[108.799957,34.315281],[108.799903,34.314357],[108.800072,34.313372],[108.797804,34.313138],[108.797607,34.313106],[108.796012,34.312827],[108.795942,34.312687],[108.795035,34.312647],[108.794255,34.312581],[108.794231,34.312776],[108.794032,34.313427]]]}}]}