{
  "type": "FeatureCollection",
  "features": [
    {
      "type": "Feature",
      "properties": {
        "FID": 1,
        "NAME": "青年路街道",
        "code": "610104001000",
        "PAC": "610104",
        "省": "陕西省",
        "省代码": "610000",
        "市": "西安市",
        "市代码": "610100",
        "类型": "乡镇",
        "grade": 4,
        "layer": "乡镇"
      },
      "geometry": {
        "type": "MultiPolygon",
        "coordinates": [
          [
            [
              [
                108.84911342,
                34.28487581
              ],
              [
                108.85009242,
                34.28438482
              ],
              [
                108.85019942,
                34.28433082
              ],
              [
                108.84996842,
                34.28343983
              ],
              [
                108.85030142,
                34.28308584
              ],
              [
                108.85121342,
                34.28257585
              ],
              [
                108.85094842,
                34.28119887
              ],
              [
                108.85058742,
                34.28120387
              ],
              [
                108.85050242,
                34.28074288
              ],
              [
                108.85045942,
                34.28038889
              ],
              [
                108.85087442,
                34.28029489
              ],
              [
                108.85076742,
                34.2793859
              ],
              [
                108.85076842,
                34.2793229
              ],
              [
                108.85078642,
                34.27784093
              ],
              [
                108.85078542,
                34.27663995
              ],
              [
                108.85078542,
                34.27581097
              ],
              [
                108.85084842,
                34.27496998
              ],
              [
                108.85266942,
                34.27498198
              ],
              [
                108.85265842,
                34.27445899
              ],
              [
                108.85488742,
                34.27447099
              ],
              [
                108.85494642,
                34.27183604
              ],
              [
                108.85496242,
                34.27111405
              ],
              [
                108.85498442,
                34.27086705
              ],
              [
                108.85431942,
                34.27085005
              ],
              [
                108.85429742,
                34.27041506
              ],
              [
                108.85394342,
                34.27040706
              ],
              [
                108.85396642,
                34.26887509
              ],
              [
                108.85467442,
                34.26889309
              ],
              [
                108.85468442,
                34.26779311
              ],
              [
                108.85470642,
                34.26665813
              ],
              [
                108.85140142,
                34.26672913
              ],
              [
                108.85035042,
                34.26719912
              ],
              [
                108.84956742,
                34.26719912
              ],
              [
                108.84951442,
                34.26717212
              ],
              [
                108.84951642,
                34.26635613
              ],
              [
                108.85069142,
                34.26636013
              ],
              [
                108.85066442,
                34.26452916
              ],
              [
                108.85231642,
                34.26453316
              ],
              [
                108.85233842,
                34.26332819
              ],
              [
                108.84952242,
                34.26331019
              ],
              [
                108.84952342,
                34.26292119
              ],
              [
                108.84952742,
                34.26068023
              ],
              [
                108.85084942,
                34.26086623
              ],
              [
                108.85084342,
                34.25839627
              ],
              [
                108.85082242,
                34.25797928
              ],
              [
                108.85028542,
                34.25837827
              ],
              [
                108.84986742,
                34.25911426
              ],
              [
                108.84952942,
                34.25951325
              ],
              [
                108.84953042,
                34.25903926
              ],
              [
                108.84954242,
                34.25824427
              ],
              [
                108.84956342,
                34.2569063
              ],
              [
                108.84965042,
                34.2565603
              ],
              [
                108.84964742,
                34.25430634
              ],
              [
                108.84970542,
                34.25399235
              ],
              [
                108.84996042,
                34.25373835
              ],
              [
                108.85815042,
                34.25373835
              ],
              [
                108.86300642,
                34.25373935
              ],
              [
                108.86743942,
                34.25373935
              ],
              [
                108.86919042,
                34.25368836
              ],
              [
                108.87127942,
                34.25375035
              ],
              [
                108.87137342,
                34.25375035
              ],
              [
                108.87248842,
                34.25375335
              ],
              [
                108.87346142,
                34.25375635
              ],
              [
                108.87685542,
                34.25376735
              ],
              [
                108.87703242,
                34.25376735
              ],
              [
                108.87710242,
                34.24661948
              ],
              [
                108.88331942,
                34.24661948
              ],
              [
                108.88331942,
                34.25374935
              ],
              [
                108.88437042,
                34.25368936
              ],
              [
                108.88438542,
                34.25356136
              ],
              [
                108.88454842,
                34.25335136
              ],
              [
                108.88492442,
                34.25314036
              ],
              [
                108.88493042,
                34.25150139
              ],
              [
                108.88515042,
                34.25022342
              ],
              [
                108.88563142,
                34.24945243
              ],
              [
                108.88469742,
                34.24879644
              ],
              [
                108.88473542,
                34.24666848
              ],
              [
                108.88474242,
                34.24630148
              ],
              [
                108.88326942,
                34.2454495
              ],
              [
                108.88302542,
                34.2453085
              ],
              [
                108.88171842,
                34.24440352
              ],
              [
                108.88086042,
                34.24436852
              ],
              [
                108.88060242,
                34.24426152
              ],
              [
                108.88023742,
                34.24390653
              ],
              [
                108.88015242,
                34.24349853
              ],
              [
                108.88036642,
                34.24287854
              ],
              [
                108.88043142,
                34.24106858
              ],
              [
                108.88322042,
                34.24110458
              ],
              [
                108.88326342,
                34.23883362
              ],
              [
                108.88506542,
                34.23884462
              ],
              [
                108.88506542,
                34.23940361
              ],
              [
                108.88614942,
                34.23941261
              ],
              [
                108.88616042,
                34.2397046
              ],
              [
                108.88731842,
                34.24057259
              ],
              [
                108.89034542,
                34.24055459
              ],
              [
                108.89036542,
                34.24055459
              ],
              [
                108.89098742,
                34.24156557
              ],
              [
                108.89285442,
                34.24078558
              ],
              [
                108.89547342,
                34.24488351
              ],
              [
                108.89571342,
                34.24477851
              ],
              [
                108.89778342,
                34.24387053
              ],
              [
                108.89755842,
                34.24354653
              ],
              [
                108.89725642,
                34.24309354
              ],
              [
                108.89704842,
                34.24278055
              ],
              [
                108.89667842,
                34.24223456
              ],
              [
                108.89645342,
                34.24189456
              ],
              [
                108.89615242,
                34.24144057
              ],
              [
                108.89581442,
                34.24090658
              ],
              [
                108.89615742,
                34.24074658
              ],
              [
                108.89642742,
                34.24062658
              ],
              [
                108.89693542,
                34.24040059
              ],
              [
                108.89833842,
                34.2397936
              ],
              [
                108.89849342,
                34.2397006
              ],
              [
                108.89951242,
                34.23928761
              ],
              [
                108.90038742,
                34.23891961
              ],
              [
                108.90087542,
                34.23872962
              ],
              [
                108.90098842,
                34.23892461
              ],
              [
                108.90111142,
                34.23892861
              ],
              [
                108.90146042,
                34.23895061
              ],
              [
                108.90177642,
                34.23897261
              ],
              [
                108.90192142,
                34.23901261
              ],
              [
                108.90206642,
                34.23917261
              ],
              [
                108.90244442,
                34.23918161
              ],
              [
                108.90286042,
                34.23918161
              ],
              [
                108.90341842,
                34.23919061
              ],
              [
                108.90375642,
                34.23915461
              ],
              [
                108.90415442,
                34.23914261
              ],
              [
                108.90447142,
                34.2396276
              ],
              [
                108.90456042,
                34.2397636
              ],
              [
                108.90492842,
                34.24073958
              ],
              [
                108.90543142,
                34.24150557
              ],
              [
                108.90541042,
                34.24320954
              ],
              [
                108.90537442,
                34.24614749
              ],
              [
                108.90545042,
                34.24614649
              ],
              [
                108.90544542,
                34.24675248
              ],
              [
                108.90624142,
                34.24775946
              ],
              [
                108.90651042,
                34.24822345
              ],
              [
                108.90883442,
                34.24825845
              ],
              [
                108.90884142,
                34.24894744
              ],
              [
                108.90896842,
                34.24896144
              ],
              [
                108.90901342,
                34.24955643
              ],
              [
                108.91062942,
                34.24954843
              ],
              [
                108.91546742,
                34.24952743
              ],
              [
                108.91556442,
                34.24952843
              ],
              [
                108.91555142,
                34.25018842
              ],
              [
                108.91872042,
                34.25017942
              ],
              [
                108.91871742,
                34.25219938
              ],
              [
                108.91989842,
                34.25219938
              ],
              [
                108.92294842,
                34.25220038
              ],
              [
                108.92524642,
                34.25220138
              ],
              [
                108.92798042,
                34.25220138
              ],
              [
                108.93140942,
                34.25220338
              ],
              [
                108.93134642,
                34.25258937
              ],
              [
                108.93176442,
                34.25259037
              ],
              [
                108.93186142,
                34.25324636
              ],
              [
                108.93180142,
                34.2570073
              ],
              [
                108.93179642,
                34.25730329
              ],
              [
                108.93177942,
                34.25834527
              ],
              [
                108.93174542,
                34.26050324
              ],
              [
                108.93434842,
                34.26049324
              ],
              [
                108.93563142,
                34.26048824
              ],
              [
                108.93569542,
                34.26048824
              ],
              [
                108.93630742,
                34.26048624
              ],
              [
                108.93731142,
                34.26048224
              ],
              [
                108.93769342,
                34.26048724
              ],
              [
                108.93874942,
                34.26050024
              ],
              [
                108.94010142,
                34.26055323
              ],
              [
                108.94160342,
                34.26065923
              ],
              [
                108.94229042,
                34.26071323
              ],
              [
                108.94284842,
                34.26080123
              ],
              [
                108.94280542,
                34.26128022
              ],
              [
                108.94243242,
                34.26170921
              ],
              [
                108.94247042,
                34.26326219
              ],
              [
                108.94250142,
                34.26453016
              ],
              [
                108.94253342,
                34.26586814
              ],
              [
                108.94253442,
                34.26592714
              ],
              [
                108.94254042,
                34.26616914
              ],
              [
                108.94253542,
                34.26755111
              ],
              [
                108.94253142,
                34.2684391
              ],
              [
                108.94253742,
                34.26957208
              ],
              [
                108.94254742,
                34.27141604
              ],
              [
                108.94255042,
                34.27193103
              ],
              [
                108.94255342,
                34.27254902
              ],
              [
                108.94255742,
                34.27333101
              ],
              [
                108.94256042,
                34.273847
              ],
              [
                108.94256642,
                34.27509198
              ],
              [
                108.94256942,
                34.27560597
              ],
              [
                108.94257442,
                34.27655995
              ],
              [
                108.94269942,
                34.27663595
              ],
              [
                108.94300142,
                34.27679895
              ],
              [
                108.94317042,
                34.27717894
              ],
              [
                108.94317242,
                34.27771993
              ],
              [
                108.94317342,
                34.27783393
              ],
              [
                108.94317442,
                34.27793393
              ],
              [
                108.94310842,
                34.27810693
              ],
              [
                108.94289442,
                34.27839992
              ],
              [
                108.94253642,
                34.27862792
              ],
              [
                108.94253442,
                34.27904491
              ],
              [
                108.94611542,
                34.27931791
              ],
              [
                108.94613642,
                34.2796719
              ],
              [
                108.94688742,
                34.27992089
              ],
              [
                108.94692042,
                34.28064788
              ],
              [
                108.94571942,
                34.28065888
              ],
              [
                108.94570942,
                34.28014489
              ],
              [
                108.94506542,
                34.28012789
              ],
              [
                108.94505442,
                34.28059688
              ],
              [
                108.94411042,
                34.28061488
              ],
              [
                108.94406742,
                34.28123587
              ],
              [
                108.94406642,
                34.28168386
              ],
              [
                108.94417342,
                34.28203886
              ],
              [
                108.94423142,
                34.28273685
              ],
              [
                108.94426742,
                34.28317484
              ],
              [
                108.94427342,
                34.28323984
              ],
              [
                108.94446342,
                34.2855258
              ],
              [
                108.94521442,
                34.28634778
              ],
              [
                108.94525742,
                34.28639478
              ],
              [
                108.94545042,
                34.28733476
              ],
              [
                108.94522142,
                34.28789275
              ],
              [
                108.94522042,
                34.28807675
              ],
              [
                108.94520942,
                34.2909667
              ],
              [
                108.94877142,
                34.2909977
              ],
              [
                108.94876242,
                34.29264667
              ],
              [
                108.94875342,
                34.29415864
              ],
              [
                108.94575042,
                34.29415664
              ],
              [
                108.94005142,
                34.29415664
              ],
              [
                108.93711242,
                34.29415564
              ],
              [
                108.93690642,
                34.29415664
              ],
              [
                108.93423442,
                34.29415764
              ],
              [
                108.93139642,
                34.29415964
              ],
              [
                108.93129542,
                34.29415064
              ],
              [
                108.93131742,
                34.29549362
              ],
              [
                108.93058742,
                34.29549362
              ],
              [
                108.93058742,
                34.29536062
              ],
              [
                108.93029242,
                34.29534762
              ],
              [
                108.93030342,
                34.29485063
              ],
              [
                108.92983742,
                34.29485163
              ],
              [
                108.92983742,
                34.29502063
              ],
              [
                108.92966042,
                34.29501563
              ],
              [
                108.92967142,
                34.29414764
              ],
              [
                108.92919942,
                34.29416464
              ],
              [
                108.92918342,
                34.29475863
              ],
              [
                108.92876942,
                34.29475463
              ],
              [
                108.92875942,
                34.29416964
              ],
              [
                108.92671642,
                34.29419164
              ],
              [
                108.92673742,
                34.29490563
              ],
              [
                108.92621242,
                34.29491863
              ],
              [
                108.92624442,
                34.29447564
              ],
              [
                108.92568042,
                34.29446664
              ],
              [
                108.92565942,
                34.29461664
              ],
              [
                108.92534842,
                34.29460364
              ],
              [
                108.92533742,
                34.29454164
              ],
              [
                108.92486042,
                34.29453764
              ],
              [
                108.92473642,
                34.29417364
              ],
              [
                108.92403442,
                34.29416464
              ],
              [
                108.92400142,
                34.29480763
              ],
              [
                108.92310042,
                34.29480263
              ],
              [
                108.92311642,
                34.29416064
              ],
              [
                108.92210442,
                34.29416164
              ],
              [
                108.92211042,
                34.29432564
              ],
              [
                108.92140342,
                34.29451764
              ],
              [
                108.92134442,
                34.29442464
              ],
              [
                108.92103342,
                34.29457964
              ],
              [
                108.92075442,
                34.29476563
              ],
              [
                108.92041442,
                34.29475563
              ],
              [
                108.92042042,
                34.29417064
              ],
              [
                108.91996942,
                34.29414864
              ],
              [
                108.91996442,
                34.29499463
              ],
              [
                108.91946242,
                34.29497863
              ],
              [
                108.91920542,
                34.29497063
              ],
              [
                108.91908742,
                34.29502363
              ],
              [
                108.91812142,
                34.29501463
              ],
              [
                108.91798742,
                34.29508963
              ],
              [
                108.91786342,
                34.29510463
              ],
              [
                108.91782042,
                34.29495663
              ],
              [
                108.91778242,
                34.29481763
              ],
              [
                108.91774542,
                34.29468264
              ],
              [
                108.91772042,
                34.29459264
              ],
              [
                108.91760142,
                34.29415864
              ],
              [
                108.91591042,
                34.29409364
              ],
              [
                108.91368242,
                34.29414064
              ],
              [
                108.91307742,
                34.29422064
              ],
              [
                108.91057342,
                34.29407565
              ],
              [
                108.90662042,
                34.29406565
              ],
              [
                108.89752242,
                34.29404365
              ],
              [
                108.88824342,
                34.29402165
              ],
              [
                108.88768642,
                34.29204168
              ],
              [
                108.87051542,
                34.29204668
              ],
              [
                108.86714042,
                34.29204768
              ],
              [
                108.86713642,
                34.29249767
              ],
              [
                108.86589242,
                34.29287467
              ],
              [
                108.86510942,
                34.29293667
              ],
              [
                108.86499142,
                34.29280367
              ],
              [
                108.86256642,
                34.29302966
              ],
              [
                108.86252342,
                34.29411064
              ],
              [
                108.85996942,
                34.29412864
              ],
              [
                108.85874642,
                34.29409364
              ],
              [
                108.85675142,
                34.29411064
              ],
              [
                108.85445542,
                34.29419964
              ],
              [
                108.85324242,
                34.29416664
              ],
              [
                108.85252442,
                34.29414664
              ],
              [
                108.85039942,
                34.29409364
              ],
              [
                108.85035642,
                34.29345466
              ],
              [
                108.85037842,
                34.29217868
              ],
              [
                108.85050742,
                34.29171769
              ],
              [
                108.85179442,
                34.2909907
              ],
              [
                108.85057142,
                34.29056571
              ],
              [
                108.84984442,
                34.29011272
              ],
              [
                108.84954042,
                34.28972272
              ],
              [
                108.84920442,
                34.28896373
              ],
              [
                108.84927242,
                34.2853608
              ],
              [
                108.84923442,
                34.2852458
              ],
              [
                108.84911342,
                34.28487581
              ]
            ]
          ],
          [
            [
              [
                108.85088742,
                34.27010107
              ],
              [
                108.85089842,
                34.26919608
              ],
              [
                108.85090842,
                34.2683271
              ],
              [
                108.85251742,
                34.2683181
              ],
              [
                108.85251242,
                34.26920508
              ],
              [
                108.85250742,
                34.27013607
              ],
              [
                108.85088742,
                34.27010107
              ]
            ]
          ],
          [
            [
              [
                108.86074842,
                34.24327154
              ],
              [
                108.86075942,
                34.24253455
              ],
              [
                108.86079142,
                34.24171056
              ],
              [
                108.86081242,
                34.24092058
              ],
              [
                108.86141342,
                34.24095658
              ],
              [
                108.86214342,
                34.24100958
              ],
              [
                108.86278742,
                34.24108058
              ],
              [
                108.86349542,
                34.24114258
              ],
              [
                108.86435342,
                34.24120457
              ],
              [
                108.86534042,
                34.24131957
              ],
              [
                108.86596242,
                34.24136457
              ],
              [
                108.86598442,
                34.24165657
              ],
              [
                108.86597342,
                34.24200256
              ],
              [
                108.86571642,
                34.24200256
              ],
              [
                108.86537242,
                34.24201156
              ],
              [
                108.86535142,
                34.24241055
              ],
              [
                108.86538342,
                34.24293454
              ],
              [
                108.86425642,
                34.24294254
              ],
              [
                108.86229342,
                34.24294254
              ],
              [
                108.86149942,
                34.24292554
              ],
              [
                108.86145642,
                34.24327154
              ],
              [
                108.86074842,
                34.24327154
              ]
            ]
          ],
          [
            [
              [
                108.86760042,
                34.24250855
              ],
              [
                108.86762842,
                34.24193756
              ],
              [
                108.86828242,
                34.24192856
              ],
              [
                108.86917342,
                34.24192856
              ],
              [
                108.86925342,
                34.24193456
              ],
              [
                108.87006342,
                34.24199056
              ],
              [
                108.87158742,
                34.24190156
              ],
              [
                108.87331442,
                34.24187556
              ],
              [
                108.87328242,
                34.24278855
              ],
              [
                108.87333642,
                34.24405752
              ],
              [
                108.87332242,
                34.24498451
              ],
              [
                108.87331442,
                34.2455555
              ],
              [
                108.87330342,
                34.24661148
              ],
              [
                108.87255242,
                34.24662048
              ],
              [
                108.87153942,
                34.24662248
              ],
              [
                108.87032642,
                34.2452745
              ],
              [
                108.86935042,
                34.24431652
              ],
              [
                108.86852442,
                34.24342154
              ],
              [
                108.86781642,
                34.24272955
              ],
              [
                108.86760042,
                34.24250855
              ]
            ]
          ],
          [
            [
              [
                108.87585942,
                34.24656348
              ],
              [
                108.87586442,
                34.24649648
              ],
              [
                108.87591842,
                34.24642148
              ],
              [
                108.87602542,
                34.24638548
              ],
              [
                108.87604742,
                34.24629748
              ],
              [
                108.87605242,
                34.24605349
              ],
              [
                108.87605242,
                34.24570249
              ],
              [
                108.87606342,
                34.2453085
              ],
              [
                108.87605742,
                34.24499751
              ],
              [
                108.87623442,
                34.24498851
              ],
              [
                108.87650342,
                34.24499751
              ],
              [
                108.87664742,
                34.24501951
              ],
              [
                108.87690042,
                34.24510851
              ],
              [
                108.87707742,
                34.2451795
              ],
              [
                108.87702342,
                34.2453615
              ],
              [
                108.87698042,
                34.2455295
              ],
              [
                108.87698542,
                34.24571149
              ],
              [
                108.87698542,
                34.24595149
              ],
              [
                108.87699642,
                34.24628848
              ],
              [
                108.87699642,
                34.24655848
              ],
              [
                108.87629942,
                34.24655848
              ],
              [
                108.87585942,
                34.24656348
              ]
            ]
          ],
          [
            [
              [
                108.94252842,
                34.30894638
              ],
              [
                108.94253442,
                34.30867239
              ],
              [
                108.94256842,
                34.30737541
              ],
              [
                108.94258842,
                34.30659942
              ],
              [
                108.94259442,
                34.30637743
              ],
              [
                108.94412942,
                34.30641743
              ],
              [
                108.94410342,
                34.30542345
              ],
              [
                108.94407742,
                34.30442746
              ],
              [
                108.94261842,
                34.30443646
              ],
              [
                108.94261442,
                34.30371548
              ],
              [
                108.94260942,
                34.30288249
              ],
              [
                108.94478242,
                34.30287949
              ],
              [
                108.94479342,
                34.3025425
              ],
              [
                108.94567742,
                34.3025565
              ],
              [
                108.94569942,
                34.3024545
              ],
              [
                108.94772042,
                34.3024235
              ],
              [
                108.94775942,
                34.30308349
              ],
              [
                108.94719042,
                34.30306649
              ],
              [
                108.94718542,
                34.30379747
              ],
              [
                108.94557142,
                34.30373648
              ],
              [
                108.94552442,
                34.30446246
              ],
              [
                108.94549042,
                34.30499545
              ],
              [
                108.94543142,
                34.30645243
              ],
              [
                108.94453642,
                34.30643943
              ],
              [
                108.94447142,
                34.30891138
              ],
              [
                108.94252842,
                34.30894638
              ]
            ]
          ]
        ]
      }
    }
  ],
  "_bbox": [
    108.84911342,
    34.23872962,
    108.94877142,
    34.30894638
  ]
}