{"type":"FeatureCollection","features":[{"type":"Feature","properties":{"FID":21,"NAME":"灵沼街道","code":"610116021000","PAC":"610116","省":"陕西省","省代码":"610000","市":"西安市","市代码":"610100","类型":"乡镇","grade":4,"layer":"乡镇"},"geometry":{"type":"Polygon","coordinates":[[[108.7388,34.117616],[108.738752,34.117383],[108.738634,34.117281],[108.738494,34.117225],[108.738264,34.117196],[108.737716,34.117216],[108.735992,34.117241],[108.732486,34.117212],[108.732489,34.117352],[108.732467,34.1181],[108.732462,34.118533],[108.731904,34.11856],[108.731904,34.11856],[108.731689,34.118571],[108.730566,34.118629],[108.730541,34.119552],[108.729723,34.119577],[108.72963,34.121711],[108.729503,34.121919],[108.728911,34.12193],[108.728908,34.121919],[108.72887,34.121888],[108.728774,34.121886],[108.728637,34.121873],[108.728632,34.121933],[108.728605,34.123736],[108.727465,34.123602],[108.726452,34.12527],[108.726451,34.12527],[108.726344,34.125448],[108.72625,34.125605],[108.724981,34.125623],[108.724971,34.125448],[108.724901,34.124015],[108.724244,34.124049],[108.724206,34.12527],[108.724206,34.12527],[108.724201,34.125448],[108.724195,34.125625],[108.724196,34.125625],[108.72415,34.127211],[108.723147,34.127206],[108.72308,34.129073],[108.722774,34.129069],[108.722557,34.128183],[108.722428,34.128121],[108.720918,34.128037],[108.720918,34.128036],[108.720703,34.128025],[108.71937,34.12797],[108.719322,34.128818],[108.718968,34.128842],[108.718887,34.128885],[108.718764,34.128763],[108.718265,34.128671],[108.718067,34.128605],[108.718002,34.128771],[108.717863,34.130643],[108.715827,34.130665],[108.715832,34.129442],[108.714979,34.129469],[108.714923,34.129908],[108.713531,34.129906],[108.711543,34.129855],[108.711559,34.130712],[108.710264,34.130701],[108.710253,34.131334],[108.710202,34.132914],[108.711195,34.132963],[108.711211,34.133372],[108.711222,34.134542],[108.711232,34.135285],[108.7109,34.135312],[108.710924,34.137084],[108.710935,34.139115],[108.710637,34.139146],[108.710556,34.139726],[108.710763,34.139983],[108.710814,34.14145],[108.710839,34.143457],[108.710838,34.143457],[108.710841,34.143555],[108.711986,34.143524],[108.711975,34.143635],[108.711868,34.145018],[108.711884,34.146236],[108.712243,34.145959],[108.712187,34.14696],[108.711763,34.147253],[108.711651,34.148314],[108.711334,34.148341],[108.710044,34.148425],[108.709717,34.148758],[108.709604,34.148871],[108.709553,34.14908],[108.709438,34.149801],[108.707979,34.149921],[108.708209,34.149331],[108.707649,34.149466],[108.707158,34.149673],[108.706812,34.149939],[108.705938,34.149983],[108.702652,34.149992],[108.702649,34.151131],[108.703086,34.15114],[108.703188,34.152154],[108.703181,34.152549],[108.70318,34.152549],[108.703178,34.152727],[108.703175,34.152905],[108.703175,34.152905],[108.703164,34.153666],[108.702515,34.153715],[108.702531,34.154194],[108.702488,34.155743],[108.702456,34.156181],[108.701831,34.156301],[108.701831,34.157737],[108.703572,34.157737],[108.703626,34.158265],[108.704245,34.158298],[108.704363,34.158746],[108.704417,34.159142],[108.704495,34.159352],[108.704688,34.159503],[108.705267,34.159929],[108.705862,34.160293],[108.706259,34.160649],[108.706831,34.161208],[108.707394,34.161605],[108.707481,34.161641],[108.70748,34.161641],[108.707829,34.161783],[108.708,34.161818],[108.708242,34.161867],[108.708518,34.161896],[108.708977,34.161856],[108.709143,34.161818],[108.709339,34.161774],[108.709502,34.161667],[108.709502,34.161667],[108.709604,34.161601],[108.709717,34.161512],[108.709931,34.161341],[108.709931,34.16134],[108.710031,34.161261],[108.710248,34.161148],[108.710564,34.161084],[108.710704,34.161004],[108.710924,34.160735],[108.71101,34.160675],[108.711122,34.160702],[108.711057,34.161641],[108.711055,34.161641],[108.711044,34.161818],[108.711031,34.161996],[108.711033,34.161996],[108.710932,34.16356],[108.710779,34.165502],[108.710226,34.165544],[108.710157,34.166521],[108.709931,34.166521],[108.709717,34.166521],[108.706136,34.166512],[108.706056,34.166903],[108.70605,34.166963],[108.705484,34.166949],[108.704465,34.166958],[108.704465,34.167773],[108.704052,34.167759],[108.704052,34.167342],[108.702365,34.167349],[108.702389,34.166809],[108.702421,34.165833],[108.701426,34.165724],[108.701697,34.165205],[108.700788,34.164834],[108.700678,34.164883],[108.700426,34.165038],[108.69998,34.165538],[108.699543,34.16584],[108.699154,34.166077],[108.698891,34.166423],[108.698822,34.166605],[108.698787,34.166807],[108.698843,34.166907],[108.6988,34.167204],[108.69873,34.167207],[108.69861,34.167209],[108.698558,34.167211],[108.695198,34.167302],[108.695295,34.168228],[108.693261,34.168383],[108.691687,34.168592],[108.6879,34.168998],[108.687744,34.169044],[108.687344,34.169162],[108.68753,34.169302],[108.68753,34.169302],[108.687744,34.169464],[108.689649,34.170908],[108.689882,34.171086],[108.689883,34.171086],[108.690467,34.171528],[108.690577,34.172329],[108.690359,34.17315],[108.690196,34.173534],[108.689823,34.174077],[108.689568,34.174066],[108.687744,34.174099],[108.68735,34.174106],[108.687221,34.174734],[108.687151,34.174801],[108.686827,34.174814],[108.68673,34.174239],[108.686583,34.173068],[108.685741,34.173112],[108.684552,34.173159],[108.684547,34.174927],[108.682042,34.174998],[108.682004,34.176192],[108.681529,34.176201],[108.681277,34.17477],[108.68113,34.174661],[108.676943,34.174927],[108.676876,34.176243],[108.676758,34.176245],[108.675578,34.176263],[108.675398,34.177603],[108.67373,34.177257],[108.673587,34.177293],[108.673115,34.178688],[108.67278,34.179618],[108.672817,34.17982],[108.672815,34.17982],[108.67285,34.179998],[108.673067,34.181118],[108.673209,34.181941],[108.673335,34.182143],[108.675194,34.181564],[108.675583,34.182587],[108.676543,34.185374],[108.676543,34.185376],[108.676758,34.185997],[108.676836,34.186221],[108.676972,34.186585],[108.676972,34.186585],[108.677144,34.18704],[108.679086,34.186991],[108.679276,34.187741],[108.680899,34.187635],[108.680717,34.189086],[108.680593,34.190102],[108.678877,34.190306],[108.67863,34.19039],[108.677919,34.190417],[108.678112,34.191564],[108.676809,34.191569],[108.676758,34.191433],[108.67657,34.190927],[108.674094,34.190905],[108.673869,34.1914],[108.674486,34.192984],[108.674591,34.193308],[108.676758,34.193137],[108.678394,34.193002],[108.678166,34.19173],[108.680046,34.191584],[108.680111,34.191797],[108.682079,34.191577],[108.682157,34.192065],[108.68407,34.19183],[108.685378,34.190792],[108.68558,34.190839],[108.685856,34.191852],[108.687087,34.191644],[108.687232,34.191486],[108.687393,34.19146],[108.68753,34.19146],[108.687709,34.1913],[108.687744,34.191298],[108.68791,34.19128],[108.687959,34.191284],[108.688439,34.191327],[108.688431,34.19116],[108.688664,34.191156],[108.688653,34.191438],[108.689214,34.19142],[108.689219,34.190883],[108.689874,34.190916],[108.689887,34.190555],[108.690316,34.190541],[108.690303,34.191136],[108.691204,34.191116],[108.691759,34.191089],[108.691894,34.191169],[108.691816,34.192576],[108.693935,34.192651],[108.694495,34.191959],[108.694839,34.191555],[108.696469,34.191608],[108.696518,34.190231],[108.697751,34.190115],[108.697822,34.189263],[108.697837,34.189086],[108.697843,34.189046],[108.698073,34.188908],[108.698075,34.188908],[108.698165,34.188855],[108.698516,34.188822],[108.698618,34.188813],[108.698599,34.188598],[108.69873,34.188593],[108.69983,34.188547],[108.699854,34.188846],[108.701456,34.188822],[108.701457,34.188908],[108.701458,34.188908],[108.701461,34.189086],[108.701456,34.189501],[108.703411,34.189565],[108.705012,34.189649],[108.705023,34.189263],[108.705023,34.189263],[108.705028,34.189086],[108.705034,34.188908],[108.705034,34.188908],[108.705052,34.188367],[108.705877,34.188908],[108.706147,34.189086],[108.706419,34.189263],[108.706504,34.189319],[108.706505,34.189263],[108.706504,34.189263],[108.706512,34.189086],[108.70656,34.187921],[108.708097,34.187912],[108.70874,34.188795],[108.708858,34.188744],[108.70892,34.188744],[108.708904,34.187528],[108.709502,34.187507],[108.709502,34.187506],[108.709717,34.187499],[108.709931,34.187491],[108.709931,34.187491],[108.710656,34.187462],[108.710613,34.184156],[108.711809,34.184298],[108.712211,34.184333],[108.712227,34.182758],[108.712386,34.182771],[108.712391,34.184309],[108.712501,34.184264],[108.712648,34.184258],[108.712694,34.181881],[108.713421,34.181899],[108.713399,34.181868],[108.713362,34.180643],[108.715062,34.180492],[108.715061,34.180175],[108.71506,34.180175],[108.71506,34.179998],[108.71506,34.17982],[108.71506,34.178515],[108.715245,34.178538],[108.716109,34.178762],[108.716387,34.178897],[108.716385,34.1766],[108.718083,34.176321],[108.718069,34.174776],[108.719113,34.17475],[108.719105,34.173744],[108.720537,34.173749],[108.720548,34.173296],[108.720703,34.173287],[108.720918,34.173272],[108.721814,34.17321],[108.721827,34.173289],[108.721851,34.174133],[108.723474,34.174213],[108.723466,34.174825],[108.725963,34.174836],[108.726065,34.177484],[108.730987,34.177537],[108.731094,34.175744],[108.731689,34.175739],[108.731904,34.175737],[108.731904,34.175737],[108.734533,34.175713],[108.734755,34.175988],[108.735136,34.176791],[108.735504,34.177135],[108.735774,34.177375],[108.736091,34.177521],[108.736737,34.17773],[108.736933,34.177903],[108.736823,34.177066],[108.736775,34.176034],[108.736874,34.176363],[108.736896,34.176567],[108.73693,34.176711],[108.73726,34.176578],[108.737231,34.175988],[108.737242,34.175762],[108.737523,34.17524],[108.737684,34.17502],[108.738089,34.174119],[108.738229,34.173749],[108.738368,34.173316],[108.738424,34.173005],[108.738451,34.172448],[108.738438,34.171461],[108.738315,34.170908],[108.738253,34.170731],[108.738254,34.170731],[108.738242,34.170698],[108.737872,34.170305],[108.737314,34.169821],[108.736222,34.16908],[108.734643,34.167557],[108.734052,34.166767],[108.733827,34.166124],[108.733733,34.165724],[108.733599,34.164812],[108.733578,34.164599],[108.733575,34.164313],[108.733661,34.162937],[108.733736,34.162495],[108.733768,34.162124],[108.733808,34.161996],[108.733806,34.161996],[108.733862,34.161818],[108.733916,34.161641],[108.733917,34.161641],[108.733945,34.161547],[108.734259,34.161075],[108.734643,34.16062],[108.73608,34.159059],[108.737523,34.157452],[108.738019,34.157088],[108.738277,34.15686],[108.739248,34.155883],[108.741125,34.153522],[108.741863,34.152964],[108.741987,34.152905],[108.741986,34.152905],[108.742354,34.152727],[108.742716,34.152549],[108.742719,34.152549],[108.74289,34.152463],[108.74344,34.152183],[108.744481,34.151622],[108.745315,34.151271],[108.746887,34.150723],[108.747431,34.150474],[108.747619,34.150359],[108.747928,34.15005],[108.748233,34.149229],[108.748284,34.148843],[108.748392,34.148474],[108.748461,34.147983],[108.748223,34.147662],[108.748046,34.147286],[108.747909,34.147222],[108.747726,34.147195],[108.747571,34.147193],[108.74748,34.147164],[108.747429,34.147116],[108.74737,34.146842],[108.74734,34.146771],[108.747238,34.146707],[108.746994,34.146703],[108.74693,34.146674],[108.746895,34.14664],[108.746839,34.146621],[108.746804,34.146556],[108.746801,34.146492],[108.746533,34.146327],[108.746348,34.146243],[108.745916,34.146165],[108.74572,34.146168],[108.745669,34.146208],[108.745621,34.146305],[108.745578,34.146316],[108.745497,34.146321],[108.745213,34.146272],[108.74495,34.146245],[108.744792,34.146254],[108.744822,34.145666],[108.744913,34.145246],[108.744843,34.145031],[108.744835,34.144865],[108.744566,34.143812],[108.744521,34.143635],[108.744481,34.143524],[108.744438,34.143457],[108.74444,34.143457],[108.744181,34.143031],[108.744299,34.142987],[108.744411,34.142869],[108.744569,34.142663],[108.744728,34.14248],[108.744969,34.142321],[108.745361,34.142025],[108.745594,34.141786],[108.746696,34.141173],[108.746962,34.141102],[108.748027,34.140627],[108.748928,34.140638],[108.749446,34.140505],[108.749591,34.140292],[108.750012,34.139537],[108.750789,34.138196],[108.751232,34.137244],[108.751667,34.135838],[108.751728,34.134542],[108.751742,34.134309],[108.751508,34.131185],[108.751232,34.129799],[108.750867,34.12747],[108.750508,34.126484],[108.750297,34.125625],[108.750296,34.125625],[108.750283,34.12557],[108.750253,34.125448],[108.75021,34.12527],[108.75021,34.12527],[108.75002,34.124479],[108.74999,34.124162],[108.749915,34.123782],[108.749886,34.12342],[108.749574,34.122665],[108.749161,34.121824],[108.74686,34.121819],[108.744789,34.121691],[108.744744,34.12124],[108.744795,34.120003],[108.744492,34.119965],[108.743974,34.119885],[108.743955,34.118511],[108.743918,34.118395],[108.743837,34.118318],[108.743365,34.118293],[108.74289,34.118302],[108.74289,34.118302],[108.742676,34.118307],[108.740889,34.118333],[108.740924,34.116575],[108.739369,34.11653],[108.739302,34.116575],[108.739251,34.116737],[108.739302,34.117587],[108.7388,34.117616]]]}}]}