{"type":"FeatureCollection","features":[{"type":"Feature","properties":{"FID":8,"NAME":"六村堡街道","code":"610112008000","PAC":"610112","省":"陕西省","省代码":"610000","市":"西安市","市代码":"610100","类型":"乡镇","grade":4,"layer":"乡镇"},"geometry":{"type":"MultiPolygon","coordinates":[[[[108.862597,34.315598],[108.862453,34.315589],[108.862393,34.316041],[108.862391,34.316041],[108.862385,34.316099],[108.861972,34.316041],[108.861967,34.316041],[108.861806,34.316019],[108.86098,34.315981],[108.860661,34.31595],[108.859526,34.315778],[108.859521,34.315707],[108.857903,34.315642],[108.857944,34.315213],[108.85612,34.315215],[108.856106,34.314504],[108.856026,34.313852],[108.855549,34.313824],[108.855549,34.313538],[108.855535,34.313527],[108.853942,34.31342],[108.853945,34.313516],[108.853958,34.313544],[108.854041,34.313626],[108.854138,34.313671],[108.85391,34.313744],[108.853548,34.313777],[108.852539,34.313837],[108.850506,34.31391],[108.847974,34.315337],[108.847789,34.315465],[108.847617,34.315718],[108.847468,34.316041],[108.847467,34.316041],[108.847387,34.316218],[108.847306,34.316396],[108.847306,34.316396],[108.847188,34.316657],[108.846933,34.317042],[108.84696,34.317554],[108.846888,34.319067],[108.846885,34.319468],[108.847003,34.319439],[108.847038,34.31967],[108.846925,34.319699],[108.846941,34.320414],[108.846566,34.320407],[108.845745,34.320432],[108.84508,34.320673],[108.843361,34.320647],[108.843371,34.320704],[108.843462,34.322618],[108.844235,34.322587],[108.845305,34.322572],[108.845305,34.32486],[108.845296,34.325115],[108.845294,34.325115],[108.845289,34.325292],[108.845281,34.325469],[108.845282,34.325469],[108.845235,34.326714],[108.845192,34.32748],[108.845174,34.327968],[108.845176,34.32828],[108.844659,34.328276],[108.844321,34.328278],[108.843269,34.328382],[108.84243,34.33205],[108.841767,34.333778],[108.841767,34.333778],[108.84161,34.334187],[108.841609,34.334187],[108.841528,34.334401],[108.841472,34.334542],[108.841474,34.334542],[108.841471,34.33455],[108.840284,34.337645],[108.838648,34.342787],[108.838272,34.343436],[108.83817,34.343613],[108.838174,34.343613],[108.836025,34.347367],[108.84074,34.34876],[108.841338,34.347587],[108.841338,34.347588],[108.841349,34.347566],[108.841553,34.347613],[108.84169,34.347644],[108.841631,34.347839],[108.841767,34.347876],[108.841767,34.347875],[108.845032,34.348744],[108.844726,34.352507],[108.844568,34.354511],[108.844471,34.354504],[108.843449,34.354389],[108.841553,34.354125],[108.841419,34.354105],[108.84056,34.354072],[108.839836,34.353908],[108.839774,34.353849],[108.839469,34.353789],[108.838798,34.353709],[108.837492,34.353499],[108.836998,34.35339],[108.836153,34.353164],[108.83596,34.353131],[108.835531,34.353131],[108.834635,34.352876],[108.83371,34.352772],[108.832951,34.352733],[108.830998,34.35279],[108.83088,34.35287],[108.830781,34.352877],[108.830781,34.352876],[108.830566,34.352892],[108.830352,34.352905],[108.830352,34.352906],[108.830153,34.352919],[108.829907,34.352914],[108.828702,34.353051],[108.828305,34.353049],[108.828152,34.354668],[108.827946,34.355999],[108.827672,34.35812],[108.828426,34.358233],[108.828346,34.358348],[108.828171,34.358308],[108.827334,34.358222],[108.824958,34.358158],[108.824478,34.358149],[108.824309,34.358162],[108.823874,34.358228],[108.822176,34.358184],[108.822209,34.357713],[108.821629,34.358036],[108.821431,34.357852],[108.820736,34.358231],[108.81958,34.358995],[108.816018,34.361342],[108.815944,34.361399],[108.815943,34.361399],[108.815866,34.36146],[108.815718,34.361576],[108.815492,34.361753],[108.815496,34.361753],[108.812609,34.364032],[108.813186,34.364346],[108.813443,34.364415],[108.81803,34.365982],[108.819366,34.36641],[108.819366,34.36641],[108.81958,34.366478],[108.819795,34.366547],[108.819795,34.366546],[108.82042,34.366744],[108.823094,34.367647],[108.824853,34.36821],[108.826216,34.368697],[108.82727,34.369004],[108.828013,34.369275],[108.830175,34.369952],[108.830566,34.370085],[108.830781,34.370158],[108.830781,34.370157],[108.83224,34.370645],[108.832768,34.370822],[108.83277,34.370822],[108.832929,34.370875],[108.835051,34.371564],[108.836188,34.371969],[108.837867,34.372635],[108.839761,34.373525],[108.841553,34.374446],[108.842178,34.374765],[108.842167,34.374749],[108.843312,34.375265],[108.846045,34.376631],[108.846732,34.376961],[108.84729,34.377116],[108.848264,34.377348],[108.848245,34.377317],[108.848089,34.377196],[108.847912,34.376948],[108.847733,34.376578],[108.847698,34.376472],[108.848328,34.376864],[108.849331,34.376943],[108.849481,34.376983],[108.850071,34.377065],[108.851053,34.377375],[108.852324,34.377737],[108.852324,34.377738],[108.852539,34.3778],[108.854591,34.37838],[108.854792,34.378455],[108.858548,34.379535],[108.858547,34.379535],[108.859164,34.379713],[108.859427,34.379788],[108.859861,34.379752],[108.860081,34.37989],[108.860082,34.37989],[108.861487,34.380764],[108.861701,34.38087],[108.862074,34.380961],[108.862157,34.381094],[108.862107,34.38128],[108.861967,34.381459],[108.861919,34.381568],[108.861964,34.381725],[108.86212,34.381807],[108.863311,34.382398],[108.863311,34.382398],[108.863525,34.382504],[108.863525,34.382504],[108.86374,34.38261],[108.86374,34.38261],[108.86437,34.382922],[108.865231,34.38292],[108.86529,34.382774],[108.865784,34.382969],[108.867297,34.383934],[108.86842,34.384886],[108.868933,34.385224],[108.86904,34.385262],[108.869407,34.385213],[108.869501,34.385189],[108.869574,34.385143],[108.869627,34.385067],[108.869646,34.38493],[108.869697,34.383737],[108.869711,34.383099],[108.8736,34.384346],[108.874297,34.384614],[108.874297,34.384616],[108.874512,34.384702],[108.874726,34.384791],[108.874726,34.38479],[108.876191,34.385393],[108.879034,34.386654],[108.879812,34.387028],[108.880198,34.387232],[108.880839,34.387633],[108.881896,34.388182],[108.882806,34.388602],[108.882805,34.388602],[108.883189,34.388779],[108.883572,34.388956],[108.883573,34.388956],[108.883972,34.38914],[108.885283,34.389697],[108.885283,34.389698],[108.885498,34.389789],[108.885713,34.389879],[108.885713,34.389879],[108.886061,34.390025],[108.888588,34.391163],[108.891174,34.39229],[108.891796,34.392518],[108.892729,34.39294],[108.894266,34.393485],[108.894615,34.39358],[108.89627,34.394131],[108.89627,34.394131],[108.896484,34.394202],[108.896591,34.394235],[108.896699,34.394268],[108.896699,34.394268],[108.897748,34.394589],[108.898705,34.394804],[108.899341,34.394981],[108.899655,34.395032],[108.903134,34.39528],[108.905344,34.395475],[108.907471,34.395627],[108.907591,34.395634],[108.907685,34.395623],[108.907685,34.395622],[108.907776,34.39561],[108.907827,34.395559],[108.907838,34.395514],[108.907838,34.39534],[108.907854,34.395309],[108.907903,34.395284],[108.908109,34.395282],[108.909788,34.39549],[108.911363,34.395661],[108.912331,34.395749],[108.913098,34.395758],[108.91387,34.395822],[108.914689,34.39601],[108.915212,34.396174],[108.916242,34.39642],[108.917848,34.396915],[108.918242,34.397033],[108.918242,34.397035],[108.918457,34.397099],[108.919777,34.397486],[108.920409,34.397668],[108.920407,34.397668],[108.921024,34.397845],[108.922255,34.398197],[108.923446,34.398586],[108.924098,34.398746],[108.925675,34.399168],[108.927263,34.399664],[108.929443,34.400284],[108.929645,34.400339],[108.929658,34.400344],[108.929658,34.400343],[108.931471,34.400839],[108.932356,34.401056],[108.934019,34.401424],[108.935642,34.401846],[108.937055,34.402369],[108.937962,34.40267],[108.938378,34.402822],[108.940017,34.403382],[108.940215,34.403481],[108.940215,34.403482],[108.94043,34.403588],[108.94054,34.403641],[108.940644,34.403665],[108.940644,34.403664],[108.94352,34.404301],[108.943037,34.402386],[108.944064,34.398279],[108.944182,34.397845],[108.944389,34.397112],[108.944563,34.396526],[108.944576,34.396435],[108.944547,34.3964],[108.942519,34.393892],[108.940934,34.391165],[108.94043,34.390667],[108.93926,34.389507],[108.938415,34.388779],[108.935658,34.3864],[108.933646,34.384022],[108.933257,34.383713],[108.931645,34.382471],[108.931372,34.383068],[108.931262,34.383265],[108.931181,34.383281],[108.929934,34.382329],[108.929714,34.382198],[108.929636,34.382185],[108.929443,34.38201],[108.928907,34.381517],[108.928923,34.381503],[108.928623,34.381249],[108.929229,34.380797],[108.929229,34.380797],[108.929403,34.380667],[108.929231,34.380556],[108.92914,34.380383],[108.929062,34.380279],[108.928977,34.380093],[108.928926,34.379947],[108.92888,34.379713],[108.928775,34.379161],[108.92866,34.378652],[108.92822,34.378539],[108.928373,34.378086],[108.928223,34.377913],[108.927539,34.377271],[108.927284,34.377047],[108.926804,34.378028],[108.926091,34.377871],[108.925211,34.377512],[108.925128,34.377289],[108.92513,34.377216],[108.925114,34.377154],[108.925138,34.376737],[108.925114,34.376357],[108.925125,34.375422],[108.923644,34.375104],[108.922864,34.375104],[108.922459,34.374995],[108.922008,34.374915],[108.921426,34.374878],[108.921491,34.374703],[108.920595,34.374676],[108.919997,34.374628],[108.919828,34.374734],[108.918457,34.374896],[108.917494,34.375004],[108.917073,34.375106],[108.915912,34.375214],[108.915254,34.375312],[108.914517,34.375347],[108.913618,34.375358],[108.908224,34.375272],[108.907471,34.375476],[108.907288,34.375524],[108.907219,34.375551],[108.905776,34.375128],[108.905349,34.376044],[108.90356,34.375533],[108.903404,34.375447],[108.90327,34.375314],[108.903034,34.375117],[108.902884,34.374867],[108.902734,34.374661],[108.901803,34.374203],[108.89969,34.373494],[108.898507,34.373147],[108.896683,34.372677],[108.896484,34.372624],[108.896028,34.372496],[108.894027,34.371878],[108.893408,34.371657],[108.892646,34.371413],[108.891734,34.371161],[108.890369,34.370902],[108.890133,34.370877],[108.889237,34.370645],[108.888054,34.370337],[108.886721,34.370021],[108.886303,34.36987],[108.885729,34.369416],[108.885498,34.369215],[108.88413,34.368017],[108.882886,34.367056],[108.882861,34.367085],[108.882735,34.366994],[108.882765,34.36697],[108.88229,34.366629],[108.881276,34.366024],[108.879994,34.365566],[108.878074,34.364962],[108.876236,34.364289],[108.875869,34.364182],[108.874683,34.363777],[108.874655,34.363767],[108.874512,34.363715],[108.873519,34.363356],[108.873653,34.362026],[108.873688,34.361576],[108.873702,34.361399],[108.8737,34.361399],[108.873975,34.358078],[108.874152,34.355702],[108.874512,34.355917],[108.874726,34.356045],[108.874726,34.356044],[108.876054,34.356833],[108.876236,34.356293],[108.87666,34.354743],[108.877068,34.353771],[108.874726,34.353404],[108.874726,34.353403],[108.874512,34.35337],[108.873994,34.353286],[108.874297,34.352564],[108.874297,34.352569],[108.874512,34.352057],[108.874726,34.351475],[108.874726,34.351474],[108.874868,34.351087],[108.875107,34.350186],[108.875472,34.350221],[108.876038,34.350252],[108.876236,34.350153],[108.876443,34.350104],[108.876644,34.349612],[108.877068,34.349739],[108.877328,34.349123],[108.87761,34.349218],[108.877969,34.348459],[108.878548,34.347595],[108.878693,34.347425],[108.879316,34.347661],[108.879729,34.347878],[108.879517,34.348253],[108.879903,34.348425],[108.88012,34.348058],[108.88037,34.347577],[108.880386,34.347537],[108.880439,34.347555],[108.880587,34.34723],[108.88052,34.347207],[108.881011,34.346014],[108.881266,34.345243],[108.881542,34.345285],[108.881823,34.343658],[108.881837,34.343613],[108.881837,34.343613],[108.88189,34.343436],[108.88192,34.343343],[108.881247,34.343263],[108.881351,34.342408],[108.882314,34.342499],[108.882354,34.342253],[108.883666,34.342324],[108.883886,34.340938],[108.883921,34.340615],[108.884119,34.340632],[108.884251,34.339503],[108.885283,34.339571],[108.885283,34.339571],[108.885498,34.339585],[108.887212,34.339695],[108.887534,34.336039],[108.887574,34.334949],[108.887574,34.334542],[108.887574,34.334364],[108.887577,34.330581],[108.887569,34.330176],[108.885879,34.330158],[108.885713,34.330164],[108.885713,34.330163],[108.885498,34.330172],[108.885283,34.330178],[108.885283,34.330179],[108.88357,34.330236],[108.883561,34.330081],[108.883612,34.329868],[108.88361,34.329543],[108.883631,34.32867],[108.885283,34.328709],[108.885283,34.32871],[108.885498,34.328714],[108.885536,34.328714],[108.885565,34.327897],[108.885643,34.326847],[108.885678,34.326579],[108.885691,34.326224],[108.885713,34.326224],[108.885758,34.326224],[108.885761,34.326118],[108.885713,34.326118],[108.885697,34.326118],[108.885713,34.325677],[108.885713,34.325676],[108.885715,34.325602],[108.885715,34.325469],[108.885715,34.325292],[108.885734,34.323161],[108.88579,34.321531],[108.885498,34.321533],[108.885283,34.321533],[108.885283,34.321533],[108.883688,34.321535],[108.883725,34.321728],[108.882743,34.321796],[108.882735,34.321905],[108.88097,34.321836],[108.881011,34.321801],[108.881223,34.321475],[108.881429,34.321085],[108.881823,34.320489],[108.879718,34.320292],[108.879734,34.320035],[108.879737,34.319158],[108.879308,34.319003],[108.878275,34.318881],[108.878342,34.318425],[108.876126,34.318338],[108.876129,34.318268],[108.874512,34.318223],[108.874297,34.318217],[108.874297,34.318217],[108.874152,34.318212],[108.874136,34.318409],[108.874131,34.318724],[108.872264,34.318704],[108.872251,34.319513],[108.870692,34.319426],[108.870711,34.319275],[108.870757,34.317384],[108.870808,34.316845],[108.870872,34.316218],[108.870926,34.315731],[108.870947,34.315687],[108.87099,34.315647],[108.871087,34.3156],[108.868925,34.315452],[108.868697,34.315731],[108.868555,34.315875],[108.867954,34.315842],[108.867455,34.31584],[108.867412,34.316041],[108.867412,34.316041],[108.867385,34.316167],[108.866798,34.316139],[108.866779,34.316218],[108.866736,34.316396],[108.866738,34.316396],[108.866599,34.316996],[108.866385,34.316974],[108.864888,34.316865],[108.864974,34.316396],[108.864974,34.316396],[108.865006,34.316218],[108.865041,34.316041],[108.86504,34.316041],[108.865103,34.315709],[108.864268,34.315611],[108.86415,34.316218],[108.864081,34.316597],[108.863525,34.31652],[108.86333,34.316491],[108.863362,34.316302],[108.863512,34.315456],[108.86301,34.31543],[108.862994,34.315753],[108.862584,34.315718],[108.862597,34.315598]]]]}}]}