{"type":"FeatureCollection","features":[{"type":"Feature","properties":{"FID":13,"NAME":"鸣犊街道","code":"610116013000","PAC":"610116","省":"陕西省","省代码":"610000","市":"西安市","市代码":"610100","类型":"乡镇","grade":4,"layer":"乡镇"},"geometry":{"type":"Polygon","coordinates":[[[109.117329,34.087808],[109.118539,34.085058],[109.118196,34.084925],[109.116959,34.087693],[109.117013,34.087768],[109.1169,34.087751],[109.116755,34.087749],[109.116426,34.087789],[109.116426,34.087791],[109.116211,34.087815],[109.116208,34.087815],[109.116211,34.087811],[109.116463,34.087211],[109.117616,34.084701],[109.117388,34.084616],[109.116426,34.086835],[109.116426,34.086836],[109.116356,34.086995],[109.116211,34.086907],[109.116192,34.086893],[109.116211,34.086838],[109.116562,34.08576],[109.116426,34.085713],[109.116426,34.085714],[109.116307,34.085672],[109.116426,34.085378],[109.116766,34.08453],[109.116924,34.084516],[109.117034,34.084521],[109.117227,34.08445],[109.117265,34.084414],[109.117292,34.08433],[109.117316,34.08419],[109.117332,34.083999],[109.117437,34.083885],[109.117509,34.083877],[109.117689,34.083888],[109.117866,34.083881],[109.118035,34.083786],[109.118097,34.083719],[109.118115,34.083672],[109.118113,34.083539],[109.118064,34.083435],[109.11807,34.083255],[109.118024,34.083184],[109.117965,34.083166],[109.117973,34.083015],[109.117914,34.082901],[109.117697,34.082813],[109.117429,34.082728],[109.117257,34.08273],[109.117112,34.082788],[109.11701,34.082926],[109.116981,34.083032],[109.116903,34.083084],[109.116664,34.083077],[109.116501,34.083124],[109.116426,34.083209],[109.116426,34.08321],[109.116302,34.08335],[109.116211,34.083386],[109.116082,34.083386],[109.116021,34.083361],[109.115996,34.083339],[109.115996,34.083339],[109.115688,34.083055],[109.115318,34.082835],[109.115178,34.082826],[109.11505,34.082837],[109.114776,34.082937],[109.114596,34.08313],[109.114427,34.083435],[109.114285,34.083568],[109.114081,34.083841],[109.113505,34.085172],[109.113333,34.085398],[109.112638,34.085223],[109.112515,34.085456],[109.112072,34.085358],[109.111699,34.086331],[109.111353,34.086258],[109.111155,34.086644],[109.110999,34.086613],[109.110586,34.087557],[109.11045,34.087529],[109.110353,34.087733],[109.110551,34.0878],[109.110173,34.088833],[109.110087,34.088799],[109.110053,34.088884],[109.10998,34.089061],[109.109924,34.089199],[109.109701,34.089577],[109.10954,34.089797],[109.10917,34.09073],[109.108926,34.091234],[109.109336,34.091363],[109.109138,34.091838],[109.109363,34.091882],[109.108902,34.093066],[109.108583,34.093686],[109.108671,34.093757],[109.108548,34.094041],[109.108382,34.094015],[109.107786,34.095092],[109.108239,34.095259],[109.107223,34.097286],[109.107845,34.0975],[109.107816,34.097533],[109.10766,34.097469],[109.107496,34.097437],[109.107121,34.09728],[109.106869,34.097375],[109.106823,34.097353],[109.106681,34.097226],[109.106593,34.097113],[109.106314,34.096922],[109.106185,34.096789],[109.105976,34.09666],[109.105439,34.096432],[109.105439,34.096434],[109.105332,34.096387],[109.105225,34.096351],[109.10501,34.096278],[109.10501,34.096278],[109.104946,34.096256],[109.104694,34.096151],[109.104535,34.096183],[109.104396,34.096107],[109.104329,34.09604],[109.104374,34.095743],[109.104374,34.095676],[109.10431,34.09559],[109.104291,34.095379],[109.104106,34.095072],[109.102537,34.094712],[109.1014,34.094523],[109.101228,34.095185],[109.100346,34.095061],[109.098771,34.094719],[109.098597,34.09491],[109.097422,34.09439],[109.097363,34.09389],[109.097159,34.093839],[109.096684,34.095379],[109.095126,34.095081],[109.09459,34.09762],[109.095421,34.097304],[109.095264,34.097982],[109.095266,34.097982],[109.095223,34.098159],[109.095118,34.098626],[109.094453,34.098478],[109.094453,34.098479],[109.094238,34.09843],[109.094024,34.098384],[109.094024,34.098382],[109.093823,34.098337],[109.093823,34.098337],[109.093616,34.09829],[109.093616,34.098159],[109.093624,34.097393],[109.093109,34.097391],[109.093109,34.097862],[109.0931,34.097982],[109.093093,34.098077],[109.093077,34.097982],[109.093077,34.097982],[109.093069,34.097931],[109.090301,34.0975],[109.090183,34.097964],[109.090011,34.097933],[109.090204,34.096918],[109.089974,34.09688],[109.089306,34.096836],[109.087238,34.096338],[109.087018,34.096525],[109.086613,34.096909],[109.086318,34.097253],[109.08624,34.097486],[109.086031,34.097982],[109.086031,34.097982],[109.085956,34.098159],[109.085881,34.098337],[109.08588,34.098337],[109.085207,34.099927],[109.086159,34.100272],[109.085824,34.101511],[109.0862,34.101582],[109.085784,34.102817],[109.085993,34.102868],[109.085494,34.104458],[109.085883,34.104534],[109.086098,34.104605],[109.085486,34.106475],[109.085314,34.107079],[109.085315,34.107079],[109.085264,34.107256],[109.085143,34.107696],[109.084936,34.108489],[109.085242,34.108602],[109.0848,34.110168],[109.085006,34.110221],[109.085408,34.108918],[109.085891,34.108966],[109.085484,34.110337],[109.085754,34.110394],[109.085985,34.110417],[109.086374,34.108958],[109.086591,34.108969],[109.086221,34.110294],[109.086103,34.110392],[109.086438,34.110432],[109.086798,34.110601],[109.086881,34.110601],[109.087077,34.110576],[109.087071,34.110752],[109.086999,34.110981],[109.086943,34.111127],[109.08675,34.111516],[109.086484,34.112009],[109.086208,34.112278],[109.085813,34.112133],[109.085446,34.112662],[109.085183,34.112535],[109.085127,34.112637],[109.084797,34.113099],[109.084561,34.113079],[109.084376,34.113035],[109.084003,34.112886],[109.083925,34.113332],[109.084027,34.113403],[109.083467,34.114593],[109.083467,34.114594],[109.083252,34.115049],[109.083204,34.115151],[109.083064,34.115098],[109.083037,34.115158],[109.083037,34.115156],[109.082705,34.11588],[109.082569,34.116175],[109.082571,34.116175],[109.082488,34.116352],[109.082364,34.116626],[109.082196,34.11653],[109.082195,34.11653],[109.082142,34.116499],[109.081943,34.116417],[109.081806,34.116421],[109.081728,34.116444],[109.081715,34.116461],[109.081715,34.116506],[109.081742,34.116528],[109.081887,34.116608],[109.082002,34.116699],[109.082136,34.116708],[109.082367,34.116841],[109.082606,34.116892],[109.082659,34.116912],[109.08267,34.116932],[109.082665,34.116976],[109.081997,34.118391],[109.081012,34.120081],[109.080717,34.12001],[109.080119,34.119837],[109.079749,34.120536],[109.079419,34.121102],[109.078993,34.121873],[109.079089,34.121888],[109.079416,34.122061],[109.079419,34.122175],[109.079376,34.122341],[109.079277,34.122597],[109.079044,34.123063],[109.078695,34.123947],[109.078448,34.124442],[109.078019,34.125448],[109.077678,34.126258],[109.076455,34.128902],[109.07597,34.129877],[109.075675,34.12962],[109.075401,34.129424],[109.074897,34.129158],[109.074808,34.129271],[109.07469,34.129406],[109.073776,34.130976],[109.07248,34.130563],[109.07248,34.130563],[109.072266,34.130494],[109.072051,34.130425],[109.072051,34.130425],[109.071807,34.130346],[109.071643,34.130807],[109.071625,34.130856],[109.0716,34.130925],[109.071048,34.132388],[109.070984,34.132348],[109.07067,34.132273],[109.070552,34.132459],[109.068961,34.132359],[109.070573,34.134364],[109.070573,34.134364],[109.070715,34.134542],[109.07086,34.134719],[109.070858,34.134719],[109.072051,34.1362],[109.07248,34.136733],[109.07248,34.136735],[109.075286,34.140216],[109.077895,34.143457],[109.078038,34.143635],[109.07818,34.143812],[109.078319,34.143986],[109.083037,34.147497],[109.083037,34.147497],[109.083252,34.147657],[109.083467,34.147817],[109.088528,34.151582],[109.087649,34.152549],[109.087487,34.152727],[109.087326,34.152905],[109.087326,34.152905],[109.083467,34.157156],[109.083467,34.157157],[109.083252,34.157393],[109.083037,34.15763],[109.083037,34.157629],[109.081112,34.159754],[109.080704,34.160198],[109.080275,34.160677],[109.079441,34.161592],[109.079432,34.161641],[109.0794,34.161818],[109.07937,34.161996],[109.078952,34.164459],[109.078732,34.164379],[109.078617,34.164342],[109.078389,34.16479],[109.078867,34.164959],[109.077886,34.170731],[109.077888,34.170731],[109.077855,34.170908],[109.077827,34.171084],[109.077827,34.171086],[109.077812,34.171175],[109.074301,34.174696],[109.07428,34.174727],[109.07376,34.175744],[109.072478,34.177878],[109.07354,34.178196],[109.07314,34.179146],[109.074908,34.179656],[109.074896,34.17982],[109.074894,34.17982],[109.074883,34.179998],[109.07487,34.180175],[109.074872,34.180175],[109.074862,34.180328],[109.076538,34.180557],[109.077013,34.180481],[109.077201,34.179998],[109.077643,34.178875],[109.078547,34.179039],[109.080186,34.179614],[109.080468,34.179789],[109.080943,34.179536],[109.081267,34.179088],[109.081734,34.178626],[109.082064,34.17838],[109.082496,34.178125],[109.082825,34.177852],[109.082884,34.177645],[109.082906,34.177484],[109.082855,34.177286],[109.082986,34.177097],[109.083037,34.177077],[109.083037,34.177077],[109.083252,34.176989],[109.083252,34.176989],[109.083467,34.1769],[109.083547,34.176867],[109.083662,34.176776],[109.083684,34.17662],[109.083574,34.176443],[109.083349,34.17593],[109.083292,34.175686],[109.083458,34.175267],[109.083467,34.175256],[109.083467,34.175255],[109.083627,34.175027],[109.083461,34.174883],[109.083252,34.174772],[109.082952,34.174612],[109.082761,34.174477],[109.082611,34.174472],[109.08252,34.174417],[109.082361,34.174275],[109.081908,34.173716],[109.081651,34.173471],[109.081557,34.173347],[109.081578,34.173176],[109.081873,34.172988],[109.081948,34.173008],[109.082286,34.173478],[109.082587,34.173833],[109.083037,34.174135],[109.083037,34.174137],[109.083053,34.174146],[109.083252,34.174213],[109.083467,34.174284],[109.083775,34.174386],[109.083968,34.174543],[109.084126,34.174699],[109.084491,34.174818],[109.084864,34.174907],[109.085111,34.174719],[109.085961,34.174011],[109.08628,34.173724],[109.086503,34.173476],[109.086538,34.173514],[109.087463,34.172657],[109.087871,34.172963],[109.087463,34.173261],[109.087731,34.173509],[109.088522,34.174395],[109.08871,34.17475],[109.08896,34.175351],[109.089215,34.17579],[109.089636,34.176678],[109.090113,34.176569],[109.093648,34.175582],[109.093683,34.17556],[109.093705,34.17552],[109.094024,34.175408],[109.094024,34.175409],[109.094238,34.175333],[109.094453,34.175258],[109.094453,34.175258],[109.094793,34.175138],[109.095622,34.17481],[109.096397,34.176214],[109.09798,34.175737],[109.099375,34.175269],[109.098999,34.174526],[109.100214,34.174053],[109.10008,34.173798],[109.099731,34.173236],[109.100389,34.172974],[109.09956,34.171559],[109.100466,34.171206],[109.10056,34.17137],[109.100893,34.171255],[109.100804,34.171086],[109.100804,34.171086],[109.10071,34.170908],[109.100415,34.170345],[109.099764,34.170591],[109.099654,34.170431],[109.100316,34.170192],[109.100094,34.169754],[109.098801,34.170238],[109.098699,34.170087],[109.101647,34.168951],[109.103513,34.168054],[109.102615,34.166763],[109.102398,34.166421],[109.102263,34.16645],[109.101979,34.166581],[109.101319,34.165531],[109.102293,34.165105],[109.102395,34.16505],[109.101816,34.16416],[109.10309,34.163538],[109.103197,34.1637],[109.103371,34.163654],[109.102964,34.162999],[109.103186,34.162875],[109.102634,34.162029],[109.102454,34.161825],[109.102467,34.161818],[109.102542,34.161783],[109.102864,34.161703],[109.103892,34.161166],[109.103934,34.161192],[109.104036,34.161361],[109.104122,34.161578],[109.104154,34.16159],[109.104726,34.161394],[109.10501,34.161268],[109.10501,34.16127],[109.105206,34.161181],[109.10516,34.16115],[109.104954,34.160804],[109.104876,34.160733],[109.10501,34.160674],[109.10501,34.160675],[109.105053,34.160655],[109.105225,34.160609],[109.105917,34.16044],[109.10593,34.160553],[109.106067,34.160704],[109.10615,34.160728],[109.10641,34.160713],[109.106453,34.160697],[109.106579,34.160524],[109.106571,34.160453],[109.106517,34.160349],[109.10645,34.160276],[109.106324,34.160178],[109.10637,34.160125],[109.106496,34.16006],[109.106678,34.159927],[109.10688,34.159867],[109.10711,34.159774],[109.107419,34.159692],[109.107877,34.159676],[109.107759,34.15941],[109.107982,34.159381],[109.108762,34.159481],[109.108953,34.159466],[109.109079,34.159421],[109.109344,34.159408],[109.109575,34.159339],[109.10969,34.159233],[109.10983,34.158829],[109.109857,34.158797],[109.10994,34.15882],[109.110034,34.158804],[109.110656,34.158385],[109.110667,34.158336],[109.110602,34.158283],[109.111107,34.157717],[109.111319,34.157452],[109.111724,34.157148],[109.11248,34.156764],[109.112805,34.156491],[109.113572,34.156063],[109.114736,34.15551],[109.116211,34.154913],[109.117008,34.154603],[109.117297,34.154518],[109.117383,34.154469],[109.117675,34.154128],[109.11793,34.15395],[109.119076,34.153422],[109.119802,34.153266],[109.119985,34.153277],[109.120044,34.15332],[109.120124,34.153313],[109.120655,34.153204],[109.121009,34.15308],[109.12139,34.152822],[109.121471,34.152905],[109.121473,34.152905],[109.121599,34.153031],[109.122026,34.152727],[109.122173,34.152623],[109.122219,34.152518],[109.122351,34.152325],[109.122544,34.152181],[109.12257,34.152119],[109.122533,34.152077],[109.122318,34.152059],[109.122257,34.152017],[109.122297,34.151701],[109.122391,34.151322],[109.122557,34.151067],[109.122764,34.150949],[109.123104,34.150803],[109.123394,34.150707],[109.123549,34.150687],[109.123662,34.150743],[109.123767,34.15082],[109.123946,34.15082],[109.124443,34.150723],[109.124791,34.150583],[109.124711,34.150438],[109.124488,34.150256],[109.123952,34.149764],[109.12389,34.149648],[109.123877,34.149433],[109.123839,34.149318],[109.123869,34.149198],[109.123954,34.149093],[109.124024,34.149069],[109.124097,34.149064],[109.124317,34.149062],[109.124585,34.149084],[109.12499,34.149144],[109.125373,34.149244],[109.125623,34.149349],[109.125896,34.149504],[109.125945,34.149615],[109.125942,34.149699],[109.125985,34.149746],[109.126055,34.149793],[109.126234,34.149839],[109.126326,34.150023],[109.126382,34.150094],[109.126446,34.150134],[109.126564,34.150168],[109.126824,34.150174],[109.126937,34.15017],[109.126983,34.150156],[109.126983,34.150157],[109.127047,34.150137],[109.127109,34.15011],[109.127197,34.149999],[109.127213,34.149977],[109.127382,34.14967],[109.127412,34.149633],[109.127412,34.149632],[109.127533,34.149475],[109.127659,34.149355],[109.128249,34.148987],[109.128611,34.1488],[109.128471,34.148627],[109.127734,34.149022],[109.127589,34.148796],[109.129021,34.148026],[109.128868,34.147799],[109.129713,34.147338],[109.129834,34.147315],[109.130177,34.1472],[109.130386,34.147178],[109.130365,34.147162],[109.131137,34.146707],[109.130971,34.14651],[109.13128,34.146316],[109.130985,34.145846],[109.131982,34.145337],[109.131698,34.144927],[109.13371,34.143917],[109.134635,34.143635],[109.134648,34.143613],[109.134662,34.143635],[109.134775,34.143801],[109.134791,34.143812],[109.134793,34.143812],[109.134855,34.14385],[109.134957,34.143961],[109.135051,34.144199],[109.135131,34.144325],[109.136126,34.143932],[109.136142,34.143935],[109.136196,34.143837],[109.136252,34.143775],[109.136354,34.143701],[109.136491,34.143635],[109.137564,34.143115],[109.137969,34.142898],[109.137926,34.142818],[109.137856,34.142749],[109.137725,34.142674],[109.137596,34.142645],[109.137537,34.142609],[109.137457,34.142478],[109.137433,34.142338],[109.137465,34.142216],[109.137572,34.14211],[109.137835,34.14211],[109.137953,34.142154],[109.137969,34.142172],[109.137969,34.142172],[109.138108,34.142323],[109.138184,34.142429],[109.138283,34.142627],[109.138398,34.142565],[109.138398,34.142563],[109.139766,34.141801],[109.139876,34.141937],[109.139989,34.142014],[109.140093,34.142005],[109.140235,34.141943],[109.140195,34.141866],[109.140024,34.14175],[109.139914,34.141604],[109.139739,34.141515],[109.139696,34.141457],[109.139664,34.141364],[109.139514,34.141226],[109.139302,34.141204],[109.140219,34.140749],[109.140077,34.140658],[109.139873,34.140494],[109.139991,34.140394],[109.139696,34.140167],[109.140415,34.139757],[109.14089,34.139421],[109.140901,34.139439],[109.141341,34.139113],[109.141507,34.139237],[109.141729,34.139481],[109.141842,34.139408],[109.141866,34.13945],[109.143661,34.138214],[109.143846,34.138369],[109.143977,34.138445],[109.144017,34.138491],[109.144071,34.138436],[109.144068,34.138172],[109.144101,34.138087],[109.144229,34.137936],[109.14443,34.137759],[109.144484,34.13769],[109.144479,34.137517],[109.144296,34.13739],[109.14442,34.137317],[109.144801,34.137177],[109.145131,34.13703],[109.145584,34.136875],[109.146088,34.136775],[109.146622,34.136629],[109.146627,34.13664],[109.146826,34.136597],[109.147169,34.136491],[109.147341,34.13664],[109.14759,34.136995],[109.147823,34.137144],[109.148019,34.137355],[109.14822,34.137625],[109.14917,34.136924],[109.150213,34.136149],[109.150809,34.136653],[109.150393,34.136926],[109.151104,34.137652],[109.152665,34.1366],[109.152724,34.136504],[109.152847,34.136691],[109.153413,34.137366],[109.154634,34.136868],[109.154843,34.137201],[109.157144,34.136187],[109.157892,34.137408],[109.158751,34.137115],[109.158705,34.137055],[109.157678,34.13515],[109.157659,34.135141],[109.157294,34.134542],[109.157179,34.134351],[109.158263,34.133918],[109.15797,34.133467],[109.158764,34.13313],[109.158681,34.132968],[109.157884,34.131831],[109.158024,34.131576],[109.158096,34.131393],[109.158131,34.131049],[109.158182,34.130863],[109.158391,34.130286],[109.158413,34.130115],[109.158453,34.130024],[109.158424,34.12997],[109.158477,34.129711],[109.158461,34.129586],[109.158386,34.129431],[109.158297,34.129349],[109.157887,34.129098],[109.156744,34.129806],[109.156632,34.129668],[109.156586,34.129588],[109.156549,34.129555],[109.156374,34.129482],[109.156224,34.129393],[109.157198,34.128747],[109.157077,34.128638],[109.156801,34.128314],[109.156302,34.127826],[109.155908,34.127381],[109.155409,34.126902],[109.155264,34.126689],[109.155014,34.12612],[109.154982,34.125949],[109.155009,34.125794],[109.155092,34.125448],[109.155146,34.12523],[109.155234,34.125103],[109.15535,34.124897],[109.155452,34.124599],[109.15546,34.124402],[109.155395,34.124178],[109.15488,34.123451],[109.154695,34.123112],[109.154398,34.123232],[109.1541,34.123332],[109.153773,34.123352],[109.152488,34.121704],[109.152195,34.121851],[109.152083,34.121866],[109.151919,34.121673],[109.151656,34.121744],[109.151664,34.121753],[109.151511,34.121819],[109.151831,34.12225],[109.151927,34.122224],[109.152241,34.122639],[109.150986,34.123436],[109.151144,34.12358],[109.150779,34.123862],[109.150828,34.123876],[109.15119,34.124257],[109.150675,34.124659],[109.150433,34.124175],[109.150313,34.124217],[109.150465,34.124453],[109.150364,34.124493],[109.150197,34.124178],[109.150044,34.124237],[109.149427,34.124424],[109.14917,34.12416],[109.14847,34.123438],[109.148829,34.123169],[109.148955,34.123092],[109.148955,34.123094],[109.14917,34.122961],[109.149384,34.12283],[109.149384,34.122829],[109.150307,34.122264],[109.149645,34.121504],[109.14917,34.121531],[109.149057,34.121535],[109.148625,34.121482],[109.148494,34.12152],[109.148389,34.121531],[109.148304,34.121509],[109.148148,34.121406],[109.148118,34.121413],[109.147681,34.120658],[109.14917,34.12027],[109.149384,34.120214],[109.149384,34.120213],[109.151565,34.119641],[109.150473,34.118102],[109.150087,34.118151],[109.14969,34.118124],[109.149317,34.118307],[109.149242,34.118216],[109.14917,34.11824],[109.148446,34.118478],[109.148135,34.11852],[109.147738,34.118502],[109.147397,34.118429],[109.147064,34.118384],[109.146909,34.118344],[109.146989,34.118464],[109.146721,34.118564],[109.146619,34.118615],[109.146498,34.118724],[109.146346,34.118828],[109.146158,34.119035],[109.14608,34.119179],[109.146005,34.119235],[109.14557,34.119399],[109.145281,34.119064],[109.144916,34.119261],[109.145305,34.119754],[109.145412,34.119925],[109.145691,34.120072],[109.14589,34.120658],[109.146069,34.121293],[109.144422,34.122086],[109.142757,34.123072],[109.142403,34.122721],[109.14192,34.121522],[109.14188,34.121178],[109.14122,34.120552],[109.139796,34.119324],[109.139214,34.118797],[109.138369,34.119266],[109.138184,34.119059],[109.137816,34.118644],[109.137653,34.118677],[109.136604,34.117463],[109.135869,34.116557],[109.135695,34.116353],[109.135394,34.115997],[109.135268,34.11576],[109.135155,34.115431],[109.135123,34.115109],[109.134935,34.1147],[109.134576,34.114076],[109.134584,34.11403],[109.134707,34.113925],[109.134726,34.11389],[109.134724,34.113825],[109.134477,34.113452],[109.134437,34.11323],[109.134327,34.112986],[109.134302,34.112897],[109.134412,34.112782],[109.134748,34.112657],[109.13489,34.11256],[109.135383,34.112362],[109.135649,34.112187],[109.135976,34.111942],[109.137183,34.111392],[109.13718,34.111263],[109.137108,34.110992],[109.137129,34.110699],[109.137049,34.110363],[109.136429,34.109619],[109.136317,34.109613],[109.13567,34.110052],[109.134933,34.110465],[109.134579,34.110685],[109.134343,34.110923],[109.134206,34.111038],[109.134096,34.111074],[109.134021,34.111078],[109.133938,34.111058],[109.133895,34.111023],[109.133881,34.110954],[109.133935,34.11083],[109.134166,34.110679],[109.134445,34.110463],[109.134732,34.110294],[109.135442,34.109917],[109.136075,34.109546],[109.136065,34.109488],[109.134367,34.107638],[109.134831,34.107256],[109.136502,34.105882],[109.136038,34.105451],[109.136303,34.105129],[109.136051,34.104924],[109.136228,34.104694],[109.136027,34.104542],[109.136789,34.103108],[109.13504,34.102131],[109.135241,34.101635],[109.135056,34.101369],[109.134796,34.101318],[109.134388,34.101329],[109.134085,34.101617],[109.132945,34.103137],[109.132766,34.10301],[109.132363,34.102675],[109.132259,34.102239],[109.131113,34.101848],[109.130657,34.102046],[109.130022,34.102131],[109.129128,34.102082],[109.129187,34.101931],[109.129539,34.101302],[109.129584,34.100229],[109.129662,34.099205],[109.129764,34.098715],[109.128881,34.098337],[109.128882,34.098337],[109.128466,34.098159],[109.128375,34.098119],[109.128815,34.09704],[109.129678,34.096613],[109.128613,34.096012],[109.128748,34.095674],[109.128219,34.095354],[109.127817,34.095672],[109.127197,34.095352],[109.126983,34.095239],[109.126983,34.09524],[109.126709,34.095096],[109.126427,34.095083],[109.125682,34.096283],[109.125164,34.096105],[109.125089,34.096362],[109.12499,34.096518],[109.12414,34.096054],[109.1243,34.095772],[109.124359,34.095625],[109.124314,34.095538],[109.124263,34.095512],[109.124166,34.095523],[109.123987,34.095669],[109.12385,34.095681],[109.123576,34.095854],[109.123539,34.095885],[109.123528,34.095914],[109.123547,34.095996],[109.123498,34.096009],[109.123346,34.096012],[109.123139,34.09606],[109.12297,34.096072],[109.122919,34.096089],[109.122809,34.096069],[109.122664,34.096163],[109.122519,34.096143],[109.122396,34.096143],[109.122329,34.096163],[109.122069,34.096314],[109.121921,34.09634],[109.121838,34.096329],[109.121972,34.096194],[109.122219,34.096047],[109.122273,34.095945],[109.122289,34.095872],[109.12227,34.095814],[109.122125,34.095705],[109.120792,34.095196],[109.120808,34.095119],[109.120905,34.094903],[109.120296,34.09461],[109.11999,34.094517],[109.119934,34.094432],[109.119958,34.094241],[109.1198,34.094095],[109.120191,34.093377],[109.119628,34.093155],[109.119902,34.09262],[109.119556,34.092482],[109.118646,34.092058],[109.118802,34.091798],[109.116914,34.090887],[109.117375,34.089808],[109.118196,34.090112],[109.11857,34.089239],[109.118569,34.089239],[109.118646,34.089061],[109.118928,34.088415],[109.118794,34.088291],[109.118638,34.088215],[109.118217,34.087971],[109.117922,34.087891],[109.117705,34.087846],[109.117329,34.087808]]]}}]}