{"type":"FeatureCollection","features":[{"type":"Feature","properties":{"FID":1,"NAME":"南院门街道","code":"610103001000","PAC":"610103","省":"陕西省","省代码":"610000","市":"西安市","市代码":"610100","类型":"乡镇","grade":4,"layer":"乡镇"},"geometry":{"type":"Polygon","coordinates":[[[108.94621742,34.25740929],[108.94544442,34.25742429],[108.94476242,34.25746929],[108.94475742,34.25779228],[108.94450542,34.25781428],[108.94449742,34.25817628],[108.94449742,34.25862027],[108.94503942,34.25862027],[108.94506342,34.25915426],[108.94405442,34.25914926],[108.94326642,34.25914926],[108.94327142,34.25949125],[108.94263142,34.25949925],[108.94272742,34.25989425],[108.94311942,34.25990325],[108.94313542,34.26002724],[108.94282942,34.26014624],[108.94284842,34.26080123],[108.94229042,34.26071323],[108.94160342,34.26065923],[108.94010142,34.26055323],[108.93874942,34.26050024],[108.93769342,34.26048724],[108.93731142,34.26048224],[108.93630742,34.26048624],[108.93569542,34.26048824],[108.93563142,34.26048824],[108.93434842,34.26049324],[108.93174542,34.26050324],[108.93177942,34.25834527],[108.93179642,34.25730329],[108.93180142,34.2570073],[108.93186142,34.25324636],[108.93176442,34.25259037],[108.93362442,34.25260537],[108.93377842,34.25259337],[108.93387342,34.25258537],[108.93430142,34.25255337],[108.93434842,34.25255038],[108.93511542,34.25256937],[108.93703642,34.25256537],[108.93814442,34.25256237],[108.93817342,34.25255938],[108.94009842,34.25239638],[108.94034742,34.25237538],[108.94069142,34.25212338],[108.94082142,34.25202938],[108.94092942,34.25180039],[108.94199542,34.25174939],[108.94213942,34.25174239],[108.94223342,34.25173739],[108.94323942,34.25168939],[108.94351542,34.25188839],[108.94397442,34.25244238],[108.94618542,34.25248138],[108.94625442,34.25255038],[108.94641142,34.25363636],[108.94641142,34.25386535],[108.94641142,34.25438934],[108.94641242,34.25511633],[108.94649142,34.25732729],[108.94649442,34.25740429],[108.94621742,34.25740929]]]}}]}