{"type":"FeatureCollection","features":[{"type":"Feature","properties":{"FID":24,"NAME":"砲里街道","code":"610116024000","PAC":"610116","省":"陕西省","省代码":"610000","市":"西安市","市代码":"610100","类型":"乡镇","grade":4,"layer":"乡镇"},"geometry":{"type":"Polygon","coordinates":[[[109.170585,34.131591],[109.169606,34.130867],[109.169726,34.130497],[109.169732,34.130401],[109.169718,34.130239],[109.169673,34.13017],[109.169415,34.130015],[109.169335,34.129901],[109.169327,34.129833],[109.169396,34.12954],[109.169472,34.129331],[109.169461,34.129271],[109.169337,34.129131],[109.169252,34.129093],[109.169032,34.128965],[109.168989,34.128909],[109.168973,34.128636],[109.168911,34.128574],[109.16871,34.128496],[109.168372,34.128423],[109.168184,34.128409],[109.167964,34.128445],[109.167189,34.128942],[109.166712,34.129136],[109.166634,34.129211],[109.166626,34.129295],[109.166642,34.129482],[109.166741,34.129615],[109.166856,34.129726],[109.166964,34.129786],[109.166999,34.129793],[109.167151,34.129631],[109.167355,34.129602],[109.167742,34.129573],[109.16816,34.129588],[109.1682,34.129684],[109.168184,34.12979],[109.168031,34.129815],[109.168012,34.129828],[109.168074,34.130144],[109.168139,34.130255],[109.168294,34.130357],[109.168342,34.130512],[109.168375,34.130763],[109.168369,34.130972],[109.16835,34.131058],[109.168375,34.131236],[109.168353,34.131285],[109.168259,34.131345],[109.168122,34.131602],[109.16798,34.130517],[109.167725,34.130554],[109.167243,34.130652],[109.167358,34.131171],[109.166272,34.131456],[109.166309,34.131169],[109.166304,34.131087],[109.164593,34.131642],[109.164542,34.131498],[109.164426,34.131294],[109.164217,34.130687],[109.16408,34.130343],[109.163128,34.130696],[109.163598,34.131522],[109.161991,34.132088],[109.16187,34.131902],[109.161613,34.132011],[109.162154,34.133161],[109.161715,34.133329],[109.161672,34.133336],[109.16043,34.133778],[109.160306,34.133827],[109.160156,34.133885],[109.159427,34.134169],[109.159561,34.134364],[109.159561,34.134364],[109.159668,34.134519],[109.159606,34.134542],[109.158973,34.134777],[109.158845,34.134573],[109.158504,34.134719],[109.158506,34.134719],[109.158445,34.134746],[109.158504,34.134859],[109.158464,34.134864],[109.157825,34.135114],[109.157678,34.13515],[109.158705,34.137055],[109.158751,34.137115],[109.157892,34.137408],[109.157144,34.136187],[109.154843,34.137201],[109.154634,34.136868],[109.153413,34.137366],[109.152847,34.136691],[109.152724,34.136504],[109.152665,34.1366],[109.151104,34.137652],[109.150393,34.136926],[109.150809,34.136653],[109.150213,34.136149],[109.149384,34.136764],[109.14917,34.136924],[109.148955,34.137082],[109.14822,34.137625],[109.148019,34.137355],[109.147823,34.137144],[109.14759,34.136995],[109.147341,34.13664],[109.147169,34.136491],[109.146826,34.136597],[109.146627,34.13664],[109.146622,34.136629],[109.146088,34.136775],[109.145584,34.136875],[109.145131,34.13703],[109.144801,34.137177],[109.14442,34.137317],[109.144296,34.13739],[109.144479,34.137517],[109.144484,34.13769],[109.14443,34.137759],[109.144229,34.137936],[109.144101,34.138087],[109.144068,34.138172],[109.144071,34.138436],[109.144017,34.138491],[109.143977,34.138445],[109.143846,34.138369],[109.143661,34.138214],[109.141866,34.13945],[109.141842,34.139408],[109.141729,34.139481],[109.141507,34.139237],[109.141341,34.139113],[109.140901,34.139439],[109.14089,34.139421],[109.140415,34.139757],[109.139696,34.140167],[109.139991,34.140394],[109.139873,34.140494],[109.140077,34.140658],[109.140219,34.140749],[109.139302,34.141204],[109.139514,34.141226],[109.139664,34.141364],[109.139696,34.141457],[109.139739,34.141515],[109.139914,34.141604],[109.140024,34.14175],[109.140195,34.141866],[109.140235,34.141943],[109.140093,34.142005],[109.139989,34.142014],[109.139876,34.141937],[109.139766,34.141801],[109.138398,34.142563],[109.138398,34.142565],[109.138283,34.142627],[109.138184,34.142429],[109.138108,34.142323],[109.137969,34.142172],[109.137969,34.142172],[109.137953,34.142154],[109.137835,34.14211],[109.137572,34.14211],[109.137465,34.142216],[109.137433,34.142338],[109.137457,34.142478],[109.137537,34.142609],[109.137596,34.142645],[109.137725,34.142674],[109.137856,34.142749],[109.137926,34.142818],[109.137969,34.142898],[109.137564,34.143115],[109.136858,34.143457],[109.136491,34.143635],[109.136354,34.143701],[109.136252,34.143775],[109.136218,34.143812],[109.136196,34.143837],[109.136142,34.143935],[109.136126,34.143932],[109.135131,34.144325],[109.135051,34.144199],[109.134957,34.143961],[109.134855,34.14385],[109.134793,34.143812],[109.134791,34.143812],[109.134775,34.143801],[109.134662,34.143635],[109.134648,34.143613],[109.134635,34.143635],[109.13371,34.143917],[109.131698,34.144927],[109.131982,34.145337],[109.130985,34.145846],[109.13128,34.146316],[109.130971,34.14651],[109.131137,34.146707],[109.130365,34.147162],[109.130386,34.147178],[109.130177,34.1472],[109.129834,34.147315],[109.129713,34.147338],[109.128868,34.147799],[109.129021,34.148026],[109.127589,34.148796],[109.127734,34.149022],[109.128471,34.148627],[109.128611,34.1488],[109.128249,34.148987],[109.127659,34.149355],[109.127533,34.149475],[109.127412,34.149632],[109.127412,34.149633],[109.127382,34.14967],[109.127213,34.149977],[109.127197,34.149999],[109.127109,34.15011],[109.127047,34.150137],[109.126983,34.150157],[109.126983,34.150156],[109.126937,34.15017],[109.126824,34.150174],[109.126564,34.150168],[109.126446,34.150134],[109.126382,34.150094],[109.126326,34.150023],[109.126234,34.149839],[109.126055,34.149793],[109.125985,34.149746],[109.125942,34.149699],[109.125945,34.149615],[109.125896,34.149504],[109.125623,34.149349],[109.125373,34.149244],[109.12499,34.149144],[109.124585,34.149084],[109.124317,34.149062],[109.124097,34.149064],[109.124024,34.149069],[109.123954,34.149093],[109.123869,34.149198],[109.123839,34.149318],[109.123877,34.149433],[109.12389,34.149648],[109.123952,34.149764],[109.124488,34.150256],[109.124711,34.150438],[109.124791,34.150583],[109.124443,34.150723],[109.123946,34.15082],[109.123767,34.15082],[109.123662,34.150743],[109.123549,34.150687],[109.123394,34.150707],[109.123104,34.150803],[109.122764,34.150949],[109.122557,34.151067],[109.122391,34.151322],[109.122297,34.151701],[109.122257,34.152017],[109.122318,34.152059],[109.122533,34.152077],[109.12257,34.152119],[109.122544,34.152181],[109.122351,34.152325],[109.122219,34.152518],[109.122206,34.152549],[109.122173,34.152623],[109.122026,34.152727],[109.121599,34.153031],[109.121473,34.152905],[109.121471,34.152905],[109.12139,34.152822],[109.121269,34.152905],[109.121009,34.15308],[109.120655,34.153204],[109.120124,34.153313],[109.120044,34.15332],[109.119985,34.153277],[109.119802,34.153266],[109.119076,34.153422],[109.11793,34.15395],[109.117675,34.154128],[109.117383,34.154469],[109.117297,34.154518],[109.117008,34.154603],[109.116211,34.154913],[109.115996,34.155],[109.114736,34.15551],[109.113572,34.156063],[109.112805,34.156491],[109.11248,34.156764],[109.111724,34.157148],[109.111319,34.157452],[109.111107,34.157717],[109.110602,34.158283],[109.110667,34.158336],[109.110656,34.158385],[109.110034,34.158804],[109.10994,34.15882],[109.109857,34.158797],[109.10983,34.158829],[109.10969,34.159233],[109.109575,34.159339],[109.109344,34.159408],[109.109079,34.159421],[109.108953,34.159466],[109.108762,34.159481],[109.107982,34.159381],[109.107759,34.15941],[109.107877,34.159676],[109.107419,34.159692],[109.10711,34.159774],[109.10688,34.159867],[109.106678,34.159927],[109.106496,34.16006],[109.10637,34.160125],[109.106324,34.160178],[109.10645,34.160276],[109.106517,34.160349],[109.106571,34.160453],[109.106579,34.160524],[109.106453,34.160697],[109.10641,34.160713],[109.10615,34.160728],[109.106067,34.160704],[109.10593,34.160553],[109.105917,34.16044],[109.105225,34.160609],[109.105053,34.160655],[109.10501,34.160675],[109.10501,34.160674],[109.104876,34.160733],[109.104954,34.160804],[109.10501,34.160898],[109.10516,34.16115],[109.105206,34.161181],[109.10501,34.16127],[109.10501,34.161268],[109.104726,34.161394],[109.104154,34.16159],[109.104122,34.161578],[109.104036,34.161361],[109.103934,34.161192],[109.103892,34.161166],[109.102983,34.161641],[109.102864,34.161703],[109.102542,34.161783],[109.102467,34.161818],[109.102454,34.161825],[109.102604,34.161996],[109.102634,34.162029],[109.103186,34.162875],[109.102964,34.162999],[109.103371,34.163654],[109.103197,34.1637],[109.10309,34.163538],[109.101816,34.16416],[109.102395,34.16505],[109.102293,34.165105],[109.101319,34.165531],[109.101979,34.166581],[109.102263,34.16645],[109.102398,34.166421],[109.102615,34.166763],[109.103513,34.168054],[109.101647,34.168951],[109.098699,34.170087],[109.098801,34.170238],[109.100094,34.169754],[109.100316,34.170192],[109.099654,34.170431],[109.099764,34.170591],[109.100415,34.170345],[109.10071,34.170908],[109.100804,34.171086],[109.100804,34.171086],[109.100893,34.171255],[109.10056,34.17137],[109.100466,34.171206],[109.09956,34.171559],[109.100389,34.172974],[109.099731,34.173236],[109.10008,34.173798],[109.100214,34.174053],[109.098999,34.174526],[109.099375,34.175269],[109.09798,34.175737],[109.096397,34.176214],[109.095622,34.17481],[109.094793,34.175138],[109.094453,34.175258],[109.094453,34.175258],[109.094238,34.175333],[109.094024,34.175409],[109.094024,34.175408],[109.093705,34.17552],[109.093683,34.17556],[109.093648,34.175582],[109.090113,34.176569],[109.089636,34.176678],[109.089215,34.17579],[109.08896,34.175351],[109.08871,34.17475],[109.088522,34.174395],[109.087731,34.173509],[109.087463,34.173261],[109.087871,34.172963],[109.087463,34.172657],[109.086538,34.173514],[109.086503,34.173476],[109.08628,34.173724],[109.085961,34.174011],[109.085111,34.174719],[109.084864,34.174907],[109.084491,34.174818],[109.084126,34.174699],[109.083968,34.174543],[109.083775,34.174386],[109.083467,34.174284],[109.083467,34.174284],[109.083252,34.174213],[109.083053,34.174146],[109.083037,34.174137],[109.083037,34.174135],[109.082587,34.173833],[109.082286,34.173478],[109.081948,34.173008],[109.081873,34.172988],[109.081578,34.173176],[109.081557,34.173347],[109.081651,34.173471],[109.081908,34.173716],[109.082361,34.174275],[109.08252,34.174417],[109.082611,34.174472],[109.082761,34.174477],[109.082952,34.174612],[109.083252,34.174772],[109.083461,34.174883],[109.083627,34.175027],[109.083467,34.175255],[109.083467,34.175256],[109.083458,34.175267],[109.083292,34.175686],[109.083349,34.17593],[109.083467,34.176199],[109.083574,34.176443],[109.083684,34.17662],[109.083662,34.176776],[109.083547,34.176867],[109.083467,34.1769],[109.083467,34.1769],[109.083252,34.176989],[109.083252,34.176989],[109.083037,34.177077],[109.083037,34.177077],[109.082986,34.177097],[109.082855,34.177286],[109.082906,34.177484],[109.082884,34.177645],[109.082825,34.177852],[109.082496,34.178125],[109.082064,34.17838],[109.081734,34.178626],[109.081267,34.179088],[109.080943,34.179536],[109.080468,34.179789],[109.080518,34.17982],[109.080516,34.17982],[109.080749,34.179964],[109.080736,34.179998],[109.080664,34.180175],[109.080666,34.180175],[109.080387,34.180881],[109.080186,34.180969],[109.079475,34.180943],[109.079416,34.181358],[109.080143,34.181451],[109.080355,34.182287],[109.079218,34.182984],[109.07943,34.183794],[109.079231,34.184611],[109.080291,34.184258],[109.080063,34.18497],[109.079242,34.186281],[109.078695,34.187071],[109.079036,34.187211],[109.079411,34.186874],[109.079988,34.186093],[109.080082,34.186352],[109.079746,34.187153],[109.080371,34.187298],[109.080371,34.187903],[109.081197,34.188041],[109.081106,34.188391],[109.079765,34.189086],[109.078869,34.189552],[109.076654,34.19061],[109.076546,34.190965],[109.076479,34.19173],[109.076552,34.192114],[109.076919,34.192602],[109.077131,34.193397],[109.077209,34.194428],[109.077483,34.195489],[109.078834,34.195535],[109.079762,34.193015],[109.080538,34.193],[109.080664,34.192778],[109.081208,34.191983],[109.0819,34.191298],[109.082378,34.191136],[109.082726,34.191149],[109.083037,34.191243],[109.083037,34.191245],[109.08308,34.191256],[109.083252,34.191342],[109.083467,34.191451],[109.083467,34.19145],[109.083601,34.191517],[109.084735,34.191975],[109.085945,34.19252],[109.086377,34.192809],[109.086658,34.192909],[109.086996,34.192877],[109.087305,34.19274],[109.087839,34.192489],[109.088268,34.192423],[109.088785,34.192394],[109.089271,34.192254],[109.089805,34.192008],[109.090298,34.191757],[109.090786,34.191622],[109.091637,34.19164],[109.092318,34.191759],[109.09316,34.191875],[109.093511,34.191877],[109.093739,34.191828],[109.093927,34.191728],[109.094024,34.191591],[109.094024,34.191593],[109.094155,34.191404],[109.094195,34.191182],[109.094195,34.190872],[109.094211,34.190763],[109.094238,34.19071],[109.094268,34.190648],[109.094407,34.190479],[109.09445,34.19039],[109.094418,34.190122],[109.094453,34.190027],[109.094453,34.190027],[109.094557,34.18974],[109.094944,34.189445],[109.095598,34.189086],[109.095676,34.189044],[109.095778,34.188895],[109.095751,34.188662],[109.095625,34.188209],[109.095679,34.188101],[109.096161,34.187959],[109.096245,34.187854],[109.096226,34.187834],[109.096226,34.187772],[109.096328,34.187542],[109.096502,34.187309],[109.096609,34.187147],[109.096784,34.186987],[109.096974,34.186914],[109.097304,34.186778],[109.097803,34.18659],[109.097889,34.186528],[109.097961,34.18643],[109.098119,34.186339],[109.098559,34.186155],[109.098573,34.186144],[109.098613,34.186053],[109.098637,34.185931],[109.098669,34.185862],[109.098846,34.185751],[109.098911,34.185669],[109.098948,34.185614],[109.099026,34.185523],[109.099045,34.185507],[109.099198,34.185418],[109.099367,34.185347],[109.099538,34.185232],[109.099879,34.184903],[109.100094,34.184671],[109.10037,34.18422],[109.100778,34.183091],[109.100874,34.182765],[109.101024,34.182547],[109.101204,34.182416],[109.101869,34.182241],[109.102132,34.182161],[109.102537,34.181873],[109.103103,34.181442],[109.103784,34.181045],[109.103741,34.180748],[109.103578,34.180175],[109.103578,34.180175],[109.103527,34.179998],[109.103527,34.179993],[109.10449,34.179512],[109.10501,34.179655],[109.10501,34.179656],[109.105128,34.179687],[109.105225,34.179782],[109.105263,34.17982],[109.105262,34.17982],[109.105324,34.17988],[109.105439,34.179884],[109.105439,34.179882],[109.105651,34.179887],[109.105895,34.179512],[109.106032,34.179365],[109.106284,34.179236],[109.106552,34.179114],[109.106657,34.178946],[109.106826,34.178533],[109.10692,34.178356],[109.107073,34.178218],[109.107454,34.178105],[109.107942,34.178076],[109.108341,34.17791],[109.109374,34.177415],[109.10976,34.177235],[109.110551,34.17692],[109.111104,34.176829],[109.111412,34.176833],[109.111807,34.176907],[109.112024,34.176982],[109.112174,34.177004],[109.112442,34.1771],[109.112649,34.177184],[109.112858,34.177255],[109.11311,34.177395],[109.113301,34.177486],[109.11344,34.177492],[109.11362,34.17749],[109.113907,34.177466],[109.114266,34.177368],[109.114604,34.177293],[109.11472,34.177264],[109.114811,34.177262],[109.114878,34.177284],[109.115248,34.17735],[109.115457,34.177397],[109.115653,34.177455],[109.11575,34.17747],[109.115873,34.177472],[109.115978,34.177481],[109.115996,34.177487],[109.115996,34.177488],[109.116082,34.177512],[109.116211,34.177539],[109.116426,34.177577],[109.116426,34.177575],[109.11645,34.177579],[109.11671,34.177586],[109.117,34.177614],[109.117166,34.177648],[109.117665,34.176975],[109.118418,34.177235],[109.117957,34.178052],[109.117928,34.178149],[109.118579,34.178713],[109.119156,34.179299],[109.119295,34.179372],[109.119435,34.178773],[109.120033,34.178875],[109.119942,34.179589],[109.119896,34.179749],[109.11984,34.17982],[109.11984,34.17982],[109.1197,34.179998],[109.119674,34.180035],[109.119456,34.180166],[109.119451,34.180175],[109.119453,34.180175],[109.119381,34.180361],[109.119352,34.181143],[109.119422,34.181713],[109.119491,34.181833],[109.119591,34.181868],[109.12032,34.180843],[109.120508,34.180268],[109.121066,34.180313],[109.121192,34.179998],[109.121221,34.179931],[109.121288,34.179543],[109.1219,34.179552],[109.122061,34.17982],[109.122061,34.17982],[109.122168,34.179998],[109.122168,34.179998],[109.122275,34.180175],[109.122275,34.180175],[109.122297,34.180211],[109.122836,34.180195],[109.123152,34.179998],[109.123225,34.179953],[109.123579,34.179984],[109.123684,34.179998],[109.123826,34.180015],[109.124241,34.180175],[109.124241,34.180175],[109.124282,34.180191],[109.124504,34.180284],[109.124628,34.180322],[109.124716,34.180339],[109.124829,34.180339],[109.125092,34.180251],[109.125204,34.180244],[109.125336,34.180302],[109.125448,34.180386],[109.125593,34.180588],[109.125628,34.180621],[109.125695,34.180648],[109.126205,34.180697],[109.126588,34.180681],[109.126908,34.180646],[109.126983,34.180658],[109.126983,34.180659],[109.127052,34.180688],[109.127103,34.180714],[109.127197,34.180741],[109.127237,34.18075],[109.127339,34.180739],[109.127412,34.180725],[109.127412,34.180724],[109.127495,34.180708],[109.128042,34.180557],[109.128115,34.180521],[109.128198,34.180515],[109.12827,34.180526],[109.128335,34.180568],[109.128474,34.180703],[109.128533,34.180723],[109.128622,34.180721],[109.128713,34.180692],[109.128769,34.180654],[109.128836,34.180654],[109.12889,34.180665],[109.12897,34.180794],[109.129037,34.180834],[109.129496,34.18104],[109.129804,34.181118],[109.129979,34.181118],[109.130086,34.181074],[109.130268,34.180972],[109.130432,34.180854],[109.130518,34.180823],[109.130588,34.180825],[109.130671,34.180854],[109.130703,34.180898],[109.130708,34.180992],[109.130628,34.181169],[109.130593,34.181218],[109.130601,34.181258],[109.130633,34.181311],[109.130671,34.181329],[109.130757,34.181316],[109.130802,34.181273],[109.130872,34.181229],[109.130947,34.181222],[109.130998,34.181207],[109.131046,34.181145],[109.13107,34.181067],[109.131119,34.181023],[109.131196,34.181021],[109.13128,34.181034],[109.131341,34.181111],[109.131419,34.181187],[109.131564,34.181258],[109.131816,34.181449],[109.13191,34.181486],[109.131998,34.18146],[109.132036,34.181433],[109.132039,34.181384],[109.132015,34.181278],[109.1321,34.180921],[109.13221,34.180807],[109.132291,34.180756],[109.132546,34.180674],[109.132843,34.180679],[109.132892,34.180672],[109.132943,34.180652],[109.133061,34.180559],[109.133192,34.180475],[109.133433,34.180271],[109.133777,34.179998],[109.13401,34.17982],[109.13401,34.17982],[109.134214,34.179665],[109.134437,34.179505],[109.134595,34.17941],[109.134675,34.179365],[109.134941,34.179243],[109.135244,34.179092],[109.135791,34.179106],[109.135957,34.179117],[109.136097,34.179132],[109.136167,34.17913],[109.136234,34.179108],[109.136695,34.179363],[109.137073,34.179394],[109.137569,34.179268],[109.137875,34.17893],[109.137969,34.178815],[109.137969,34.178815],[109.138184,34.178551],[109.138398,34.178285],[109.138398,34.178284],[109.138433,34.17824],[109.138599,34.178227],[109.139898,34.178986],[109.140345,34.179008],[109.140689,34.178946],[109.141067,34.178538],[109.141442,34.177845],[109.141614,34.17727],[109.141735,34.176769],[109.141861,34.176769],[109.142041,34.176747],[109.142456,34.176804],[109.143092,34.177011],[109.144886,34.177856],[109.145557,34.177415],[109.146407,34.177521],[109.147292,34.177799],[109.148794,34.178546],[109.14892,34.178624],[109.148955,34.178629],[109.148955,34.178631],[109.14917,34.17866],[109.149213,34.178664],[109.149358,34.178586],[109.149384,34.178562],[109.149384,34.17856],[109.150546,34.177406],[109.1509,34.177157],[109.151611,34.176871],[109.153322,34.176594],[109.154693,34.176429],[109.155851,34.176447],[109.156195,34.17631],[109.156777,34.175742],[109.156889,34.175438],[109.157074,34.175187],[109.157461,34.174934],[109.157925,34.174623],[109.158306,34.174448],[109.158507,34.174106],[109.158356,34.173527],[109.158314,34.173378],[109.158381,34.173172],[109.158625,34.172997],[109.158855,34.172855],[109.159,34.172602],[109.159116,34.172058],[109.15918,34.171729],[109.159445,34.171488],[109.159791,34.171454],[109.159942,34.171522],[109.159942,34.171523],[109.160156,34.171618],[109.160371,34.171714],[109.160371,34.171713],[109.160591,34.171809],[109.161285,34.171479],[109.161637,34.171519],[109.161739,34.171827],[109.162455,34.171621],[109.163085,34.17163],[109.162879,34.170999],[109.162501,34.171086],[109.162501,34.171086],[109.162289,34.171135],[109.162243,34.171086],[109.162243,34.171086],[109.162077,34.170908],[109.161913,34.170731],[109.161912,34.170731],[109.161454,34.170236],[109.163125,34.168159],[109.16434,34.166923],[109.165156,34.165618],[109.164394,34.164908],[109.16474,34.164168],[109.165762,34.162899],[109.166859,34.162078],[109.16706,34.162262],[109.167457,34.162784],[109.167648,34.162846],[109.167964,34.162821],[109.168495,34.162424],[109.168616,34.162104],[109.169219,34.161831],[109.16926,34.161818],[109.170172,34.161534],[109.170459,34.161305],[109.170636,34.160968],[109.170928,34.159962],[109.170928,34.159963],[109.170941,34.159916],[109.171143,34.159727],[109.17224,34.15919],[109.172213,34.158833],[109.171902,34.157515],[109.171196,34.15747],[109.171142,34.157288],[109.1707,34.155783],[109.170113,34.154154],[109.168758,34.154456],[109.168198,34.153737],[109.167824,34.152905],[109.167825,34.152905],[109.167744,34.152727],[109.16761,34.152421],[109.168334,34.151582],[109.167559,34.151278],[109.167492,34.151042],[109.167683,34.150705],[109.168589,34.149617],[109.168801,34.149291],[109.167578,34.147104],[109.166805,34.147262],[109.165585,34.147677],[109.164467,34.145844],[109.163501,34.143988],[109.163337,34.143968],[109.162863,34.144085],[109.162731,34.144081],[109.162624,34.144228],[109.162498,34.144378],[109.162358,34.144518],[109.162334,34.144538],[109.161916,34.143635],[109.161835,34.143457],[109.161835,34.143457],[109.161618,34.142982],[109.160776,34.143122],[109.160218,34.141548],[109.160156,34.141337],[109.160132,34.141253],[109.160156,34.141217],[109.160242,34.141084],[109.160371,34.140955],[109.160371,34.140954],[109.160588,34.140733],[109.161741,34.139894],[109.162895,34.139326],[109.16389,34.138964],[109.164104,34.13953],[109.166776,34.139166],[109.169359,34.138735],[109.170928,34.137945],[109.170928,34.137947],[109.171057,34.137881],[109.17089,34.137024],[109.170928,34.136987],[109.170928,34.136988],[109.171143,34.136775],[109.171357,34.136564],[109.171357,34.136563],[109.171446,34.136475],[109.17147,34.135994],[109.171354,34.135523],[109.171143,34.13519],[109.171027,34.135006],[109.170861,34.134699],[109.170748,34.134542],[109.170633,34.134375],[109.170445,34.133882],[109.17041,34.133429],[109.170311,34.132879],[109.170244,34.13233],[109.170585,34.131591]]]}}]}