{"type":"FeatureCollection","features":[{"type":"Feature","properties":{"FID":1,"NAME":"青年路街道","code":"610104001000","PAC":"610104","省":"陕西省","省代码":"610000","市":"西安市","市代码":"610100","类型":"乡镇","grade":4,"layer":"乡镇"},"geometry":{"type":"Polygon","coordinates":[[[108.94256642,34.27509198],[108.94256942,34.27560597],[108.94257442,34.27655995],[108.94269942,34.27663595],[108.94300142,34.27679895],[108.94317042,34.27717894],[108.94098442,34.27715494],[108.94097742,34.27800293],[108.93978242,34.27801593],[108.93879842,34.27802593],[108.93872342,34.27813193],[108.93864842,34.27822092],[108.93784242,34.27819892],[108.93416842,34.27809693],[108.92837642,34.27793493],[108.92606842,34.27787093],[108.92296942,34.27778393],[108.91983542,34.27769693],[108.91956042,34.27765893],[108.91942842,34.27755294],[108.91947142,34.27496998],[108.91951142,34.27252002],[108.91951542,34.27227103],[108.91951642,34.27221003],[108.91952942,34.27140704],[108.91953242,34.27122105],[108.91953442,34.27111205],[108.91955442,34.26993307],[108.91955942,34.26962508],[108.92085842,34.26955808],[108.92088142,34.26955708],[108.92131542,34.26956008],[108.92147042,34.26956008],[108.92165342,34.26956608],[108.92229642,34.26958708],[108.92296842,34.26960908],[108.92593342,34.26983007],[108.92791442,34.26986207],[108.92792142,34.26926708],[108.92846742,34.26928708],[108.92846742,34.26868809],[108.92894542,34.2684551],[108.92949742,34.2684771],[108.92949842,34.26859609],[108.92999242,34.26860009],[108.92998642,34.2684781],[108.93029742,34.2684641],[108.93060842,34.2684631],[108.93170742,34.2684591],[108.93197142,34.2684031],[108.93198842,34.2682351],[108.93312142,34.2682361],[108.93344942,34.2682251],[108.93344242,34.26780911],[108.93371742,34.26781311],[108.93372442,34.2682211],[108.93381142,34.2682161],[108.93381242,34.2683261],[108.93381942,34.26900009],[108.93407542,34.26928108],[108.93793042,34.26939908],[108.93793142,34.26848709],[108.93814042,34.26848409],[108.93832542,34.26848209],[108.93839042,34.26851809],[108.93872842,34.26862909],[108.93874642,34.26948308],[108.94141942,34.26949808],[108.94141342,34.26862509],[108.94196042,34.26864609],[108.94199342,34.26864709],[108.94210042,34.26860609],[108.94253142,34.2684391],[108.94253742,34.26957208],[108.94254742,34.27141604],[108.94255042,34.27193103],[108.94255342,34.27254902],[108.94255742,34.27333101],[108.94256042,34.273847],[108.94256642,34.27509198]]]}}]}