{
  "type": "Feature",
  "geometry": {
    "type": "MultiPolygon",
    "coordinates": [
      [
        [
          [
            108.98512734874951,
            34.17118544874603
          ],
          [
            108.98388744995464,
            34.17098735424151
          ],
          [
            108.98180842114414,
            34.17057034735895
          ],
          [
            108.98154664237629,
            34.171308075733506
          ],
          [
            108.98138066168278,
            34.17211000524805
          ],
          [
            108.98030252504113,
            34.171822407319446
          ],
          [
            108.97974844175026,
            34.17371730423127
          ],
          [
            108.9796388596216,
            34.17409250030228
          ],
          [
            108.9791861834588,
            34.1756400076413
          ],
          [
            108.9790778211582,
            34.17569889875286
          ],
          [
            108.97760324473366,
            34.17538039426615
          ],
          [
            108.97702255100364,
            34.17711168662334
          ],
          [
            108.97670380212168,
            34.17753584997822
          ],
          [
            108.97621613012372,
            34.17796158496961
          ],
          [
            108.97481087005198,
            34.17778006603148
          ],
          [
            108.974923200265,
            34.176829755971156
          ],
          [
            108.97346383374544,
            34.176348144073124
          ],
          [
            108.97295243424722,
            34.17777249502769
          ],
          [
            108.972238836832,
            34.177784140189935
          ],
          [
            108.97218276017249,
            34.178959018308845
          ],
          [
            108.97106682190488,
            34.17887536853627
          ],
          [
            108.97085361559635,
            34.18051461852065
          ],
          [
            108.9674972837509,
            34.18043564327572
          ],
          [
            108.96752283555992,
            34.179843666192305
          ],
          [
            108.9642920212812,
            34.179444591328135
          ],
          [
            108.96188301874255,
            34.17898443838505
          ],
          [
            108.96174350479195,
            34.179168921831085
          ],
          [
            108.96139047130328,
            34.17914919193027
          ],
          [
            108.96134997393418,
            34.17966642543402
          ],
          [
            108.95972772925762,
            34.179625258124744
          ],
          [
            108.9597207472617,
            34.179705549136834
          ],
          [
            108.95950440843175,
            34.18214188375599
          ],
          [
            108.95939269900252,
            34.18215454588251
          ],
          [
            108.95811891987547,
            34.182291309873364
          ],
          [
            108.95785864000882,
            34.184476012402584
          ],
          [
            108.95734907441108,
            34.18590303396442
          ],
          [
            108.95835828444488,
            34.186064226877406
          ],
          [
            108.9583672263024,
            34.18639769730393
          ],
          [
            108.95950116690275,
            34.18647228888726
          ],
          [
            108.95937477616832,
            34.18811375410449
          ],
          [
            108.96345335520527,
            34.18848757247752
          ],
          [
            108.97054595236608,
            34.18851515272528
          ],
          [
            108.97052437763736,
            34.1965415528418
          ],
          [
            108.9704914498583,
            34.197215415448525
          ],
          [
            108.97047050763818,
            34.19749937638084
          ],
          [
            108.97032099796856,
            34.19857341627132
          ],
          [
            108.97025619974627,
            34.199167389768284
          ],
          [
            108.9738501336487,
            34.19913063140283
          ],
          [
            108.97721066050224,
            34.19934817581044
          ],
          [
            108.97738895562968,
            34.19914873918951
          ],
          [
            108.97750648966176,
            34.199028447258335
          ],
          [
            108.97793377980224,
            34.19875232945913
          ],
          [
            108.97815887974431,
            34.19857874870938
          ],
          [
            108.97864991951889,
            34.198115507075485
          ],
          [
            108.979242563926,
            34.19735007193003
          ],
          [
            108.97977740357187,
            34.19700265617922
          ],
          [
            108.98045563278713,
            34.196840760617505
          ],
          [
            108.9805085127553,
            34.195660003203784
          ],
          [
            108.98019281156594,
            34.19564291770102
          ],
          [
            108.97935923694256,
            34.19553034703053
          ],
          [
            108.9786162859254,
            34.195332534920716
          ],
          [
            108.97860550457447,
            34.19321227102393
          ],
          [
            108.98097778323064,
            34.19320546635505
          ],
          [
            108.98093882950376,
            34.19459011867359
          ],
          [
            108.98090786847362,
            34.195663850041775
          ],
          [
            108.98182607443307,
            34.19569718111829
          ],
          [
            108.9828079930786,
            34.19581828455877
          ],
          [
            108.9828876611984,
            34.195828048957964
          ],
          [
            108.982914299611,
            34.19886395284278
          ],
          [
            108.98467492721406,
            34.19919968242312
          ],
          [
            108.9854925001654,
            34.19919727477743
          ],
          [
            108.98645942961016,
            34.199252397437576
          ],
          [
            108.98647531716097,
            34.19980216486519
          ],
          [
            108.98712755167216,
            34.199987167946354
          ],
          [
            108.98785945655844,
            34.200015982094214
          ],
          [
            108.98866004268054,
            34.20029750044472
          ],
          [
            108.98907126959054,
            34.20064215563398
          ],
          [
            108.988724704924,
            34.20106404795413
          ],
          [
            108.9886928451555,
            34.201002164030506
          ],
          [
            108.98835628146864,
            34.20088320846372
          ],
          [
            108.98777972434576,
            34.2008539359745
          ],
          [
            108.98748200777266,
            34.20055392313618
          ],
          [
            108.9865200778676,
            34.20041482520364
          ],
          [
            108.98540477215384,
            34.20036014094587
          ],
          [
            108.98474753148544,
            34.200309094293125
          ],
          [
            108.98352462528418,
            34.20048562234595
          ],
          [
            108.98333241239617,
            34.2006501287853
          ],
          [
            108.9831133213745,
            34.20068575681529
          ],
          [
            108.98289124475596,
            34.20068740438865
          ],
          [
            108.98291198726912,
            34.20275964047804
          ],
          [
            108.98232940529408,
            34.2027703339572
          ],
          [
            108.982105328491,
            34.2028379623888
          ],
          [
            108.98197685256883,
            34.20293530242726
          ],
          [
            108.98167308229218,
            34.20326507145941
          ],
          [
            108.98151271584122,
            34.203620415023266
          ],
          [
            108.98143801898242,
            34.20368660877628
          ],
          [
            108.98117708541164,
            34.20381731921926
          ],
          [
            108.98102171406018,
            34.20396471798754
          ],
          [
            108.9809470142985,
            34.20405790194455
          ],
          [
            108.9808832663388,
            34.20418704190266
          ],
          [
            108.9808723042403,
            34.204275043475995
          ],
          [
            108.98087229256971,
            34.204416994982914
          ],
          [
            108.98092604977543,
            34.204674751604166
          ],
          [
            108.98093698605472,
            34.2049006427076
          ],
          [
            108.98093099720036,
            34.20506460385534
          ],
          [
            108.98087222764067,
            34.20520672485724
          ],
          [
            108.9807815895965,
            34.20534493909015
          ],
          [
            108.98065908265548,
            34.20548224539173
          ],
          [
            108.9803702545295,
            34.20567801043807
          ],
          [
            108.97991609938026,
            34.20591923348047
          ],
          [
            108.97991105679525,
            34.20668598445268
          ],
          [
            108.97894002939574,
            34.2066907632719
          ],
          [
            108.97785544263128,
            34.206702845582996
          ],
          [
            108.9777916964907,
            34.206761006328584
          ],
          [
            108.97767914748128,
            34.206827302476114
          ],
          [
            108.97759946788854,
            34.206858517404484
          ],
          [
            108.97751879399472,
            34.20686774259931
          ],
          [
            108.97741720496126,
            34.2068730281872
          ],
          [
            108.97731063412373,
            34.20689932043508
          ],
          [
            108.97729467119774,
            34.20723325054944
          ],
          [
            108.9771980520898,
            34.20735348207209
          ],
          [
            108.9770536259453,
            34.20747384826959
          ],
          [
            108.97689326406812,
            34.20758926069077
          ],
          [
            108.9766850943794,
            34.207704807151345
          ],
          [
            108.9766213462431,
            34.207766965091444
          ],
          [
            108.97655759538988,
            34.20786111191916
          ],
          [
            108.97648785555528,
            34.20811322095441
          ],
          [
            108.97644500218117,
            34.208428232553025
          ],
          [
            108.97641312499783,
            34.20849529893489
          ],
          [
            108.97613521179495,
            34.20887294833925
          ],
          [
            108.97610830822369,
            34.20901497461175
          ],
          [
            108.97612422557522,
            34.209241851415726
          ],
          [
            108.97603356783232,
            34.20950901294593
          ],
          [
            108.9758144292701,
            34.209730549705725
          ],
          [
            108.97572376291868,
            34.210094676927675
          ],
          [
            108.97565897038513,
            34.2107296373947
          ],
          [
            108.97593386727009,
            34.21073486655748
          ],
          [
            108.97581034328272,
            34.210974129050214
          ],
          [
            108.97569280219368,
            34.211125405105214
          ],
          [
            108.9751320066618,
            34.211609800903865
          ],
          [
            108.97483317858476,
            34.21186354354403
          ],
          [
            108.97470965853744,
            34.212014833771704
          ],
          [
            108.97462996433303,
            34.21215700529055
          ],
          [
            108.97452237221496,
            34.21240621660697
          ],
          [
            108.9744755450723,
            34.21257028904905
          ],
          [
            108.97394647823398,
            34.21461903407452
          ],
          [
            108.97367347054652,
            34.21570640403389
          ],
          [
            108.97367943165672,
            34.21589232205671
          ],
          [
            108.97373818119505,
            34.21610908372401
          ],
          [
            108.97385769249992,
            34.21629368907596
          ],
          [
            108.9755398204623,
            34.2183492925227
          ],
          [
            108.97772579039024,
            34.2209961992493
          ],
          [
            108.97897659976763,
            34.222211205555865
          ],
          [
            108.9793181771438,
            34.22253511279932
          ],
          [
            108.97949942273708,
            34.2226895383923
          ],
          [
            108.97962788645144,
            34.22281312583621
          ],
          [
            108.97991070592671,
            34.22306922230523
          ],
          [
            108.98001228329406,
            34.223139905117186
          ],
          [
            108.98011784483845,
            34.22320157954274
          ],
          [
            108.98130292451572,
            34.2236889858973
          ],
          [
            108.98136280286248,
            34.22337882429245
          ],
          [
            108.9826505679733,
            34.223388680891574
          ],
          [
            108.9826648918523,
            34.223589666791945
          ],
          [
            108.98333709413274,
            34.223608798093785
          ],
          [
            108.98326315575748,
            34.22416851244563
          ],
          [
            108.98455525473992,
            34.22425029604292
          ],
          [
            108.98457282843384,
            34.22367975007761
          ],
          [
            108.98499117638612,
            34.22367662036981
          ],
          [
            108.98498507805236,
            34.223965134354586
          ],
          [
            108.9846788920923,
            34.22479473596655
          ],
          [
            108.9865827947316,
            34.22477722122385
          ],
          [
            108.98644375606958,
            34.22507342608708
          ],
          [
            108.98683161787602,
            34.22511106282851
          ],
          [
            108.98679894110973,
            34.22528709607318
          ],
          [
            108.98843074223858,
            34.22527604641957
          ],
          [
            108.9885565754088,
            34.225678425371036
          ],
          [
            108.9899649919347,
            34.22568751056002
          ],
          [
            108.98997324335114,
            34.225849627102875
          ],
          [
            108.99040948569862,
            34.22585261804434
          ],
          [
            108.99039228403136,
            34.22675434249426
          ],
          [
            108.9925970521835,
            34.22696733300125
          ],
          [
            108.99423820650964,
            34.227126218496686
          ],
          [
            108.99652010795924,
            34.22825699387267
          ],
          [
            108.99757856797594,
            34.2280758476253
          ],
          [
            108.99840102217507,
            34.22812633152774
          ],
          [
            108.99930908999876,
            34.22837148336676
          ],
          [
            108.99988751084432,
            34.22941234550121
          ],
          [
            109.0008175128137,
            34.22930355940836
          ],
          [
            109.00180735511442,
            34.228029017713745
          ],
          [
            109.00222356790135,
            34.22796377744554
          ],
          [
            109.00315356682025,
            34.227925968027684
          ],
          [
            109.00396508167964,
            34.227843536360744
          ],
          [
            109.00456351788095,
            34.22772676491777
          ],
          [
            109.0046949608065,
            34.22763140139126
          ],
          [
            109.0050046321877,
            34.22760347356413
          ],
          [
            109.00530334364488,
            34.22766454690315
          ],
          [
            109.00549651764828,
            34.227619978457206
          ],
          [
            109.00560307198931,
            34.227477707816675
          ],
          [
            109.005773340944,
            34.22747719288045
          ],
          [
            109.00588086820422,
            34.227609819362605
          ],
          [
            109.00598231627524,
            34.22780614106465
          ],
          [
            109.00638368814644,
            34.22787620222481
          ],
          [
            109.00673467774044,
            34.22793761952745
          ],
          [
            109.00674004432504,
            34.2280615581464
          ],
          [
            109.00751431892176,
            34.22815428780717
          ],
          [
            109.00788497590094,
            34.22882492580577
          ],
          [
            109.00824621092283,
            34.22905865242267
          ],
          [
            109.0083429803298,
            34.22925848805329
          ],
          [
            109.00831503031318,
            34.23008566931553
          ],
          [
            109.01103968376748,
            34.2304350679273
          ],
          [
            109.01107527992768,
            34.22987156815256
          ],
          [
            109.0126987879383,
            34.22995969745095
          ],
          [
            109.01304269084012,
            34.22809515747461
          ],
          [
            109.01184538720295,
            34.227772836519236
          ],
          [
            109.01197397343016,
            34.226212020673486
          ],
          [
            109.01609261483488,
            34.22631680462375
          ],
          [
            109.01603580688236,
            34.226856775136326
          ],
          [
            109.0160516906344,
            34.22744651409471
          ],
          [
            109.0161194315208,
            34.22715941992626
          ],
          [
            109.01692606513396,
            34.227135068483925
          ],
          [
            109.01689915259678,
            34.22742804051109
          ],
          [
            109.01739309309,
            34.2274505912217
          ],
          [
            109.01757493408752,
            34.22748075058945
          ],
          [
            109.01774512539389,
            34.227495150056264
          ],
          [
            109.01770027974088,
            34.22787404253977
          ],
          [
            109.02104714852432,
            34.228152688866324
          ],
          [
            109.02110307825126,
            34.22746058125363
          ],
          [
            109.02147665326562,
            34.22743472501235
          ],
          [
            109.02162696852729,
            34.22709322113923
          ],
          [
            109.02184100503118,
            34.22698115298445
          ],
          [
            109.02184147853085,
            34.22609087485613
          ],
          [
            109.0192966299932,
            34.22595421445797
          ],
          [
            109.01937086012369,
            34.22552335639616
          ],
          [
            109.02156325206934,
            34.22563563149273
          ],
          [
            109.0214605378682,
            34.22367123364671
          ],
          [
            109.02073461063938,
            34.223642317219266
          ],
          [
            109.0211409858067,
            34.22317832258268
          ],
          [
            109.02148262395735,
            34.2227704948037
          ],
          [
            109.02176250735474,
            34.222468806408536
          ],
          [
            109.0218043530848,
            34.22227575670176
          ],
          [
            109.02197567148993,
            34.22208033991717
          ],
          [
            109.02216790389696,
            34.22190285784944
          ],
          [
            109.02240296759574,
            34.22167127444901
          ],
          [
            109.02255238021472,
            34.2214399342494
          ],
          [
            109.02268087067762,
            34.2212976217027
          ],
          [
            109.02274462852816,
            34.22110251126453
          ],
          [
            109.0213317163913,
            34.220693069428314
          ],
          [
            109.02240405913012,
            34.22053867654015
          ],
          [
            109.02283136691509,
            34.22003864620136
          ],
          [
            109.02370385118424,
            34.21988124466894
          ],
          [
            109.0238771837992,
            34.21950789118951
          ],
          [
            109.02413317223989,
            34.21927725582957
          ],
          [
            109.0243473259494,
            34.21909872011594
          ],
          [
            109.02341609788452,
            34.218882409310794
          ],
          [
            109.0231810689918,
            34.21863915769422
          ],
          [
            109.02321394233614,
            34.21856409172353
          ],
          [
            109.02324582049324,
            34.218480031766205
          ],
          [
            109.0233633498112,
            34.218425720072084
          ],
          [
            109.0232986188154,
            34.21833993279915
          ],
          [
            109.02340888287264,
            34.21822386358377
          ],
          [
            109.02322283773408,
            34.218193798154125
          ],
          [
            109.02312831671787,
            34.21823544978775
          ],
          [
            109.02287236101874,
            34.218147203385804
          ],
          [
            109.02251979630007,
            34.21809122012986
          ],
          [
            109.02258951887484,
            34.21802404664165
          ],
          [
            109.0225835487866,
            34.21795708728722
          ],
          [
            109.02261044628912,
            34.21787803922141
          ],
          [
            109.0225945173871,
            34.21780211121146
          ],
          [
            109.02258356886416,
            34.21771917159356
          ],
          [
            109.02260946793793,
            34.21766941595262
          ],
          [
            109.02341829242948,
            34.21766253620357
          ],
          [
            109.0238313324891,
            34.217575706284485
          ],
          [
            109.02394584211788,
            34.21673638214693
          ],
          [
            109.02348650609116,
            34.21660931704576
          ],
          [
            109.02393452699658,
            34.21509369333437
          ],
          [
            109.02366484031596,
            34.21478935735451
          ],
          [
            109.02371370165254,
            34.21409936253612
          ],
          [
            109.02381659019916,
            34.21405778827579
          ],
          [
            109.02406009411747,
            34.214233943624855
          ],
          [
            109.02410561949192,
            34.214131851938696
          ],
          [
            109.0236729046438,
            34.213646635945224
          ],
          [
            109.02340221290628,
            34.213468659451536
          ],
          [
            109.02328599738485,
            34.2132959471571
          ],
          [
            109.02330682159143,
            34.213196623293065
          ],
          [
            109.02339825373149,
            34.21317577318643
          ],
          [
            109.02367432773016,
            34.21330655112241
          ],
          [
            109.0243250712197,
            34.21372448068294
          ],
          [
            109.02445125462772,
            34.2138363887096
          ],
          [
            109.02443260356917,
            34.214142833290005
          ],
          [
            109.0246050915341,
            34.21437127135129
          ],
          [
            109.02484560923322,
            34.214579127590795
          ],
          [
            109.02515286710572,
            34.21471812357059
          ],
          [
            109.02517732683174,
            34.21403959393384
          ],
          [
            109.02528710037976,
            34.21389244056437
          ],
          [
            109.02578583090896,
            34.21364474481375
          ],
          [
            109.02673252462004,
            34.21299706142104
          ],
          [
            109.02709000650536,
            34.213041365203665
          ],
          [
            109.02721341205212,
            34.21312349854407
          ],
          [
            109.02730445541354,
            34.21309116078254
          ],
          [
            109.02736086885302,
            34.2126671548774
          ],
          [
            109.02706892141406,
            34.2126695530464
          ],
          [
            109.0270115580872,
            34.212552851056834
          ],
          [
            109.02783639230914,
            34.211533953080625
          ],
          [
            109.02798237057534,
            34.21092216887981
          ],
          [
            109.0281947625204,
            34.21062029670797
          ],
          [
            109.0277042266284,
            34.21018738172991
          ],
          [
            109.02789250119515,
            34.21001013041683
          ],
          [
            109.0272266503374,
            34.20970255443484
          ],
          [
            109.0271649046519,
            34.20957906627398
          ],
          [
            109.02850999137372,
            34.209867503431006
          ],
          [
            109.02875880212,
            34.210059063850785
          ],
          [
            109.02918815102724,
            34.20977830314664
          ],
          [
            109.02893993598605,
            34.209575342572485
          ],
          [
            109.02874850746304,
            34.20929295738949
          ],
          [
            109.0256381045334,
            34.20911163335601
          ],
          [
            109.02533485355362,
            34.20865893104199
          ],
          [
            109.0252596268024,
            34.20780323558946
          ],
          [
            109.02564334234684,
            34.20724116497154
          ],
          [
            109.02604789952032,
            34.2064329241913
          ],
          [
            109.0264376828466,
            34.206055878888144
          ],
          [
            109.02682852874364,
            34.20611578374302
          ],
          [
            109.02674347707593,
            34.20715725903512
          ],
          [
            109.02813369214468,
            34.207206944020136
          ],
          [
            109.02861643377256,
            34.20682186786376
          ],
          [
            109.0301627204137,
            34.20681341475242
          ],
          [
            109.0304090486258,
            34.2070481770644
          ],
          [
            109.03077018805594,
            34.20667544497918
          ],
          [
            109.03073074412995,
            34.206626166671896
          ],
          [
            109.03101717722063,
            34.206215048274956
          ],
          [
            109.03151662238812,
            34.20550167323715
          ],
          [
            109.03152450219964,
            34.205384492642324
          ],
          [
            109.0316809032744,
            34.20539197804189
          ],
          [
            109.03172466824998,
            34.20501299272033
          ],
          [
            109.02937285352353,
            34.20482101461667
          ],
          [
            109.02954283097898,
            34.20437131186672
          ],
          [
            109.03071369422904,
            34.204458355484874
          ],
          [
            109.03081346176369,
            34.203851298023515
          ],
          [
            109.02972577202108,
            34.20376792733227
          ],
          [
            109.02982411653488,
            34.203462867976405
          ],
          [
            109.03094617991071,
            34.20351436100339
          ],
          [
            109.032681919097,
            34.20389406796615
          ],
          [
            109.0327587354018,
            34.20380549800459
          ],
          [
            109.03271213238874,
            34.20356690087051
          ],
          [
            109.03305205477466,
            34.20345595421361
          ],
          [
            109.03323247190728,
            34.20347008115061
          ],
          [
            109.03345916595362,
            34.2028935904721
          ],
          [
            109.03308081517318,
            34.202644356011476
          ],
          [
            109.03333161988238,
            34.20203621229054
          ],
          [
            109.03222484806648,
            34.20163533123468
          ],
          [
            109.03226076857376,
            34.20096326506095
          ],
          [
            109.03266042112536,
            34.20013050261845
          ],
          [
            109.03342780432548,
            34.20030904869182
          ],
          [
            109.0334346637072,
            34.20048237231442
          ],
          [
            109.03372835239573,
            34.20054999057834
          ],
          [
            109.03388231952536,
            34.200014474734516
          ],
          [
            109.0347119130971,
            34.200043337146234
          ],
          [
            109.03491843303225,
            34.20017016744782
          ],
          [
            109.03475310882736,
            34.20063823077111
          ],
          [
            109.0366729895296,
            34.20093048157846
          ],
          [
            109.03671755442014,
            34.200601181711335
          ],
          [
            109.03798583162116,
            34.20067860996983
          ],
          [
            109.0388901570186,
            34.20088252659952
          ],
          [
            109.03938632790752,
            34.20034870264849
          ],
          [
            109.03957496163773,
            34.20027717080075
          ],
          [
            109.04075376865192,
            34.20051756407754
          ],
          [
            109.04197650103976,
            34.19928109639785
          ],
          [
            109.04261578842892,
            34.19929160302746
          ],
          [
            109.04269179726104,
            34.19963331146531
          ],
          [
            109.04284895073867,
            34.19969972518478
          ],
          [
            109.04293541719824,
            34.200124681769466
          ],
          [
            109.0435767499368,
            34.20096792157568
          ],
          [
            109.04364708408627,
            34.2012726573622
          ],
          [
            109.04416809344757,
            34.20034648389713
          ],
          [
            109.04438775568106,
            34.1991178009419
          ],
          [
            109.04438998687333,
            34.1986656482174
          ],
          [
            109.0446907257199,
            34.198047577177746
          ],
          [
            109.04490920974344,
            34.19783175832144
          ],
          [
            109.04555327586677,
            34.19759739777548
          ],
          [
            109.04596453067953,
            34.197347769844455
          ],
          [
            109.04630294072872,
            34.19700483892012
          ],
          [
            109.04650819348466,
            34.196662203194656
          ],
          [
            109.04659285101393,
            34.19624115871058
          ],
          [
            109.04648204727096,
            34.19587262462714
          ],
          [
            109.046192541595,
            34.19541571333213
          ],
          [
            109.04610465746126,
            34.1951213052193
          ],
          [
            109.04617714886284,
            34.19475786659222
          ],
          [
            109.04673408201958,
            34.193965908679886
          ],
          [
            109.04909792706694,
            34.19176997169268
          ],
          [
            109.04934128122328,
            34.19144866757819
          ],
          [
            109.0499689930424,
            34.19034182612843
          ],
          [
            109.04998201230173,
            34.189640429880036
          ],
          [
            109.04878522741296,
            34.18940620915634
          ],
          [
            109.04869844280788,
            34.188965437256115
          ],
          [
            109.04859438672624,
            34.18884099836249
          ],
          [
            109.0482354979497,
            34.18932660176121
          ],
          [
            109.04769794400846,
            34.18922088735617
          ],
          [
            109.0477091480086,
            34.188750617525
          ],
          [
            109.04671121133842,
            34.18866710769286
          ],
          [
            109.04668425597134,
            34.18917919863951
          ],
          [
            109.04503015796809,
            34.18902990897189
          ],
          [
            109.04420959937374,
            34.18929397265737
          ],
          [
            109.0443578809428,
            34.18832415460528
          ],
          [
            109.043505130507,
            34.18769460284374
          ],
          [
            109.04349339240385,
            34.187439413134
          ],
          [
            109.04347070956042,
            34.186975116704005
          ],
          [
            109.04035718335498,
            34.18511161602963
          ],
          [
            109.03991582372832,
            34.18302784884482
          ],
          [
            109.03511111270424,
            34.182616172943085
          ],
          [
            109.03543935693185,
            34.181892272914475
          ],
          [
            109.03488382021688,
            34.18188348767121
          ],
          [
            109.03449352817172,
            34.18243650652281
          ],
          [
            109.03319909355186,
            34.18238205963807
          ],
          [
            109.03376839787782,
            34.181810371266565
          ],
          [
            109.03108500756127,
            34.18163164184031
          ],
          [
            109.0312648344339,
            34.18025710744987
          ],
          [
            109.03002760805552,
            34.18016952392188
          ],
          [
            109.02966561545576,
            34.17776106209837
          ],
          [
            109.02905777614488,
            34.17779768457746
          ],
          [
            109.02903193766228,
            34.178259307189755
          ],
          [
            109.02833994259764,
            34.17824848180357
          ],
          [
            109.0274828110258,
            34.178234418933535
          ],
          [
            109.02744791621404,
            34.178615292793445
          ],
          [
            109.0269180099536,
            34.178593950214456
          ],
          [
            109.02695684116276,
            34.17759456210252
          ],
          [
            109.02564764366224,
            34.17753928821509
          ],
          [
            109.0253013389323,
            34.17620307302017
          ],
          [
            109.0241497542808,
            34.17621767970552
          ],
          [
            109.02394358388352,
            34.176220256574695
          ],
          [
            109.02335794580944,
            34.176226899872724
          ],
          [
            109.02297778080856,
            34.1774414857995
          ],
          [
            109.02144322246026,
            34.17741634616718
          ],
          [
            109.02148287171204,
            34.17965082047602
          ],
          [
            109.0203513050358,
            34.17963256136034
          ],
          [
            109.0203843331777,
            34.178878607573964
          ],
          [
            109.02093477539734,
            34.1789001246287
          ],
          [
            109.02093152961488,
            34.178415788442145
          ],
          [
            109.02080217435254,
            34.178236815425855
          ],
          [
            109.01729506038764,
            34.17818006540024
          ],
          [
            109.0173287031306,
            34.1795708233285
          ],
          [
            109.0127453378643,
            34.17951763675689
          ],
          [
            109.01256728337204,
            34.17841711744611
          ],
          [
            109.01109671599458,
            34.178422898998335
          ],
          [
            109.01022133747064,
            34.178425816931856
          ],
          [
            109.01024108649897,
            34.178031883320145
          ],
          [
            109.00946429526256,
            34.178032912227735
          ],
          [
            109.00918037825028,
            34.178364359139835
          ],
          [
            109.00865605990552,
            34.179035021131256
          ],
          [
            109.00856732934211,
            34.17914855177076
          ],
          [
            109.00242086368203,
            34.17840968017812
          ],
          [
            109.00219438791048,
            34.17662063694013
          ],
          [
            108.99939236387682,
            34.1764802943653
          ],
          [
            108.99941762223264,
            34.174476651504015
          ],
          [
            108.99814121906998,
            34.17445013747203
          ],
          [
            108.99793890056996,
            34.175520313782506
          ],
          [
            108.9968839898473,
            34.17490581045754
          ],
          [
            108.99562511756052,
            34.174698393614804
          ],
          [
            108.99561583392116,
            34.17377911162047
          ],
          [
            108.9931345801436,
            34.173707939921286
          ],
          [
            108.99318301956956,
            34.173144870853854
          ],
          [
            108.99248192289384,
            34.173097800836956
          ],
          [
            108.99151015150812,
            34.172162421156344
          ],
          [
            108.99110012045216,
            34.17192232932544
          ],
          [
            108.99001069727332,
            34.17147024043593
          ],
          [
            108.98978565651583,
            34.1714415236079
          ],
          [
            108.98912855432832,
            34.1713579158391
          ],
          [
            108.986676119437,
            34.17143419336267
          ],
          [
            108.98512734874951,
            34.17118544874603
          ]
        ]
      ]
    ]
  },
  "properties": {
    "省名": "陕西省",
    "乡镇名": "曲江街道",
    "区县名": "雁塔区",
    "地级市�": "西安市"
  }
}