{"type":"FeatureCollection","features":[{"type":"Feature","properties":{"FID":2,"NAME":"三桥街道","code":"610112002000","PAC":"610112","省":"陕西省","省代码":"610000","市":"西安市","市代码":"610100","类型":"乡镇","grade":4,"layer":"乡镇"},"geometry":{"type":"Polygon","coordinates":[[[108.850747,34.258385],[108.850726,34.257968],[108.850189,34.258367],[108.849768,34.259101],[108.84964,34.259256],[108.849637,34.259214],[108.849658,34.257764],[108.849674,34.257285],[108.849672,34.257081],[108.849685,34.25703],[108.848594,34.25699],[108.848658,34.255654],[108.848653,34.254549],[108.848931,34.25453],[108.848918,34.254175],[108.844597,34.254164],[108.844216,34.25415],[108.844042,34.25462],[108.843444,34.256004],[108.843363,34.255988],[108.841553,34.255565],[108.841338,34.255514],[108.841338,34.255514],[108.840091,34.255221],[108.840094,34.255175],[108.838015,34.254789],[108.837111,34.254629],[108.836953,34.254596],[108.837197,34.252676],[108.83725,34.252262],[108.836336,34.252246],[108.836328,34.252499],[108.836328,34.252499],[108.836322,34.252676],[108.836322,34.252751],[108.836035,34.252749],[108.835563,34.252729],[108.835555,34.252676],[108.835534,34.252499],[108.835534,34.252499],[108.835413,34.25151],[108.835376,34.251235],[108.833053,34.250767],[108.832996,34.251029],[108.831516,34.250836],[108.831484,34.251002],[108.831403,34.251497],[108.83126,34.252499],[108.831258,34.252499],[108.831234,34.252676],[108.831234,34.252694],[108.830388,34.252575],[108.830067,34.252528],[108.829818,34.252492],[108.830105,34.251239],[108.83022,34.250836],[108.828574,34.250503],[108.828603,34.250342],[108.828402,34.250308],[108.826227,34.249883],[108.826492,34.248807],[108.825763,34.248683],[108.825784,34.248448],[108.825843,34.24824],[108.823306,34.247748],[108.823357,34.247457],[108.822345,34.247295],[108.821865,34.248852],[108.821412,34.24877],[108.821332,34.248739],[108.820865,34.249967],[108.820492,34.251193],[108.820098,34.252239],[108.81958,34.251827],[108.819366,34.251656],[108.819366,34.251657],[108.818472,34.250947],[108.816324,34.249251],[108.815162,34.249257],[108.815055,34.249253],[108.815061,34.249679],[108.81513,34.249683],[108.815117,34.250251],[108.814647,34.250248],[108.814615,34.250501],[108.814857,34.250519],[108.814736,34.251018],[108.813263,34.250991],[108.812389,34.250982],[108.811922,34.250965],[108.811091,34.250985],[108.811091,34.250902],[108.810962,34.250896],[108.810973,34.25053],[108.808594,34.250481],[108.807687,34.250461],[108.806346,34.250523],[108.8063,34.250532],[108.806083,34.25053],[108.806107,34.251838],[108.806059,34.251849],[108.80515,34.251257],[108.805134,34.251242],[108.805128,34.25178],[108.8051,34.252499],[108.805099,34.252499],[108.805091,34.252676],[108.805051,34.253796],[108.807596,34.253709],[108.807612,34.253769],[108.807548,34.254709],[108.807312,34.257356],[108.807416,34.257363],[108.807414,34.257407],[108.807336,34.257445],[108.807167,34.257549],[108.807178,34.258021],[108.807143,34.258471],[108.807207,34.258504],[108.807255,34.25903],[108.807215,34.259023],[108.807234,34.259214],[108.807271,34.259216],[108.807371,34.260267],[108.807344,34.260269],[108.807322,34.260679],[108.80732,34.260859],[108.807419,34.26087],[108.807432,34.261178],[108.807395,34.261185],[108.8074,34.261307],[108.807435,34.261307],[108.807446,34.261579],[108.807446,34.261579],[108.807451,34.261697],[108.807448,34.261757],[108.807443,34.261934],[108.807444,34.261934],[108.807432,34.262399],[108.8071,34.262419],[108.807089,34.262497],[108.807084,34.262497],[108.806968,34.263353],[108.805638,34.26333],[108.805936,34.265547],[108.805649,34.265618],[108.805724,34.266613],[108.808366,34.266631],[108.808336,34.267072],[108.807811,34.267394],[108.807427,34.267923],[108.807121,34.26818],[108.807419,34.268189],[108.807422,34.268453],[108.80762,34.268453],[108.80802,34.268424],[108.808379,34.268404],[108.808379,34.268407],[108.808489,34.268398],[108.808481,34.268453],[108.808594,34.268446],[108.808808,34.268433],[108.808808,34.268432],[108.808961,34.268422],[108.808964,34.268624],[108.810182,34.268653],[108.8103,34.268637],[108.81031,34.268786],[108.810179,34.268788],[108.810144,34.269573],[108.810418,34.269584],[108.810407,34.270047],[108.810123,34.270056],[108.810101,34.270506],[108.810112,34.270659],[108.810112,34.270659],[108.810125,34.270836],[108.810139,34.271013],[108.810141,34.271013],[108.810141,34.27102],[108.811045,34.271015],[108.811045,34.271359],[108.810965,34.271361],[108.810954,34.271847],[108.811043,34.271853],[108.811021,34.27313],[108.811,34.27313],[108.810994,34.273343],[108.811018,34.273343],[108.811013,34.273558],[108.811914,34.273562],[108.811963,34.274662],[108.812309,34.274684],[108.812317,34.275342],[108.812051,34.275346],[108.812048,34.275491],[108.811885,34.275497],[108.811861,34.276479],[108.811694,34.27649],[108.811697,34.276851],[108.811716,34.276978],[108.810552,34.276971],[108.810554,34.27704],[108.810471,34.277042],[108.810469,34.277173],[108.810557,34.277171],[108.810565,34.277516],[108.810627,34.277519],[108.810622,34.277625],[108.810565,34.277625],[108.810573,34.277937],[108.810882,34.277942],[108.81086,34.278219],[108.810579,34.27825],[108.810587,34.27858],[108.810359,34.278576],[108.810112,34.278576],[108.809822,34.278323],[108.809811,34.278232],[108.808594,34.278268],[108.808431,34.278273],[108.808339,34.278274],[108.808277,34.278509],[108.807867,34.278503],[108.807784,34.278095],[108.80776,34.278046],[108.807003,34.278026],[108.806995,34.278028],[108.806987,34.277869],[108.806783,34.277847],[108.806767,34.277357],[108.806719,34.277357],[108.806137,34.277257],[108.806131,34.276816],[108.806016,34.276814],[108.806003,34.276579],[108.805954,34.27651],[108.805544,34.276503],[108.805544,34.276594],[108.805389,34.276599],[108.805389,34.277386],[108.803962,34.277383],[108.803956,34.277572],[108.802945,34.277507],[108.802854,34.278006],[108.801896,34.278035],[108.801872,34.277647],[108.801121,34.277634],[108.801105,34.277368],[108.80066,34.277361],[108.800662,34.278649],[108.799273,34.278671],[108.799013,34.279356],[108.798974,34.279737],[108.798973,34.279737],[108.798957,34.279914],[108.798938,34.280092],[108.798939,34.280092],[108.798769,34.281825],[108.79904,34.281863],[108.800421,34.28196],[108.800046,34.282479],[108.799563,34.283305],[108.799024,34.284717],[108.801644,34.284974],[108.801481,34.285821],[108.800515,34.285725],[108.800499,34.286423],[108.799885,34.286417],[108.798439,34.286426],[108.798417,34.286452],[108.797849,34.288992],[108.797838,34.289047],[108.797798,34.289169],[108.797798,34.289169],[108.797771,34.289253],[108.797607,34.289233],[108.797095,34.289169],[108.797098,34.289169],[108.795682,34.288992],[108.795183,34.28893],[108.795164,34.288992],[108.795121,34.289143],[108.794351,34.289032],[108.794349,34.288992],[108.794332,34.288456],[108.793584,34.288347],[108.793479,34.288815],[108.793477,34.288815],[108.793455,34.288921],[108.791535,34.288622],[108.791459,34.288815],[108.791457,34.288815],[108.791427,34.288897],[108.79139,34.288992],[108.791323,34.289169],[108.791325,34.289169],[108.791192,34.289515],[108.789263,34.289264],[108.788764,34.291297],[108.787058,34.29117],[108.787007,34.291824],[108.786849,34.291842],[108.786734,34.29213],[108.786621,34.292518],[108.786535,34.292812],[108.786466,34.293145],[108.786621,34.293158],[108.786836,34.293173],[108.786836,34.293173],[108.786844,34.293173],[108.786785,34.293464],[108.786699,34.295126],[108.786836,34.295128],[108.786836,34.295127],[108.787573,34.295137],[108.787587,34.29657],[108.788906,34.29607],[108.788735,34.298068],[108.788727,34.298175],[108.790647,34.298197],[108.792047,34.298243],[108.792045,34.298246],[108.792047,34.298246],[108.791929,34.300725],[108.791269,34.300736],[108.791178,34.301487],[108.791017,34.302693],[108.791505,34.302759],[108.790859,34.306038],[108.78826,34.306003],[108.788212,34.306967],[108.788212,34.306967],[108.788204,34.307144],[108.788198,34.307263],[108.788179,34.307321],[108.788181,34.307321],[108.788169,34.307363],[108.786836,34.307363],[108.786407,34.307363],[108.785857,34.307363],[108.785849,34.307975],[108.785808,34.309005],[108.78579,34.309763],[108.78579,34.310204],[108.785792,34.310201],[108.7858,34.310283],[108.7858,34.310363],[108.785779,34.310744],[108.785795,34.311021],[108.786205,34.310955],[108.786407,34.310907],[108.786407,34.310908],[108.786621,34.310857],[108.786742,34.310826],[108.786836,34.310811],[108.786836,34.310809],[108.788804,34.310456],[108.788815,34.310753],[108.789301,34.310737],[108.789314,34.31181],[108.79039,34.311885],[108.790333,34.312151],[108.792975,34.313064],[108.79363,34.313201],[108.793608,34.313281],[108.794032,34.313427],[108.794231,34.312776],[108.794255,34.312581],[108.795035,34.312647],[108.795942,34.312687],[108.796012,34.312827],[108.797607,34.313106],[108.797804,34.313138],[108.800072,34.313372],[108.799903,34.314357],[108.799957,34.315281],[108.803406,34.315337],[108.80353,34.315352],[108.803513,34.316041],[108.803514,34.316041],[108.803508,34.316218],[108.803506,34.316396],[108.803505,34.316396],[108.803503,34.316513],[108.803704,34.316524],[108.803723,34.317056],[108.805909,34.317067],[108.805866,34.318108],[108.805877,34.31844],[108.807451,34.318403],[108.807556,34.317348],[108.808379,34.317373],[108.808379,34.317373],[108.808521,34.317375],[108.808594,34.317379],[108.809916,34.317443],[108.810627,34.317428],[108.811115,34.31739],[108.812124,34.317377],[108.812155,34.316396],[108.812161,34.316218],[108.812166,34.316041],[108.812167,34.316041],[108.812185,34.315516],[108.812177,34.315463],[108.81284,34.315467],[108.812893,34.31482],[108.813073,34.313128],[108.8131,34.312756],[108.815297,34.312873],[108.817874,34.313066],[108.817936,34.310777],[108.818014,34.310777],[108.818046,34.309475],[108.819366,34.309446],[108.819366,34.309446],[108.81958,34.309441],[108.819795,34.309435],[108.819795,34.309436],[108.820253,34.309424],[108.820221,34.309326],[108.822072,34.30932],[108.82208,34.308901],[108.822053,34.308143],[108.822882,34.30811],[108.822874,34.307571],[108.823105,34.307567],[108.823898,34.307496],[108.823933,34.310006],[108.825527,34.309896],[108.825451,34.310658],[108.825384,34.31074],[108.82525,34.310788],[108.824928,34.310828],[108.824904,34.310968],[108.824832,34.311059],[108.824843,34.3114],[108.824478,34.311843],[108.824392,34.312481],[108.824215,34.312488],[108.824287,34.313487],[108.824285,34.313642],[108.824644,34.313646],[108.825291,34.313742],[108.827026,34.3141],[108.827608,34.314169],[108.827254,34.316041],[108.827246,34.316085],[108.827324,34.31609],[108.827321,34.316112],[108.829311,34.316196],[108.829308,34.316218],[108.829303,34.316396],[108.829301,34.316396],[108.82926,34.317384],[108.829249,34.319098],[108.830352,34.319102],[108.830566,34.319103],[108.830781,34.319103],[108.830781,34.319103],[108.833353,34.319107],[108.833688,34.319085],[108.834407,34.319069],[108.835217,34.319076],[108.835877,34.319074],[108.836727,34.319083],[108.836725,34.318903],[108.837076,34.318921],[108.837076,34.318478],[108.837191,34.318467],[108.839884,34.318529],[108.840472,34.318505],[108.841338,34.318515],[108.841553,34.318518],[108.841706,34.318518],[108.841767,34.318534],[108.841797,34.318542],[108.841791,34.319118],[108.84185,34.319205],[108.842674,34.318695],[108.842443,34.316218],[108.842427,34.316041],[108.842427,34.316041],[108.8424,34.315751],[108.842371,34.314583],[108.841934,34.314597],[108.841923,34.313361],[108.84206,34.313347],[108.842065,34.31235],[108.841821,34.312355],[108.841799,34.311832],[108.841794,34.308934],[108.842036,34.308932],[108.842057,34.309169],[108.843031,34.309151],[108.84309,34.308628],[108.843178,34.30863],[108.84321,34.307709],[108.841553,34.307886],[108.841523,34.307888],[108.841553,34.307738],[108.841663,34.307175],[108.841665,34.305832],[108.841767,34.305832],[108.841767,34.305832],[108.843532,34.305826],[108.843562,34.304769],[108.843602,34.304716],[108.844715,34.304627],[108.844678,34.303902],[108.845096,34.303878],[108.845107,34.303488],[108.845101,34.302604],[108.846695,34.302489],[108.846676,34.302187],[108.845997,34.302216],[108.845914,34.301093],[108.845906,34.300557],[108.848237,34.300495],[108.848269,34.301879],[108.84942,34.301853],[108.849406,34.300444],[108.850144,34.300359],[108.850071,34.299205],[108.850417,34.299163],[108.850511,34.299136],[108.850489,34.298246],[108.85049,34.298246],[108.850484,34.298068],[108.850482,34.297891],[108.850481,34.297891],[108.850455,34.29671],[108.852324,34.296808],[108.852324,34.29681],[108.8524,34.296812],[108.85241,34.295974],[108.852539,34.295988],[108.852754,34.296008],[108.852754,34.296007],[108.85318,34.296045],[108.853132,34.294846],[108.852754,34.294844],[108.852754,34.294842],[108.852539,34.29484],[108.85031,34.294809],[108.850316,34.294532],[108.850248,34.294007],[108.850267,34.293942],[108.85023,34.293814],[108.850495,34.293708],[108.850543,34.293125],[108.850506,34.292471],[108.848789,34.292442],[108.850495,34.291924],[108.850951,34.291773],[108.852324,34.291361],[108.852324,34.291363],[108.852539,34.291299],[108.852915,34.291184],[108.852957,34.290851],[108.852577,34.290942],[108.852539,34.290946],[108.852088,34.290997],[108.851541,34.290984],[108.851131,34.290893],[108.850619,34.290738],[108.850407,34.290652],[108.849908,34.290095],[108.849629,34.289692],[108.849334,34.289213],[108.84931,34.289127],[108.849302,34.288992],[108.849299,34.288921],[108.849337,34.288502],[108.84935,34.287301],[108.849414,34.287305],[108.849428,34.287053],[108.849353,34.287046],[108.849358,34.286454],[108.849379,34.285524],[108.849218,34.285041],[108.849218,34.284872],[108.850079,34.284444],[108.850055,34.284356],[108.850804,34.283886],[108.851201,34.283294],[108.850932,34.282778],[108.851091,34.282689],[108.851037,34.282401],[108.851327,34.282335],[108.851297,34.282186],[108.851002,34.282222],[108.850876,34.281554],[108.851112,34.281499],[108.851083,34.281335],[108.850839,34.281368],[108.850828,34.281304],[108.850755,34.280398],[108.850696,34.279914],[108.850648,34.279484],[108.850662,34.278407],[108.850967,34.278392],[108.850967,34.277359],[108.850914,34.275717],[108.85068,34.275712],[108.850723,34.275154],[108.851158,34.275171],[108.852241,34.275182],[108.852324,34.275182],[108.852547,34.275182],[108.852547,34.275027],[108.852754,34.275018],[108.852754,34.275017],[108.852772,34.275016],[108.85278,34.274549],[108.854808,34.274573],[108.85487,34.27256],[108.854929,34.270956],[108.854862,34.270947],[108.854234,34.270927],[108.854108,34.270916],[108.854103,34.270836],[108.854097,34.270659],[108.854097,34.270659],[108.854092,34.270486],[108.853824,34.270477],[108.853848,34.268934],[108.854553,34.268959],[108.854567,34.26785],[108.854588,34.266706],[108.852539,34.266744],[108.851292,34.266762],[108.850329,34.267192],[108.850281,34.26719],[108.849613,34.267201],[108.849613,34.266383],[108.850584,34.266389],[108.850565,34.265148],[108.850603,34.265137],[108.850565,34.264962],[108.850557,34.264547],[108.850688,34.264545],[108.850836,34.26455],[108.85148,34.264552],[108.851466,34.264312],[108.852059,34.264304],[108.852059,34.264148],[108.852215,34.264148],[108.852231,34.263406],[108.851608,34.263359],[108.851611,34.263277],[108.849661,34.263226],[108.849656,34.261757],[108.849648,34.260706],[108.850747,34.260863],[108.850747,34.260331],[108.85079,34.260333],[108.850798,34.260132],[108.850747,34.260127],[108.850747,34.258385]]]}}]}