{"type":"FeatureCollection","features":[{"type":"Feature","properties":{"FID":8,"NAME":"桃园路街道","code":"610104008000","PAC":"610104","省":"陕西省","省代码":"610000","市":"西安市","市代码":"610100","类型":"乡镇","grade":4,"layer":"乡镇"},"geometry":{"type":"Polygon","coordinates":[[[108.90338442,34.26081823],[108.90506842,34.26082023],[108.90507642,34.26100923],[108.90507542,34.26121422],[108.90510742,34.26383118],[108.90510142,34.26422117],[108.90509342,34.26478816],[108.90509342,34.26481916],[108.90506842,34.26653613],[108.90505242,34.26760111],[108.90501042,34.27053306],[108.90492342,34.27048806],[108.90477042,34.27056106],[108.90473242,34.27118305],[108.90319042,34.27120205],[108.90322142,34.27512098],[108.90253442,34.27515598],[108.90181642,34.27529298],[108.90088542,34.27566697],[108.90027442,34.27610996],[108.90000242,34.27650395],[108.89996942,34.27655295],[108.89977842,34.27683095],[108.89937342,34.27724694],[108.89874042,34.27765893],[108.89758742,34.27816692],[108.89757242,34.27844592],[108.89413042,34.27838092],[108.89353442,34.27842792],[108.89126142,34.27886391],[108.88647742,34.28038089],[108.88682142,34.28118587],[108.88675942,34.28152587],[108.88669942,34.28486881],[108.88681042,34.28567479],[108.88710742,34.28783376],[108.88768642,34.29204168],[108.87051542,34.29204668],[108.86714042,34.29204768],[108.86719542,34.28917173],[108.86721542,34.28814575],[108.86724742,34.28650978],[108.87039342,34.2854868],[108.87219942,34.28489981],[108.87368442,34.28441682],[108.87705842,34.28331983],[108.87706442,34.28205686],[108.87706442,34.28204986],[108.87706542,34.28195586],[108.87706542,34.28186986],[108.87689642,34.28144487],[108.87691342,34.28085188],[108.87691542,34.28076888],[108.87691842,34.28067888],[108.87692842,34.28030989],[108.87691742,34.2793529],[108.87690742,34.27791593],[108.87689342,34.27761293],[108.87688942,34.27753194],[108.87687542,34.27721594],[108.87679942,34.27694995],[108.87676642,34.27686995],[108.87657241,34.27614196],[108.87613742,34.27451199],[108.87609442,34.27435199],[108.87597542,34.273908],[108.87586642,34.27336001],[108.87583942,34.27322101],[108.87579242,34.27298602],[108.87567442,34.27120805],[108.87566242,34.27102305],[108.87579142,34.27080405],[108.87618142,34.27060006],[108.87648642,34.27044006],[108.87740042,34.27042806],[108.87778042,34.27042506],[108.87780242,34.26976907],[108.87926142,34.26975207],[108.88004642,34.26975507],[108.88100642,34.26976407],[108.88100142,34.27038006],[108.88321442,34.27040206],[108.88361942,34.27040606],[108.88355442,34.27015907],[108.88355342,34.26952608],[108.88355242,34.2682601],[108.88372242,34.2680381],[108.88485942,34.26655213],[108.88495842,34.26607514],[108.88495742,34.26586414],[108.88495642,34.26571814],[108.88495542,34.26561915],[108.88495542,34.26555015],[108.88493342,34.26101723],[108.88493242,34.26090623],[108.88493142,34.26071123],[108.88492942,34.26038524],[108.88492142,34.25856127],[108.88492142,34.25848727],[108.88491842,34.25797328],[108.88491542,34.25746929],[108.88491542,34.25737729],[108.88490542,34.25539032],[108.88490342,34.25491633],[108.88484342,34.25391235],[108.88437042,34.25368936],[108.88438542,34.25356136],[108.88454842,34.25335136],[108.88492442,34.25314036],[108.88493042,34.25150139],[108.88515042,34.25022342],[108.88563142,34.24945243],[108.88845742,34.24842745],[108.88969042,34.24937643],[108.89059242,34.25006842],[108.89454942,34.25368836],[108.89582142,34.25448734],[108.89594242,34.25468234],[108.89615542,34.25502333],[108.89639942,34.25545532],[108.89647742,34.25559432],[108.89733042,34.25559432],[108.89733042,34.25598431],[108.89734142,34.2565743],[108.89755042,34.2567533],[108.89836142,34.25738229],[108.89857642,34.25755129],[108.89856542,34.25836727],[108.89942942,34.25835327],[108.89944542,34.25865527],[108.90005742,34.25863727],[108.90091542,34.25861927],[108.90107142,34.25860727],[108.90107642,34.25870927],[108.90085042,34.25871827],[108.90084042,34.25911726],[108.90111342,34.25913026],[108.90120242,34.25922426],[108.90245842,34.25922426],[108.90247442,34.25933126],[108.90254742,34.26037624],[108.90201042,34.26039424],[108.90198942,34.26078423],[108.90338442,34.26081823]]]}}]}