{"type":"FeatureCollection","features":[{"type":"Feature","properties":{"FID":7,"NAME":"土门街道","code":"610104007000","PAC":"610104","省":"陕西省","省代码":"610000","市":"西安市","市代码":"610100","类型":"乡镇","grade":4,"layer":"乡镇"},"geometry":{"type":"MultiPolygon","coordinates":[[[[108.87585942,34.24656348],[108.87586442,34.24649648],[108.87591842,34.24642148],[108.87602542,34.24638548],[108.87604742,34.24629748],[108.87605242,34.24605349],[108.87605242,34.24570249],[108.87606342,34.2453085],[108.87605742,34.24499751],[108.87623442,34.24498851],[108.87650342,34.24499751],[108.87664742,34.24501951],[108.87690042,34.24510851],[108.87707742,34.2451795],[108.87702342,34.2453615],[108.87698042,34.2455295],[108.87698542,34.24571149],[108.87698542,34.24595149],[108.87699642,34.24628848],[108.87699642,34.24655848],[108.87668042,34.24655848],[108.87629942,34.24655848],[108.87585942,34.24656348]]],[[[108.86074842,34.24327154],[108.86075942,34.24253455],[108.86079142,34.24171056],[108.86081242,34.24092058],[108.86141342,34.24095658],[108.86214342,34.24100958],[108.86278742,34.24108058],[108.86349542,34.24114258],[108.86435342,34.24120457],[108.86534042,34.24131957],[108.86596242,34.24136457],[108.86598442,34.24165657],[108.86597342,34.24200256],[108.86571642,34.24200256],[108.86537242,34.24201156],[108.86535142,34.24241055],[108.86538342,34.24293454],[108.86425642,34.24294254],[108.86344142,34.24294254],[108.86229342,34.24294254],[108.86149942,34.24292554],[108.86145642,34.24327154],[108.86109142,34.24327154],[108.86074842,34.24327154]]],[[[108.87153942,34.24662248],[108.87032642,34.2452745],[108.86935042,34.24431652],[108.86852442,34.24342154],[108.86781642,34.24272955],[108.86760042,34.24250855],[108.86762842,34.24193756],[108.86828242,34.24192856],[108.86917342,34.24192856],[108.86925342,34.24193456],[108.87006342,34.24199056],[108.87158742,34.24190156],[108.87331442,34.24187556],[108.87328242,34.24278855],[108.87333642,34.24405752],[108.87332242,34.24498451],[108.87331442,34.2455555],[108.87330342,34.24661148],[108.87255242,34.24662048],[108.87153942,34.24662248]]],[[[108.87137342,34.25375035],[108.87248842,34.25375335],[108.87346142,34.25375635],[108.87685542,34.25376735],[108.87693342,34.25376735],[108.87703242,34.25376735],[108.87710242,34.24661948],[108.88011742,34.24661948],[108.88331942,34.24661948],[108.88331942,34.24802445],[108.88331942,34.24863944],[108.88331942,34.25144339],[108.88331942,34.25251638],[108.88331942,34.25374935],[108.88437042,34.25368936],[108.88484342,34.25391235],[108.88490342,34.25491633],[108.88490542,34.25539032],[108.88491542,34.25737729],[108.88491542,34.25746929],[108.88491842,34.25797328],[108.88492142,34.25848727],[108.88492142,34.25856127],[108.88492942,34.26038524],[108.88493142,34.26071123],[108.88493242,34.26090623],[108.88493342,34.26101723],[108.88495542,34.26555015],[108.88495542,34.26561915],[108.88495642,34.26571814],[108.88495742,34.26586414],[108.88495842,34.26607514],[108.88485942,34.26655213],[108.88372242,34.2680381],[108.88355242,34.2682601],[108.88355342,34.26952608],[108.88355442,34.27015907],[108.88361942,34.27040606],[108.88321442,34.27040206],[108.88100142,34.27038006],[108.88100642,34.26976407],[108.88004642,34.26975507],[108.87926142,34.26975207],[108.87780242,34.26976907],[108.87778042,34.27042506],[108.87740042,34.27042806],[108.87648642,34.27044006],[108.87618142,34.27060006],[108.87615842,34.27037206],[108.87479942,34.27035906],[108.86771142,34.27029406],[108.86735842,34.27029406],[108.86744642,34.26654113],[108.86744942,34.26643413],[108.86745142,34.26633213],[108.86748242,34.26500216],[108.86750842,34.26389218],[108.86750842,34.26379318],[108.86750142,34.26148522],[108.86749942,34.26093723],[108.86749842,34.26063223],[108.86749742,34.26038124],[108.86749942,34.25994424],[108.86750142,34.25949625],[108.86750242,34.25939226],[108.86751942,34.25598531],[108.86752942,34.25391735],[108.86743942,34.25373935],[108.86919042,34.25368836],[108.87127942,34.25375035],[108.87137342,34.25375035]]]]}}]}