{"type":"FeatureCollection","features":[{"type":"Feature","properties":{"FID":1,"NAME":"韦曲街道","code":"610116001000","PAC":"610116","省":"陕西省","省代码":"610000","市":"西安市","市代码":"610100","类型":"乡镇","grade":4,"layer":"乡镇"},"geometry":{"type":"MultiPolygon","coordinates":[[[[108.918672,34.136979],[108.918672,34.136982],[108.918586,34.136999],[108.918457,34.137017],[108.918242,34.137046],[108.918242,34.137045],[108.918221,34.137048],[108.918052,34.137057],[108.917961,34.137053],[108.915574,34.136839],[108.915571,34.136904],[108.915579,34.13852],[108.915507,34.138516],[108.915539,34.140303],[108.91593,34.140281],[108.915952,34.140913],[108.915909,34.141315],[108.915804,34.14159],[108.915609,34.141868],[108.915397,34.142103],[108.915212,34.142281],[108.914965,34.142441],[108.914509,34.142603],[108.914503,34.141857],[108.912481,34.141635],[108.910807,34.14161],[108.907685,34.141484],[108.907685,34.141486],[108.907503,34.141477],[108.907471,34.141624],[108.907256,34.142594],[108.907256,34.142593],[108.907063,34.143466],[108.906983,34.143635],[108.906983,34.143639],[108.906924,34.143635],[108.904534,34.143457],[108.904539,34.143635],[108.904547,34.143848],[108.904504,34.144711],[108.904534,34.144711],[108.904563,34.144747],[108.904585,34.14482],[108.904464,34.146023],[108.904319,34.14682],[108.904507,34.146956],[108.904442,34.147142],[108.904365,34.1471],[108.904099,34.149242],[108.904177,34.149244],[108.903919,34.151273],[108.903579,34.151255],[108.903874,34.152727],[108.904341,34.155062],[108.902468,34.1553],[108.902755,34.156574],[108.899757,34.156704],[108.899853,34.15919],[108.900878,34.159153],[108.900902,34.160014],[108.903396,34.159927],[108.903474,34.160273],[108.903504,34.16052],[108.903445,34.160779],[108.901658,34.160868],[108.901674,34.161137],[108.901986,34.161137],[108.902337,34.161148],[108.902873,34.161148],[108.903284,34.161117],[108.903268,34.161434],[108.903399,34.161448],[108.903343,34.161818],[108.903316,34.162744],[108.902884,34.162744],[108.902881,34.163023],[108.902844,34.163627],[108.902265,34.163627],[108.902289,34.165826],[108.901503,34.165511],[108.90153,34.166765],[108.901626,34.169124],[108.90294,34.168993],[108.904552,34.168802],[108.904625,34.168787],[108.905038,34.169896],[108.90511,34.170342],[108.905223,34.170908],[108.905435,34.17194],[108.905462,34.172022],[108.905985,34.171947],[108.906108,34.171987],[108.906205,34.172138],[108.906315,34.172471],[108.906449,34.172488],[108.906779,34.172306],[108.906902,34.172346],[108.907152,34.172957],[108.907256,34.172951],[108.907256,34.172952],[108.907471,34.172939],[108.907629,34.172928],[108.907471,34.172335],[108.907406,34.172093],[108.907471,34.172029],[108.907685,34.171816],[108.907685,34.171814],[108.907878,34.171621],[108.90797,34.171585],[108.908152,34.172218],[108.908839,34.174352],[108.909807,34.17431],[108.912025,34.176358],[108.91213,34.176492],[108.912505,34.17627],[108.912851,34.175983],[108.913184,34.175597],[108.913205,34.175651],[108.913205,34.176243],[108.913127,34.176503],[108.912993,34.17686],[108.913278,34.177457],[108.913516,34.177896],[108.913683,34.178278],[108.913782,34.178538],[108.914023,34.179068],[108.914174,34.179079],[108.914941,34.179077],[108.915343,34.179057],[108.916429,34.179106],[108.916496,34.179103],[108.916518,34.179272],[108.916534,34.17982],[108.916534,34.17982],[108.916539,34.179998],[108.916545,34.180175],[108.916546,34.180175],[108.916596,34.181535],[108.91707,34.181586],[108.917668,34.18158],[108.918242,34.181564],[108.918242,34.181564],[108.918457,34.181557],[108.918672,34.181551],[108.918672,34.18155],[108.919146,34.181533],[108.918937,34.180732],[108.918886,34.180479],[108.919659,34.18039],[108.919828,34.181269],[108.920265,34.181242],[108.921268,34.180364],[108.923711,34.18004],[108.92395,34.179998],[108.924192,34.179955],[108.924725,34.179827],[108.925399,34.179736],[108.925412,34.179574],[108.92454,34.179567],[108.924511,34.178961],[108.927469,34.178957],[108.928875,34.178944],[108.929041,34.178977],[108.929092,34.179077],[108.92917,34.179372],[108.929227,34.17982],[108.929226,34.17982],[108.92925,34.179998],[108.929309,34.180401],[108.929443,34.180408],[108.929658,34.180419],[108.929658,34.180418],[108.930382,34.18045],[108.930382,34.180175],[108.930382,34.180129],[108.930693,34.180133],[108.930677,34.179998],[108.930586,34.179059],[108.930782,34.179055],[108.930969,34.17982],[108.930967,34.17982],[108.930991,34.179911],[108.931369,34.179873],[108.931356,34.177677],[108.933882,34.177621],[108.934454,34.17763],[108.934738,34.178813],[108.934853,34.178846],[108.935763,34.178824],[108.935814,34.179066],[108.935843,34.179412],[108.937179,34.179403],[108.937412,34.179385],[108.938203,34.179543],[108.938354,34.179529],[108.938466,34.179461],[108.938523,34.179012],[108.940215,34.178993],[108.940215,34.178995],[108.94043,34.178992],[108.940754,34.178986],[108.940644,34.17884],[108.940553,34.178535],[108.940494,34.178376],[108.940644,34.178333],[108.940644,34.178333],[108.941165,34.178187],[108.940717,34.176358],[108.941883,34.176356],[108.944263,34.176445],[108.944246,34.17625],[108.944238,34.174392],[108.944609,34.174395],[108.944641,34.174091],[108.945043,34.174102],[108.945046,34.175238],[108.94514,34.17524],[108.94518,34.175715],[108.948235,34.17583],[108.94831,34.176989],[108.948246,34.177725],[108.948219,34.177901],[108.948074,34.177903],[108.94801,34.178722],[108.948908,34.178826],[108.950394,34.178866],[108.951201,34.178959],[108.951201,34.178961],[108.951218,34.178961],[108.951224,34.17982],[108.951223,34.17982],[108.951226,34.179998],[108.951228,34.180175],[108.951229,34.180175],[108.951231,34.180295],[108.951416,34.180306],[108.953114,34.180388],[108.955742,34.180417],[108.955785,34.180508],[108.955632,34.183776],[108.955622,34.184293],[108.957843,34.184555],[108.958103,34.18237],[108.959489,34.182221],[108.959685,34.179998],[108.959712,34.179705],[108.961335,34.179745],[108.961375,34.179228],[108.961729,34.179248],[108.961869,34.179063],[108.962402,34.179168],[108.962617,34.179208],[108.962617,34.179206],[108.964277,34.179523],[108.966681,34.17982],[108.96668,34.17982],[108.967507,34.179922],[108.967501,34.179998],[108.967493,34.180175],[108.967495,34.180175],[108.967482,34.180515],[108.968952,34.180563],[108.970838,34.180594],[108.970913,34.179998],[108.970937,34.17982],[108.970937,34.17982],[108.971052,34.178955],[108.972166,34.179039],[108.972222,34.177863],[108.972935,34.177852],[108.973174,34.177188],[108.973174,34.177188],[108.973389,34.176591],[108.973448,34.176427],[108.973603,34.176481],[108.973603,34.176479],[108.974907,34.176909],[108.974901,34.17712],[108.974794,34.177859],[108.9762,34.17804],[108.976688,34.177614],[108.977007,34.177191],[108.977586,34.17546],[108.978091,34.175551],[108.979062,34.175777],[108.979147,34.175733],[108.979354,34.174834],[108.979488,34.174421],[108.979676,34.173977],[108.979936,34.17311],[108.980266,34.17196],[108.980287,34.171903],[108.981003,34.172089],[108.981366,34.172189],[108.981529,34.171388],[108.981636,34.171086],[108.981636,34.171086],[108.981698,34.170908],[108.981763,34.170731],[108.981762,34.170731],[108.981792,34.170649],[108.982201,34.170731],[108.9822,34.170731],[108.983085,34.170908],[108.983871,34.171066],[108.98416,34.171116],[108.98416,34.171117],[108.984375,34.171152],[108.98459,34.171188],[108.98459,34.171187],[108.984662,34.171199],[108.986357,34.171441],[108.98666,34.171514],[108.987776,34.171481],[108.989533,34.17159],[108.990018,34.171718],[108.9917,34.172426],[108.992073,34.172757],[108.992465,34.173176],[108.993167,34.173223],[108.993181,34.17348],[108.993119,34.173787],[108.993122,34.173875],[108.995361,34.173895],[108.995576,34.173895],[108.9956,34.173895],[108.995608,34.174779],[108.996866,34.174985],[108.996898,34.174996],[108.997019,34.175043],[108.997923,34.1756],[108.998113,34.174585],[108.999401,34.174612],[108.999363,34.176094],[108.999377,34.176558],[109.000433,34.176611],[109.000562,34.176625],[109.002177,34.1767],[109.002217,34.177],[109.002198,34.178278],[109.002228,34.178806],[109.002228,34.178948],[109.002386,34.179028],[109.002995,34.179305],[109.003462,34.179494],[109.00403,34.179691],[109.004484,34.17982],[109.004484,34.17982],[109.004695,34.17988],[109.005186,34.179998],[109.005433,34.180057],[109.005771,34.180115],[109.006348,34.180228],[109.006562,34.180266],[109.006562,34.180265],[109.007286,34.18039],[109.007386,34.180231],[109.007557,34.179998],[109.007793,34.17968],[109.008054,34.17931],[109.008158,34.179179],[109.00855,34.179228],[109.009153,34.178455],[109.009143,34.177901],[109.008684,34.17773],[109.00841,34.17767],[109.008531,34.177171],[109.008585,34.176241],[109.008625,34.176121],[109.008649,34.176086],[109.008684,34.176074],[109.00966,34.176201],[109.009676,34.176139],[109.010079,34.176188],[109.010191,34.174328],[109.010293,34.173014],[109.010398,34.172005],[109.010481,34.171363],[109.010518,34.170913],[109.011725,34.171086],[109.011727,34.171086],[109.011774,34.171093],[109.01179,34.170908],[109.011806,34.170731],[109.011806,34.170731],[109.011889,34.169812],[109.012168,34.169865],[109.01301,34.169952],[109.013321,34.167253],[109.012986,34.167238],[109.013026,34.166765],[109.013273,34.164996],[109.012364,34.164967],[109.012417,34.164137],[109.0122,34.164124],[109.012434,34.161818],[109.012452,34.161641],[109.012452,34.161641],[109.012731,34.158951],[109.012884,34.157308],[109.01234,34.157366],[109.012415,34.156993],[109.012364,34.156949],[109.01223,34.156915],[109.012122,34.156904],[109.011661,34.156767],[109.011557,34.15672],[109.0115,34.156687],[109.011256,34.156465],[109.011063,34.156314],[109.010972,34.156263],[109.010701,34.156187],[109.0105,34.156116],[109.01076,34.153615],[109.010205,34.15353],[109.008896,34.1533],[109.008971,34.153091],[109.007552,34.152809],[109.007571,34.152727],[109.007611,34.152558],[109.00745,34.152543],[109.007185,34.152465],[109.007066,34.152359],[109.006946,34.152228],[109.006771,34.151892],[109.006686,34.151759],[109.006348,34.151586],[109.005572,34.151184],[109.005994,34.1508],[109.005725,34.150625],[109.005956,34.150376],[109.003268,34.149899],[109.003263,34.149575],[109.003486,34.149573],[109.003392,34.14807],[109.005412,34.148141],[109.005425,34.147437],[109.005516,34.145912],[109.005621,34.143659],[109.006133,34.143686],[109.006133,34.143686],[109.006348,34.143697],[109.00653,34.143706],[109.006562,34.143206],[109.006562,34.143167],[109.006565,34.143124],[109.006774,34.143129],[109.006871,34.142463],[109.007498,34.142518],[109.007842,34.142605],[109.009255,34.142813],[109.009475,34.142831],[109.009505,34.142827],[109.009923,34.142571],[109.009947,34.142443],[109.009915,34.142363],[109.010164,34.140511],[109.010285,34.138915],[109.011685,34.138977],[109.011793,34.137148],[109.012206,34.137139],[109.013042,34.137197],[109.013198,34.135703],[109.013675,34.135765],[109.013824,34.134719],[109.013826,34.134719],[109.01385,34.134542],[109.013871,34.134406],[109.013834,34.134042],[109.013858,34.133647],[109.014831,34.13374],[109.014939,34.13253],[109.015293,34.132548],[109.015494,34.130172],[109.014491,34.130072],[109.014687,34.128598],[109.014384,34.128565],[109.014515,34.127306],[109.013906,34.127242],[109.013946,34.126551],[109.013222,34.126489],[109.013445,34.125448],[109.013482,34.12527],[109.013482,34.12527],[109.01352,34.125103],[109.013603,34.124326],[109.010159,34.124186],[109.010084,34.12477],[109.008877,34.124699],[109.008933,34.122927],[109.00672,34.122681],[109.006348,34.122623],[109.006079,34.122581],[109.005572,34.122519],[109.005401,34.123509],[109.00535,34.123913],[109.005076,34.124606],[109.004942,34.124555],[109.004813,34.124522],[109.004677,34.124522],[109.004599,34.124544],[109.004513,34.124604],[109.00391,34.124515],[109.004022,34.124111],[109.004121,34.123611],[109.003751,34.123547],[109.003529,34.123485],[109.002831,34.123403],[109.002472,34.124984],[109.001678,34.12493],[109.001678,34.124919],[109.001233,34.124944],[109.000822,34.124948],[108.998819,34.124861],[108.998824,34.125101],[108.998793,34.12527],[108.998792,34.12527],[108.998785,34.125312],[108.99876,34.125448],[108.998728,34.125625],[108.998731,34.125625],[108.998647,34.126107],[108.998298,34.127743],[108.998202,34.127799],[108.997748,34.127877],[108.997518,34.127965],[108.997317,34.128176],[108.997263,34.128412],[108.997126,34.128445],[108.996936,34.128518],[108.996941,34.128589],[108.99718,34.128585],[108.997027,34.129515],[108.995831,34.1295],[108.995576,34.129461],[108.995576,34.12946],[108.995361,34.129429],[108.995147,34.129393],[108.995147,34.129394],[108.994865,34.129349],[108.994101,34.129204],[108.993798,34.13083],[108.99151,34.130654],[108.991118,34.132976],[108.990163,34.132881],[108.990093,34.13331],[108.989885,34.134364],[108.989884,34.134364],[108.989849,34.134542],[108.989815,34.134719],[108.989815,34.134719],[108.989635,34.135638],[108.989482,34.135694],[108.989431,34.13561],[108.989195,34.13533],[108.989047,34.135083],[108.988921,34.134919],[108.988814,34.134821],[108.988597,34.134932],[108.988522,34.134941],[108.988157,34.134611],[108.98802,34.134542],[108.987604,34.134329],[108.987598,34.134364],[108.987596,34.134364],[108.987567,34.134542],[108.987425,34.135379],[108.987097,34.135361],[108.986792,34.136569],[108.984375,34.136264],[108.984194,34.136242],[108.984131,34.136233],[108.983895,34.137821],[108.983656,34.137792],[108.98209,34.137543],[108.981921,34.138738],[108.978651,34.13844],[108.978702,34.13695],[108.978343,34.136888],[108.978321,34.13644],[108.975816,34.136322],[108.976095,34.135363],[108.97532,34.135252],[108.975362,34.134719],[108.975363,34.134719],[108.975376,34.134542],[108.975392,34.134364],[108.975391,34.134364],[108.975505,34.133005],[108.975011,34.132663],[108.974263,34.133543],[108.973649,34.133987],[108.973389,34.134131],[108.973072,34.134306],[108.97289,34.134364],[108.97289,34.134364],[108.97282,34.134386],[108.972619,34.13412],[108.971978,34.133296],[108.971605,34.132581],[108.971487,34.13243],[108.971516,34.132413],[108.971441,34.132266],[108.969845,34.130508],[108.96954,34.130488],[108.968818,34.130887],[108.968765,34.130889],[108.968555,34.130121],[108.9684,34.130095],[108.968223,34.129544],[108.967845,34.129533],[108.967794,34.129506],[108.967729,34.129451],[108.967469,34.128936],[108.967236,34.128527],[108.967096,34.127783],[108.966917,34.127151],[108.966131,34.12739],[108.966021,34.127397],[108.965672,34.127324],[108.965423,34.127288],[108.965146,34.127299],[108.964983,34.127322],[108.964916,34.127346],[108.964693,34.127475],[108.96465,34.127515],[108.964634,34.12757],[108.964623,34.127717],[108.964602,34.12775],[108.964468,34.127861],[108.964417,34.127932],[108.964344,34.128074],[108.964293,34.128112],[108.964224,34.128128],[108.964165,34.128187],[108.964148,34.12827],[108.964167,34.128381],[108.964154,34.128463],[108.964097,34.128529],[108.963955,34.128569],[108.963977,34.128729],[108.96395,34.128767],[108.96384,34.128849],[108.96366,34.128958],[108.96369,34.129036],[108.96351,34.129382],[108.963046,34.129484],[108.963108,34.129757],[108.962587,34.129875],[108.962518,34.129662],[108.962402,34.129677],[108.961839,34.129744],[108.961895,34.13019],[108.960423,34.130541],[108.96038,34.13039],[108.959471,34.13061],[108.959331,34.129877],[108.959127,34.129147],[108.957923,34.12942],[108.957918,34.129082],[108.957869,34.128678],[108.957845,34.128552],[108.956754,34.128734],[108.956759,34.128749],[108.955823,34.128942],[108.955592,34.129024],[108.955399,34.129144],[108.955185,34.129227],[108.954383,34.129318],[108.954069,34.129309],[108.953784,34.129231],[108.953361,34.129136],[108.953117,34.129136],[108.953098,34.128614],[108.953052,34.128525],[108.952996,34.128489],[108.952588,34.128423],[108.952551,34.128385],[108.95243,34.128145],[108.95229,34.127817],[108.951896,34.127948],[108.951679,34.127326],[108.951612,34.127239],[108.951523,34.127219],[108.951416,34.127262],[108.951378,34.127275],[108.951003,34.127672],[108.950802,34.127715],[108.950676,34.12771],[108.950544,34.12767],[108.950024,34.127208],[108.949919,34.127259],[108.949222,34.127803],[108.949034,34.127917],[108.948844,34.12805],[108.948728,34.128103],[108.948554,34.128128],[108.948425,34.128114],[108.948082,34.128016],[108.947875,34.127604],[108.948023,34.127708],[108.948085,34.127712],[108.94824,34.127692],[108.948372,34.127706],[108.948468,34.127766],[108.948541,34.127832],[108.948602,34.127846],[108.948771,34.127832],[108.947956,34.125972],[108.94687,34.126342],[108.94629,34.125448],[108.945601,34.124371],[108.946663,34.124],[108.946371,34.123562],[108.94573,34.123809],[108.945394,34.123876],[108.945209,34.123984],[108.945105,34.124064],[108.944638,34.124639],[108.944037,34.124984],[108.94389,34.125032],[108.943525,34.125035],[108.943372,34.124964],[108.943206,34.124546],[108.941878,34.124635],[108.94187,34.123665],[108.940644,34.123761],[108.940644,34.12376],[108.94043,34.123776],[108.939652,34.123833],[108.939563,34.122996],[108.938732,34.123092],[108.937538,34.123129],[108.936412,34.123221],[108.936329,34.123258],[108.936337,34.123447],[108.936422,34.125101],[108.936481,34.12527],[108.936479,34.12527],[108.936506,34.125341],[108.934489,34.125337],[108.934494,34.125448],[108.934505,34.125625],[108.934505,34.125625],[108.934505,34.125625],[108.93451,34.125714],[108.93455,34.126103],[108.934609,34.126413],[108.934668,34.126702],[108.934738,34.126993],[108.934928,34.127572],[108.9348,34.127652],[108.934518,34.127652],[108.931546,34.127706],[108.929658,34.127736],[108.929658,34.127735],[108.929443,34.127739],[108.929331,34.127739],[108.929092,34.12775],[108.927019,34.127779],[108.927032,34.128945],[108.926128,34.128951],[108.926123,34.129717],[108.926058,34.130061],[108.925981,34.130774],[108.925956,34.13136],[108.925455,34.131358],[108.924717,34.131382],[108.924685,34.133827],[108.923081,34.133876],[108.921228,34.133865],[108.921228,34.133867],[108.920415,34.13386],[108.919457,34.133858],[108.919459,34.134364],[108.91946,34.134364],[108.91946,34.134542],[108.919463,34.135265],[108.91879,34.135272],[108.918763,34.136879],[108.918787,34.136953],[108.918672,34.136979]]],[[[108.904534,34.143457],[108.904563,34.143457],[108.904534,34.143455],[108.904534,34.143457]]]]}}]}