{"type":"FeatureCollection","features":[{"type":"Feature","properties":{"FID":6,"NAME":"文艺路街道","code":"610103006000","PAC":"610103","省":"陕西省","省代码":"610000","市":"西安市","市代码":"610100","类型":"乡镇","grade":4,"layer":"乡镇"},"geometry":{"type":"Polygon","coordinates":[[[108.95342442,34.23617766],[108.95342142,34.23572767],[108.95532342,34.23572467],[108.95531442,34.23537868],[108.95529642,34.23467369],[108.95553042,34.23467169],[108.95550942,34.23358071],[108.95541742,34.23358071],[108.95540742,34.23315972],[108.95507942,34.23315672],[108.95501542,34.23152074],[108.95615642,34.23151974],[108.95697742,34.23151874],[108.95915042,34.23151674],[108.95933242,34.23151674],[108.96037042,34.23151574],[108.96045642,34.23152974],[108.96084942,34.23159274],[108.96224242,34.23217273],[108.96169542,34.23315772],[108.96285442,34.23354771],[108.96350842,34.23360071],[108.96342342,34.2337787],[108.96300542,34.2337777],[108.96300942,34.2339497],[108.96303242,34.23488869],[108.96432642,34.23491068],[108.96436542,34.23482669],[108.96585742,34.23552167],[108.96607642,34.23562367],[108.96669942,34.23589467],[108.96668642,34.23591667],[108.96592742,34.23714265],[108.96582042,34.23714265],[108.96595142,34.24096658],[108.96446842,34.24094958],[108.96432742,34.24094758],[108.96432242,34.24114157],[108.96429942,34.24214756],[108.96429742,34.24212856],[108.96384742,34.24212956],[108.96384742,34.24257155],[108.96327142,34.24256955],[108.96126442,34.24255455],[108.96117042,34.24255455],[108.96116742,34.24275455],[108.96116642,34.24283255],[108.96116242,34.24315154],[108.96116042,34.24422252],[108.96115042,34.24506051],[108.96115042,34.24507851],[108.96113842,34.24603149],[108.96110442,34.24724747],[108.96109342,34.24753046],[108.96108842,34.24764646],[108.96108642,34.24825645],[108.96105342,34.24929743],[108.96105242,34.24933943],[108.96103342,34.24994942],[108.96101742,34.2509014],[108.96102742,34.25177439],[108.96102142,34.25249338],[108.96102242,34.25250538],[108.95861242,34.25249038],[108.95821642,34.25248738],[108.95564342,34.25247038],[108.95552242,34.25246938],[108.95398942,34.25245938],[108.95383742,34.25245838],[108.95342542,34.25245938],[108.95223442,34.25246138],[108.95219542,34.25246138],[108.95214942,34.25246138],[108.95148842,34.25246338],[108.94959042,34.25246538],[108.94945242,34.25246538],[108.94926442,34.25246238],[108.94793742,34.25244038],[108.94793842,34.25237638],[108.94794642,34.25188739],[108.94796142,34.2508964],[108.94793842,34.24965343],[108.94786342,34.24955443],[108.94653142,34.24957143],[108.94652642,34.24922043],[108.94630142,34.24918043],[108.94630242,34.24883244],[108.94630242,34.24867644],[108.94630342,34.24837145],[108.94572842,34.24836245],[108.94573642,34.24748846],[108.94573842,34.24732647],[108.94733742,34.24732647],[108.94734242,34.24722447],[108.94737542,34.24647048],[108.94811542,34.24648348],[108.94859942,34.24649548],[108.94837142,34.24641448],[108.94837642,34.24585149],[108.94860042,34.24585149],[108.94860042,34.2454745],[108.94860042,34.24515351],[108.94860042,34.24503751],[108.94860042,34.24480051],[108.94861142,34.24391053],[108.94860442,34.24352153],[108.94826942,34.24345253],[108.94828042,34.24295954],[108.94833442,34.24293254],[108.94858142,34.24293254],[108.94886042,34.24292754],[108.94899342,34.24275655],[108.94902942,34.24270955],[108.94906542,34.24266355],[108.94859942,34.24266355],[108.94859442,34.24210056],[108.94809642,34.24209756],[108.94809142,34.24139657],[108.94808142,34.24082458],[108.94807842,34.24053659],[108.94807242,34.24003959],[108.94807242,34.23923261],[108.94807242,34.23906461],[108.94681142,34.23906061],[108.94679642,34.23856462],[108.94676942,34.23826663],[108.94691242,34.23819463],[108.94736942,34.23769764],[108.94756542,34.23736364],[108.94761842,34.23727264],[108.94764242,34.23723164],[108.94778742,34.23692465],[108.94789042,34.23667765],[108.94793642,34.23631366],[108.94801742,34.23595467],[108.94803042,34.23585267],[108.94806842,34.23553967],[108.94809242,34.23534068],[108.94822742,34.23459469],[108.94836642,34.2342927],[108.94836142,34.2340177],[108.94838542,34.23356971],[108.94824942,34.23327571],[108.94771442,34.23307372],[108.94614342,34.23303872],[108.94615842,34.23254773],[108.94668442,34.23254873],[108.94669542,34.23227473],[108.94788642,34.23227073],[108.94789242,34.23197974],[108.94895842,34.23197074],[108.94897442,34.23151474],[108.94904242,34.23151774],[108.94925242,34.23152774],[108.94928442,34.23328371],[108.94946142,34.23328371],[108.94946642,34.2339047],[108.95068942,34.2339047],[108.95073242,34.23558567],[108.95183042,34.23558467],[108.95183142,34.23616866],[108.95342442,34.23617766]]]}}]}