{"type":"FeatureCollection","features":[{"type":"Feature","properties":{"FID":6,"NAME":"西关街道","code":"610104006000","PAC":"610104","省":"陕西省","省代码":"610000","市":"西安市","市代码":"610100","类型":"乡镇","grade":4,"layer":"乡镇"},"geometry":{"type":"Polygon","coordinates":[[[108.91007542,34.26437517],[108.90951842,34.26439317],[108.90937342,34.26382518],[108.90826842,34.26410417],[108.90821442,34.26411817],[108.90818242,34.26348418],[108.90763842,34.26344418],[108.90765942,34.2627482],[108.90608742,34.2627172],[108.90606742,34.26087523],[108.90555042,34.26083523],[108.90537842,34.26082223],[108.90506342,34.26079823],[108.90506842,34.26082023],[108.90338442,34.26081823],[108.90198942,34.26078423],[108.90201042,34.26039424],[108.90254742,34.26037624],[108.90247442,34.25933126],[108.90245842,34.25922426],[108.90120242,34.25922426],[108.90111342,34.25913026],[108.90084042,34.25911726],[108.90085042,34.25871827],[108.90107642,34.25870927],[108.90107142,34.25860727],[108.90091542,34.25861927],[108.90005742,34.25863727],[108.89944542,34.25865527],[108.89942942,34.25835327],[108.89856542,34.25836727],[108.89857642,34.25755129],[108.89836142,34.25738229],[108.89755042,34.2567533],[108.89734142,34.2565743],[108.89733042,34.25598431],[108.89733042,34.25559432],[108.89647742,34.25559432],[108.89639942,34.25545532],[108.89615542,34.25502333],[108.89594242,34.25468234],[108.89582142,34.25448734],[108.89454942,34.25368836],[108.89059242,34.25006842],[108.88969042,34.24937643],[108.88845742,34.24842745],[108.88563142,34.24945243],[108.88469742,34.24879644],[108.88473542,34.24666848],[108.88474242,34.24630148],[108.88326942,34.2454495],[108.88302542,34.2453085],[108.88171842,34.24440352],[108.88086042,34.24436852],[108.88060242,34.24426152],[108.88023742,34.24390653],[108.88015242,34.24349853],[108.88036642,34.24287854],[108.88043142,34.24106858],[108.88322042,34.24110458],[108.88326342,34.23883362],[108.88506542,34.23884462],[108.88506542,34.23940361],[108.88614942,34.23941261],[108.88616042,34.2397046],[108.88731842,34.24057259],[108.89034542,34.24055459],[108.89036542,34.24055459],[108.89098742,34.24156557],[108.89285442,34.24078558],[108.89547342,34.24488351],[108.89571342,34.24477851],[108.89778342,34.24387053],[108.89755842,34.24354653],[108.89725642,34.24309354],[108.89704842,34.24278055],[108.89667842,34.24223456],[108.89645342,34.24189456],[108.89615242,34.24144057],[108.89581442,34.24090658],[108.89615742,34.24074658],[108.89642742,34.24062658],[108.89693542,34.24040059],[108.89833842,34.2397936],[108.89849342,34.2397006],[108.89951242,34.23928761],[108.90038742,34.23891961],[108.90087542,34.23872962],[108.90098842,34.23892461],[108.90111142,34.23892861],[108.90146042,34.23895061],[108.90177642,34.23897261],[108.90192142,34.23901261],[108.90206642,34.23917261],[108.90244442,34.23918161],[108.90246342,34.23918161],[108.90286042,34.23918161],[108.90341842,34.23919061],[108.90375642,34.23915461],[108.90415442,34.23914261],[108.90447142,34.2396276],[108.90456042,34.2397636],[108.90492842,34.24073958],[108.90543142,34.24150557],[108.90541042,34.24320954],[108.90537442,34.24614749],[108.90545042,34.24614649],[108.90544542,34.24675248],[108.90624142,34.24775946],[108.90651042,34.24822345],[108.90883442,34.24825845],[108.90884142,34.24894744],[108.90896842,34.24896144],[108.90901342,34.24955643],[108.91062942,34.24954843],[108.91546742,34.24952743],[108.91556442,34.24952843],[108.91555142,34.25018842],[108.91872042,34.25017942],[108.91871742,34.25219938],[108.91989842,34.25219938],[108.91957242,34.25278437],[108.91972142,34.25718629],[108.91977942,34.25892126],[108.91968842,34.25907426],[108.91909242,34.25952325],[108.91892442,34.26023724],[108.91894842,34.26094723],[108.91895442,34.26109023],[108.91896342,34.26136322],[108.91896942,34.26155022],[108.91952742,34.26206521],[108.91952042,34.2625682],[108.91891942,34.2625332],[108.91850642,34.26296319],[108.91839442,34.26323019],[108.91832442,34.26328319],[108.91772542,34.26330819],[108.91553942,34.26313819],[108.91488442,34.26312019],[108.91319442,34.26309519],[108.91208642,34.26316319],[108.91191142,34.26336218],[108.91201842,34.26400317],[108.91208642,34.26430817],[108.91007542,34.26437517]]]}}]}