{"type":"FeatureCollection","features":[{"type":"Feature","properties":{"FID":14,"NAME":"细柳街道","code":"610116014000","PAC":"610116","省":"陕西省","省代码":"610000","市":"西安市","市代码":"610100","类型":"乡镇","grade":4,"layer":"乡镇"},"geometry":{"type":"Polygon","coordinates":[[[108.78311,34.130512],[108.782077,34.130372],[108.782059,34.130454],[108.781986,34.130994],[108.781235,34.130448],[108.780924,34.132224],[108.780707,34.133689],[108.780588,34.134364],[108.780589,34.134364],[108.780557,34.134542],[108.780526,34.134719],[108.780396,34.135481],[108.780262,34.135439],[108.780085,34.135336],[108.779277,34.13495],[108.77899,34.134795],[108.778709,34.136413],[108.778317,34.136322],[108.778253,34.13662],[108.778234,34.136635],[108.778014,34.137448],[108.777472,34.137375],[108.777303,34.138336],[108.777856,34.138314],[108.778529,34.138413],[108.778247,34.139754],[108.777266,34.139659],[108.776732,34.13963],[108.775849,34.139523],[108.775849,34.139523],[108.775745,34.13951],[108.77579,34.13927],[108.775662,34.139255],[108.775635,34.139255],[108.77542,34.139255],[108.77542,34.139253],[108.775383,34.139253],[108.775125,34.139151],[108.77501,34.139064],[108.775037,34.138684],[108.772561,34.138331],[108.772472,34.138809],[108.771322,34.138647],[108.771295,34.138831],[108.771011,34.138824],[108.770925,34.139415],[108.769653,34.139224],[108.769069,34.139173],[108.768556,34.139108],[108.768492,34.139905],[108.768505,34.140314],[108.768476,34.140638],[108.768409,34.14098],[108.76839,34.141311],[108.766062,34.140989],[108.766065,34.140955],[108.76578,34.14092],[108.765813,34.140756],[108.765295,34.140707],[108.764863,34.140643],[108.764863,34.140645],[108.764648,34.140611],[108.764474,34.140585],[108.764434,34.140764],[108.764434,34.140763],[108.764249,34.141584],[108.764243,34.141697],[108.764198,34.141972],[108.764139,34.142667],[108.763857,34.142625],[108.76386,34.14268],[108.763581,34.142645],[108.763589,34.142583],[108.762513,34.142418],[108.762658,34.142896],[108.760236,34.14284],[108.758514,34.142771],[108.758648,34.141992],[108.758705,34.141739],[108.756859,34.14159],[108.756846,34.141706],[108.756741,34.141779],[108.75672,34.14181],[108.756653,34.14219],[108.756621,34.142316],[108.755679,34.142054],[108.755652,34.142398],[108.755625,34.142516],[108.755577,34.142569],[108.755478,34.142609],[108.755349,34.142607],[108.755132,34.142578],[108.755038,34.142578],[108.754987,34.142607],[108.754931,34.142676],[108.754624,34.143457],[108.754561,34.143617],[108.754534,34.143635],[108.754472,34.143677],[108.754228,34.143635],[108.753877,34.143574],[108.753877,34.143575],[108.753662,34.143537],[108.753528,34.143513],[108.753448,34.143926],[108.753448,34.143923],[108.753225,34.145064],[108.753276,34.145155],[108.753166,34.145502],[108.753123,34.145515],[108.752997,34.145506],[108.752246,34.145369],[108.752061,34.145353],[108.752015,34.145375],[108.751983,34.145433],[108.751932,34.145446],[108.751876,34.145442],[108.751626,34.145417],[108.751272,34.145324],[108.751272,34.145333],[108.751232,34.145342],[108.751194,34.145344],[108.750991,34.145915],[108.75094,34.145657],[108.750838,34.145546],[108.750983,34.145313],[108.750551,34.144942],[108.750342,34.144947],[108.749985,34.144989],[108.749647,34.145437],[108.749588,34.145493],[108.749542,34.145657],[108.749553,34.145986],[108.749548,34.146456],[108.749518,34.146667],[108.749207,34.146867],[108.748606,34.147038],[108.748561,34.147764],[108.748461,34.147983],[108.748392,34.148474],[108.748284,34.148843],[108.748233,34.149229],[108.747928,34.15005],[108.747619,34.150359],[108.747431,34.150474],[108.746887,34.150723],[108.745315,34.151271],[108.744481,34.151622],[108.74344,34.152183],[108.742719,34.152549],[108.742716,34.152549],[108.742354,34.152727],[108.741986,34.152905],[108.741987,34.152905],[108.741863,34.152964],[108.741125,34.153522],[108.739248,34.155883],[108.738277,34.15686],[108.738019,34.157088],[108.737523,34.157452],[108.73608,34.159059],[108.734643,34.16062],[108.734259,34.161075],[108.733945,34.161547],[108.733917,34.161641],[108.733916,34.161641],[108.733862,34.161818],[108.733806,34.161996],[108.733808,34.161996],[108.733768,34.162124],[108.733736,34.162495],[108.733661,34.162937],[108.733575,34.164313],[108.733578,34.164599],[108.733599,34.164812],[108.733733,34.165724],[108.733827,34.166124],[108.734052,34.166767],[108.734643,34.167557],[108.736222,34.16908],[108.737314,34.169821],[108.737872,34.170305],[108.738242,34.170698],[108.738254,34.170731],[108.738253,34.170731],[108.738315,34.170908],[108.738438,34.171461],[108.738451,34.172448],[108.738424,34.173005],[108.738368,34.173316],[108.738229,34.173749],[108.738089,34.174119],[108.737684,34.17502],[108.737523,34.17524],[108.737242,34.175762],[108.737231,34.175988],[108.737263,34.176618],[108.737515,34.177262],[108.737993,34.178043],[108.738029,34.178055],[108.738615,34.177907],[108.741488,34.17731],[108.741498,34.177277],[108.741477,34.17716],[108.741375,34.176938],[108.741265,34.176616],[108.738242,34.177148],[108.738014,34.176811],[108.737966,34.176596],[108.742327,34.175959],[108.742346,34.176234],[108.742461,34.17623],[108.742461,34.17623],[108.742676,34.176223],[108.74289,34.176214],[108.743947,34.17617],[108.743888,34.175684],[108.745041,34.175622],[108.744956,34.173953],[108.745463,34.173951],[108.745385,34.172972],[108.747662,34.173032],[108.747614,34.171681],[108.747713,34.171729],[108.747917,34.171774],[108.749521,34.171758],[108.750347,34.171736],[108.750315,34.172726],[108.750419,34.172717],[108.750406,34.173514],[108.750755,34.173514],[108.750765,34.173676],[108.751232,34.173673],[108.751978,34.173682],[108.75197,34.173798],[108.753448,34.173823],[108.753448,34.173822],[108.753662,34.173827],[108.753791,34.173827],[108.753735,34.175961],[108.753877,34.175959],[108.755317,34.175941],[108.755448,34.177006],[108.755282,34.177146],[108.755027,34.177259],[108.754842,34.177288],[108.754722,34.178609],[108.756438,34.178626],[108.756414,34.178267],[108.756449,34.177659],[108.75713,34.177663],[108.75713,34.17982],[108.75713,34.179989],[108.757868,34.180044],[108.757881,34.181653],[108.759853,34.181651],[108.759826,34.183186],[108.760242,34.183184],[108.76029,34.183228],[108.760303,34.18341],[108.760335,34.183466],[108.760421,34.183497],[108.760732,34.183499],[108.760727,34.183588],[108.760781,34.184446],[108.760893,34.185254],[108.760915,34.185611],[108.760714,34.186255],[108.760456,34.187291],[108.76155,34.187488],[108.761974,34.185676],[108.763224,34.185753],[108.764597,34.185869],[108.764485,34.185143],[108.764648,34.185128],[108.764863,34.185105],[108.766218,34.184963],[108.765984,34.185775],[108.765228,34.185611],[108.764882,34.186166],[108.764863,34.1862],[108.764863,34.186201],[108.764648,34.186588],[108.764434,34.186974],[108.764434,34.186972],[108.763981,34.187786],[108.764361,34.187959],[108.763726,34.188908],[108.763608,34.189086],[108.76349,34.189263],[108.76327,34.189596],[108.763793,34.189763],[108.762969,34.190756],[108.763879,34.191333],[108.763369,34.192172],[108.764332,34.192525],[108.764469,34.192904],[108.764648,34.192975],[108.764863,34.193058],[108.76574,34.193394],[108.76545,34.194479],[108.766212,34.194646],[108.765694,34.196731],[108.766263,34.196893],[108.766537,34.196946],[108.76854,34.196995],[108.76843,34.197465],[108.768326,34.197818],[108.768261,34.197843],[108.76824,34.197867],[108.768197,34.197996],[108.768167,34.198082],[108.768465,34.198164],[108.768463,34.198173],[108.768114,34.199604],[108.767712,34.199513],[108.767489,34.200367],[108.767551,34.200456],[108.767425,34.200917],[108.76831,34.201019],[108.768597,34.199921],[108.769324,34.200156],[108.76894,34.201765],[108.770431,34.20196],[108.770437,34.201936],[108.77151,34.20208],[108.772835,34.202286],[108.772773,34.202579],[108.774363,34.202796],[108.775412,34.202912],[108.775635,34.202945],[108.77601,34.202998],[108.775863,34.204061],[108.776783,34.20424],[108.777011,34.203242],[108.776971,34.20318],[108.776769,34.203096],[108.777115,34.201436],[108.777319,34.200793],[108.777335,34.200797],[108.778083,34.198351],[108.778081,34.198351],[108.778137,34.198173],[108.778191,34.197996],[108.778192,34.197996],[108.778301,34.197647],[108.778432,34.197674],[108.779159,34.195531],[108.779444,34.195642],[108.781192,34.196234],[108.781927,34.196425],[108.782627,34.193579],[108.784392,34.193969],[108.784644,34.192991],[108.783335,34.19278],[108.783529,34.192081],[108.784972,34.192323],[108.785417,34.192418],[108.786002,34.192496],[108.786278,34.191169],[108.786621,34.191214],[108.786836,34.191239],[108.78712,34.191273],[108.787262,34.190271],[108.787292,34.190102],[108.787321,34.190029],[108.787391,34.189971],[108.787764,34.189798],[108.788201,34.189572],[108.789547,34.189605],[108.789454,34.190228],[108.790513,34.190248],[108.790572,34.190481],[108.790572,34.190963],[108.79165,34.190969],[108.791685,34.192367],[108.792286,34.192392],[108.792286,34.192611],[108.792613,34.192629],[108.792393,34.194708],[108.79316,34.194759],[108.793868,34.194821],[108.794823,34.194868],[108.794764,34.196183],[108.795692,34.196219],[108.795582,34.197279],[108.796543,34.197352],[108.79643,34.198173],[108.796229,34.199726],[108.79754,34.199855],[108.797559,34.199699],[108.797607,34.199704],[108.797822,34.199721],[108.798074,34.199742],[108.798173,34.199278],[108.798772,34.19936],[108.79871,34.199921],[108.802857,34.200017],[108.80284,34.199892],[108.805673,34.19991],[108.80576,34.198351],[108.805756,34.198351],[108.805767,34.198173],[108.805861,34.196629],[108.805984,34.1928],[108.80825,34.19244],[108.808594,34.192414],[108.808808,34.192396],[108.809543,34.192334],[108.809524,34.19114],[108.809683,34.191021],[108.812743,34.191045],[108.812861,34.190153],[108.812936,34.189434],[108.812952,34.189263],[108.81295,34.189263],[108.812966,34.189086],[108.813229,34.186272],[108.813601,34.186277],[108.813666,34.186088],[108.813604,34.186024],[108.813658,34.183444],[108.813422,34.183452],[108.813411,34.183088],[108.813261,34.183084],[108.81328,34.181291],[108.812107,34.181362],[108.812083,34.181338],[108.812067,34.180175],[108.812065,34.179998],[108.812062,34.17982],[108.812063,34.17982],[108.812059,34.179283],[108.810174,34.179305],[108.810152,34.178089],[108.810426,34.176787],[108.808808,34.176797],[108.808808,34.176798],[108.808594,34.176798],[108.808379,34.1768],[108.808379,34.176799],[108.806349,34.176809],[108.806378,34.176159],[108.806365,34.176139],[108.805394,34.176157],[108.80526,34.17635],[108.803036,34.176403],[108.803036,34.176425],[108.802666,34.176387],[108.802661,34.176312],[108.802942,34.17629],[108.802865,34.175975],[108.802736,34.175872],[108.802725,34.175799],[108.802752,34.175766],[108.802714,34.175722],[108.802521,34.175575],[108.802414,34.174497],[108.802215,34.170908],[108.802205,34.170731],[108.802206,34.170731],[108.802186,34.170351],[108.802189,34.170327],[108.801781,34.170371],[108.801255,34.170398],[108.801164,34.16963],[108.801019,34.169535],[108.800807,34.167193],[108.798772,34.167218],[108.798747,34.166765],[108.798664,34.165465],[108.798632,34.164541],[108.798589,34.163909],[108.798549,34.162797],[108.799123,34.162786],[108.7993,34.161996],[108.7993,34.161996],[108.79934,34.161818],[108.799378,34.161641],[108.79938,34.161641],[108.799439,34.161376],[108.80088,34.161636],[108.800916,34.161641],[108.801188,34.161674],[108.801746,34.161723],[108.802119,34.161818],[108.802331,34.161871],[108.802481,34.161891],[108.802486,34.161818],[108.8025,34.161641],[108.802501,34.161641],[108.802532,34.161263],[108.802556,34.161181],[108.802548,34.160919],[108.802468,34.160768],[108.802427,34.16066],[108.802755,34.160819],[108.803103,34.160928],[108.803235,34.161004],[108.803294,34.161017],[108.803653,34.161283],[108.803889,34.161399],[108.804463,34.161641],[108.804573,34.161687],[108.80493,34.161818],[108.805126,34.161889],[108.805276,34.161996],[108.805367,34.16206],[108.805662,34.162202],[108.806252,34.162588],[108.806555,34.16277],[108.807285,34.162784],[108.807329,34.161996],[108.807328,34.161996],[108.807338,34.161818],[108.807349,34.161641],[108.807351,34.161641],[108.807355,34.161587],[108.808122,34.161601],[108.808307,34.158968],[108.808379,34.158977],[108.808417,34.158981],[108.808594,34.158999],[108.811609,34.159326],[108.811729,34.157395],[108.813132,34.157539],[108.813121,34.157484],[108.813266,34.15745],[108.813301,34.157452],[108.813419,34.156147],[108.813341,34.156085],[108.812711,34.156079],[108.812858,34.156542],[108.811477,34.156514],[108.810876,34.156463],[108.81101,34.155359],[108.811359,34.155366],[108.811364,34.15512],[108.810482,34.155082],[108.808808,34.155052],[108.808808,34.155053],[108.808747,34.155051],[108.808865,34.153957],[108.808889,34.15332],[108.808808,34.153313],[108.808808,34.153313],[108.808594,34.153295],[108.808256,34.153313],[108.808282,34.152905],[108.80828,34.152905],[108.808293,34.152727],[108.808304,34.152549],[108.808305,34.152549],[108.808323,34.152268],[108.808371,34.151793],[108.808427,34.151466],[108.808508,34.150751],[108.808594,34.150751],[108.808808,34.150755],[108.810316,34.150776],[108.810592,34.150763],[108.810672,34.149626],[108.811756,34.149764],[108.811912,34.149799],[108.812577,34.150396],[108.81262,34.15023],[108.812708,34.149351],[108.813352,34.149404],[108.813403,34.148745],[108.813733,34.148771],[108.813856,34.147793],[108.815071,34.147852],[108.815667,34.147897],[108.815817,34.146745],[108.815511,34.146738],[108.815541,34.146288],[108.814996,34.146245],[108.815004,34.144865],[108.81483,34.144845],[108.813832,34.144785],[108.813848,34.14472],[108.813988,34.144698],[108.814012,34.144676],[108.814031,34.144547],[108.814017,34.144523],[108.813982,34.144503],[108.813918,34.144507],[108.813856,34.144541],[108.813803,34.144538],[108.813623,34.144487],[108.813642,34.14435],[108.813671,34.143812],[108.813668,34.143812],[108.813677,34.143717],[108.812593,34.143701],[108.812597,34.143812],[108.812606,34.14411],[108.812711,34.144108],[108.812722,34.144372],[108.812606,34.144425],[108.812437,34.144423],[108.812242,34.144199],[108.81159,34.144181],[108.811598,34.144694],[108.810329,34.144669],[108.810356,34.143812],[108.810353,34.143812],[108.810359,34.143721],[108.809659,34.143701],[108.808808,34.14366],[108.808808,34.143661],[108.808594,34.14365],[108.808517,34.143646],[108.808379,34.143639],[108.808379,34.143638],[108.808323,34.143635],[108.808242,34.14363],[108.808229,34.143459],[108.808229,34.143458],[108.808229,34.143457],[108.808229,34.143457],[108.808277,34.142922],[108.808312,34.142669],[108.808065,34.142636],[108.805903,34.142452],[108.805989,34.141224],[108.804522,34.14114],[108.803943,34.141084],[108.803715,34.141086],[108.802832,34.141042],[108.802755,34.14187],[108.802414,34.141619],[108.802181,34.141375],[108.801754,34.140578],[108.801593,34.142598],[108.801317,34.142598],[108.801373,34.141777],[108.801062,34.141752],[108.801124,34.140922],[108.800676,34.140909],[108.800654,34.141268],[108.800011,34.141697],[108.800072,34.14042],[108.797916,34.140287],[108.797862,34.140986],[108.797822,34.140986],[108.797822,34.140986],[108.797607,34.140982],[108.797393,34.140975],[108.797393,34.140975],[108.795861,34.140867],[108.795813,34.140878],[108.79566,34.140864],[108.795647,34.140878],[108.795606,34.141328],[108.793431,34.141157],[108.793386,34.141126],[108.793412,34.140958],[108.791782,34.140829],[108.791479,34.140787],[108.791503,34.140389],[108.791637,34.139259],[108.791795,34.137628],[108.791358,34.137585],[108.789631,34.137323],[108.788265,34.13713],[108.787418,34.136309],[108.787568,34.135643],[108.786889,34.135166],[108.787016,34.134719],[108.787015,34.134719],[108.787066,34.134542],[108.787117,34.134364],[108.787117,34.134364],[108.7873,34.133731],[108.787394,34.133361],[108.787922,34.133392],[108.788582,34.133476],[108.788812,34.132335],[108.788829,34.132337],[108.789048,34.131116],[108.786964,34.130759],[108.787179,34.12928],[108.786836,34.129254],[108.786621,34.129238],[108.786407,34.129222],[108.786407,34.129221],[108.785905,34.129182],[108.78568,34.130714],[108.785572,34.13071],[108.78524,34.130661],[108.784695,34.130625],[108.783901,34.130596],[108.78311,34.130512]]]}}]}