{"type":"FeatureCollection","features":[{"type":"Feature","properties":{"FID":4,"NAME":"徐家湾街道","code":"610112004000","PAC":"610112","省":"陕西省","省代码":"610000","市":"西安市","市代码":"610100","类型":"乡镇","grade":4,"layer":"乡镇"},"geometry":{"type":"Polygon","coordinates":[[[108.940132,34.348217],[108.940148,34.348589],[108.938737,34.348525],[108.938182,34.348536],[108.938161,34.349969],[108.938225,34.349971],[108.938222,34.350321],[108.938155,34.350319],[108.938136,34.351729],[108.938622,34.35174],[108.938952,34.35163],[108.939123,34.351767],[108.93984,34.351847],[108.939745,34.35233],[108.939746,34.35233],[108.939711,34.352507],[108.939598,34.353098],[108.939574,34.353574],[108.939638,34.353578],[108.93985,34.353543],[108.939995,34.353434],[108.940207,34.353105],[108.940215,34.353105],[108.940408,34.353118],[108.94043,34.353158],[108.940711,34.353663],[108.940961,34.354181],[108.940926,34.354179],[108.940929,34.354404],[108.941068,34.354407],[108.941462,34.355228],[108.941216,34.356227],[108.940682,34.357436],[108.94043,34.35824],[108.939738,34.36116],[108.939693,34.361399],[108.93966,34.361576],[108.939628,34.361753],[108.939625,34.361753],[108.939432,34.362827],[108.939912,34.36286],[108.939705,34.364293],[108.940215,34.364344],[108.940215,34.364344],[108.94043,34.364364],[108.941682,34.364481],[108.942138,34.364581],[108.943037,34.364565],[108.943208,34.364486],[108.943841,34.364432],[108.943887,34.364355],[108.943917,34.364244],[108.94415,34.363968],[108.944281,34.363872],[108.944394,34.363863],[108.944179,34.365923],[108.94385,34.365903],[108.943718,34.366899],[108.945137,34.367069],[108.94507,34.367468],[108.945349,34.367647],[108.945679,34.367725],[108.94574,34.367455],[108.945848,34.367158],[108.94665,34.367293],[108.946768,34.367441],[108.947001,34.36747],[108.947017,34.367355],[108.948157,34.36753],[108.9485,34.367519],[108.948688,34.367556],[108.948731,34.367043],[108.949718,34.367074],[108.950008,34.367607],[108.950131,34.367574],[108.95045,34.367399],[108.950563,34.366558],[108.951083,34.366529],[108.951145,34.366104],[108.951201,34.366111],[108.951416,34.366135],[108.951631,34.366159],[108.952454,34.366252],[108.952532,34.366299],[108.953138,34.366184],[108.953251,34.36612],[108.953398,34.365781],[108.953677,34.3653],[108.955638,34.365418],[108.955627,34.365347],[108.955608,34.364444],[108.956633,34.364437],[108.95659,34.364986],[108.956534,34.366762],[108.957145,34.366755],[108.957126,34.366199],[108.957653,34.366199],[108.957561,34.365097],[108.957558,34.364459],[108.957566,34.364277],[108.957639,34.364213],[108.957636,34.363323],[108.957663,34.363106],[108.962402,34.363084],[108.965144,34.363069],[108.970792,34.363077],[108.970787,34.364167],[108.970706,34.364167],[108.970712,34.364388],[108.97227,34.364382],[108.972281,34.365039],[108.972487,34.365019],[108.972697,34.365039],[108.973147,34.365039],[108.973198,34.365037],[108.97326,34.365032],[108.973389,34.36503],[108.973603,34.365013],[108.973603,34.365015],[108.974067,34.364982],[108.974665,34.365323],[108.974985,34.365303],[108.975942,34.365991],[108.977104,34.366666],[108.977452,34.366888],[108.980051,34.368495],[108.982637,34.370103],[108.982771,34.370645],[108.982815,34.370822],[108.983055,34.371794],[108.982607,34.374269],[108.9832,34.375057],[108.984305,34.375737],[108.984375,34.375785],[108.98736,34.377771],[108.988342,34.378349],[108.988844,34.378559],[108.991751,34.378984],[108.993921,34.377993],[108.995147,34.377263],[108.995147,34.377262],[108.995361,34.377136],[108.995576,34.377007],[108.996182,34.376644],[108.997065,34.375934],[108.996968,34.375794],[108.996936,34.375504],[108.999532,34.375433],[108.999701,34.375422],[109.001238,34.375383],[109.001675,34.375371],[109.00171,34.375881],[109.001791,34.375883],[109.002166,34.37598],[109.002751,34.376098],[109.003108,34.376149],[109.003454,34.376135],[109.004355,34.375967],[109.004661,34.375936],[109.004661,34.375905],[109.006133,34.375959],[109.006133,34.375958],[109.006348,34.375965],[109.006562,34.375972],[109.007729,34.376011],[109.007724,34.375834],[109.007804,34.372533],[109.007772,34.370645],[109.007769,34.370317],[109.007758,34.366748],[109.007742,34.365524],[109.00774,34.363042],[109.007729,34.361576],[109.007729,34.361399],[109.007729,34.361399],[109.007726,34.360542],[109.007767,34.35736],[109.007708,34.356382],[109.007831,34.355494],[109.006562,34.355492],[109.006348,34.355492],[109.006133,34.355492],[109.006133,34.35549],[109.005251,34.355485],[109.005243,34.355416],[109.005218,34.35539],[109.005157,34.35537],[109.004856,34.355357],[109.004846,34.355483],[109.00439,34.355481],[109.004376,34.35543],[109.004331,34.355401],[109.003094,34.355407],[109.003091,34.355476],[109.002222,34.355487],[109.002056,34.354794],[109.001992,34.354212],[109.001238,34.354229],[108.998398,34.354187],[108.995576,34.354175],[108.995576,34.354176],[108.995361,34.354174],[108.995147,34.354174],[108.995147,34.354173],[108.99494,34.354172],[108.994916,34.354004],[108.994777,34.353999],[108.994782,34.353142],[108.994331,34.35314],[108.992988,34.353155],[108.992947,34.354176],[108.992961,34.354619],[108.992958,34.354993],[108.992371,34.354991],[108.991252,34.354925],[108.988734,34.354847],[108.988758,34.353649],[108.987588,34.353558],[108.986411,34.353499],[108.986422,34.353689],[108.986282,34.353669],[108.986314,34.35521],[108.98459,34.355193],[108.98459,34.355193],[108.984375,34.35519],[108.9843,34.355188],[108.984295,34.355144],[108.984174,34.355148],[108.984171,34.355188],[108.98416,34.355188],[108.98416,34.355188],[108.983868,34.355184],[108.983849,34.355197],[108.983498,34.355195],[108.983482,34.354925],[108.983278,34.354936],[108.983117,34.35492],[108.982723,34.354947],[108.98257,34.354923],[108.981425,34.354896],[108.981379,34.354632],[108.979662,34.35463],[108.97966,34.354345],[108.979496,34.354334],[108.979386,34.354305],[108.978976,34.354298],[108.978938,34.353891],[108.978783,34.353151],[108.978581,34.353133],[108.978115,34.353127],[108.978056,34.353085],[108.978026,34.352828],[108.977959,34.352693],[108.977934,34.352684],[108.977932,34.352684],[108.977774,34.352628],[108.977492,34.352566],[108.9775,34.352507],[108.977532,34.35233],[108.977659,34.351623],[108.977737,34.35134],[108.977763,34.350239],[108.976108,34.350124],[108.973944,34.350031],[108.973791,34.350029],[108.973858,34.350345],[108.973823,34.350534],[108.973767,34.350653],[108.973603,34.350768],[108.973603,34.350768],[108.973587,34.350779],[108.973389,34.350864],[108.973279,34.350908],[108.973174,34.350917],[108.973174,34.350915],[108.97282,34.350939],[108.972514,34.350939],[108.972573,34.351929],[108.973115,34.351926],[108.973118,34.352046],[108.973103,34.35233],[108.973102,34.352347],[108.97311,34.352507],[108.973112,34.352542],[108.972887,34.35254],[108.972889,34.352684],[108.97289,34.352724],[108.972281,34.352737],[108.972233,34.35273],[108.972232,34.352684],[108.97223,34.352684],[108.972227,34.352507],[108.972222,34.35233],[108.972224,34.35233],[108.972222,34.352197],[108.972249,34.35157],[108.971795,34.351636],[108.971334,34.351685],[108.970554,34.35126],[108.970138,34.351295],[108.970095,34.35132],[108.969829,34.351404],[108.96895,34.351459],[108.968934,34.351395],[108.968145,34.351461],[108.967971,34.351758],[108.967536,34.351853],[108.966903,34.351951],[108.966847,34.351955],[108.966836,34.352442],[108.965828,34.352507],[108.965487,34.352529],[108.965479,34.352684],[108.965476,34.352752],[108.965342,34.352752],[108.965361,34.352989],[108.964148,34.353025],[108.964084,34.353029],[108.964063,34.352684],[108.964063,34.352684],[108.964052,34.352507],[108.964052,34.35233],[108.964052,34.352274],[108.964044,34.352126],[108.964127,34.352124],[108.964116,34.351971],[108.963789,34.351997],[108.963338,34.351984],[108.963352,34.351101],[108.963298,34.351101],[108.96329,34.350941],[108.963159,34.350908],[108.963059,34.35091],[108.963065,34.350292],[108.962917,34.350301],[108.962915,34.350237],[108.962856,34.350235],[108.962834,34.350049],[108.962617,34.350033],[108.962617,34.350033],[108.962402,34.350018],[108.962086,34.349996],[108.962027,34.349838],[108.961925,34.349309],[108.961887,34.349001],[108.961842,34.348817],[108.961818,34.348352],[108.961193,34.348315],[108.960935,34.348308],[108.959286,34.348335],[108.959326,34.348893],[108.958913,34.348891],[108.958932,34.348412],[108.958425,34.348392],[108.958433,34.348293],[108.958022,34.348299],[108.958012,34.348913],[108.956512,34.348919],[108.956209,34.348941],[108.955681,34.348992],[108.955638,34.348766],[108.954938,34.348784],[108.954957,34.348937],[108.954527,34.348948],[108.954527,34.349285],[108.954514,34.34946],[108.953642,34.349519],[108.953642,34.349743],[108.952926,34.349736],[108.952864,34.349876],[108.951751,34.349887],[108.951738,34.349347],[108.951631,34.349344],[108.951631,34.349344],[108.951416,34.34934],[108.951298,34.349338],[108.951303,34.349263],[108.951201,34.349263],[108.951201,34.349261],[108.949793,34.34924],[108.949817,34.348984],[108.949828,34.34752],[108.949799,34.347112],[108.949761,34.347101],[108.948463,34.347086],[108.94757,34.347041],[108.94754,34.346204],[108.947487,34.346213],[108.945588,34.346282],[108.945488,34.346262],[108.945464,34.345234],[108.945397,34.344659],[108.942747,34.344709],[108.942702,34.346138],[108.940644,34.346082],[108.940644,34.346085],[108.940486,34.346078],[108.940612,34.346483],[108.940644,34.346548],[108.940644,34.346549],[108.940894,34.347059],[108.941108,34.347571],[108.941031,34.348182],[108.940644,34.348166],[108.940644,34.348166],[108.94043,34.348158],[108.940231,34.348149],[108.940215,34.348162],[108.940215,34.34816],[108.940132,34.348217]]]}}]}