{
  "type": "FeatureCollection",
  "features": [
    {
      "type": "Feature",
      "properties": {
        "FID": 1,
        "NAME": "小寨路街道",
        "code": "610113001000",
        "PAC": "610113",
        "省": "陕西省",
        "省代码": "610000",
        "市": "西安市",
        "市代码": "610100",
        "类型": "乡镇",
        "grade": 4,
        "layer": "乡镇"
      },
      "geometry": {
        "type": "MultiPolygon",
        "coordinates": [
          [
            [
              [
                108.80247642,
                34.23833662
              ],
              [
                108.80401642,
                34.2395196
              ],
              [
                108.80373442,
                34.23624466
              ],
              [
                108.80371642,
                34.23603866
              ],
              [
                108.80368842,
                34.23571467
              ],
              [
                108.80344942,
                34.23452569
              ],
              [
                108.80345642,
                34.2342497
              ],
              [
                108.80365242,
                34.23363671
              ],
              [
                108.80412542,
                34.23254473
              ],
              [
                108.80533642,
                34.23308372
              ],
              [
                108.80536842,
                34.23320771
              ],
              [
                108.80605542,
                34.23352671
              ],
              [
                108.80641342,
                34.23226273
              ],
              [
                108.80824142,
                34.23235373
              ],
              [
                108.80814242,
                34.23330371
              ],
              [
                108.80929842,
                34.23329471
              ],
              [
                108.80934342,
                34.23156874
              ],
              [
                108.80996842,
                34.23145675
              ],
              [
                108.81005242,
                34.22992777
              ],
              [
                108.81121342,
                34.22993177
              ],
              [
                108.81129342,
                34.22868279
              ],
              [
                108.81519242,
                34.2285768
              ],
              [
                108.81525442,
                34.22788681
              ],
              [
                108.81601842,
                34.22785781
              ],
              [
                108.81602442,
                34.22720882
              ],
              [
                108.81605342,
                34.22421187
              ],
              [
                108.81590242,
                34.22419987
              ],
              [
                108.81521842,
                34.22442187
              ],
              [
                108.81518342,
                34.2229249
              ],
              [
                108.81448642,
                34.22300089
              ],
              [
                108.81483842,
                34.22127892
              ],
              [
                108.81291142,
                34.22121092
              ],
              [
                108.81216442,
                34.22146992
              ],
              [
                108.81153742,
                34.216828
              ],
              [
                108.81020342,
                34.216793
              ],
              [
                108.81000642,
                34.21502703
              ],
              [
                108.81105142,
                34.21497203
              ],
              [
                108.81102542,
                34.21166709
              ],
              [
                108.81102342,
                34.2114531
              ],
              [
                108.81101742,
                34.21069511
              ],
              [
                108.81159342,
                34.21072811
              ],
              [
                108.81160842,
                34.2112461
              ],
              [
                108.81667542,
                34.21090711
              ],
              [
                108.81678942,
                34.21000812
              ],
              [
                108.81752042,
                34.21032812
              ],
              [
                108.81732542,
                34.21159909
              ],
              [
                108.82090142,
                34.21165609
              ],
              [
                108.82096142,
                34.21171809
              ],
              [
                108.82074042,
                34.21378706
              ],
              [
                108.82203442,
                34.21385905
              ],
              [
                108.82193842,
                34.21582302
              ],
              [
                108.82514142,
                34.21612601
              ],
              [
                108.82647142,
                34.21570102
              ],
              [
                108.82612742,
                34.217062
              ],
              [
                108.82688642,
                34.217183
              ],
              [
                108.82843642,
                34.21384405
              ],
              [
                108.82846842,
                34.21365006
              ],
              [
                108.82701042,
                34.21350306
              ],
              [
                108.82751442,
                34.21182209
              ],
              [
                108.82577642,
                34.2113841
              ],
              [
                108.82574442,
                34.2113221
              ],
              [
                108.82738342,
                34.20940413
              ],
              [
                108.82648842,
                34.20899114
              ],
              [
                108.82717042,
                34.20797516
              ],
              [
                108.82569042,
                34.20663018
              ],
              [
                108.82418642,
                34.20798816
              ],
              [
                108.82335642,
                34.20732117
              ],
              [
                108.82426542,
                34.2053332
              ],
              [
                108.82250842,
                34.20365223
              ],
              [
                108.82285742,
                34.20161827
              ],
              [
                108.82356842,
                34.20166227
              ],
              [
                108.82369142,
                34.20087628
              ],
              [
                108.82182042,
                34.20076428
              ],
              [
                108.82160842,
                34.20133827
              ],
              [
                108.82220042,
                34.20142527
              ],
              [
                108.82211342,
                34.20198926
              ],
              [
                108.82119542,
                34.20192726
              ],
              [
                108.82128542,
                34.20127027
              ],
              [
                108.81963742,
                34.20082428
              ],
              [
                108.81975342,
                34.1997113
              ],
              [
                108.82040642,
                34.19445539
              ],
              [
                108.82850242,
                34.19577837
              ],
              [
                108.82885842,
                34.19520538
              ],
              [
                108.83195042,
                34.19569937
              ],
              [
                108.83469342,
                34.19613836
              ],
              [
                108.83524442,
                34.19316742
              ],
              [
                108.83650742,
                34.1944074
              ],
              [
                108.83691242,
                34.19179944
              ],
              [
                108.83904542,
                34.19193144
              ],
              [
                108.83983342,
                34.1882645
              ],
              [
                108.84167742,
                34.1883565
              ],
              [
                108.84338942,
                34.1884425
              ],
              [
                108.84368442,
                34.18652753
              ],
              [
                108.84308742,
                34.18647153
              ],
              [
                108.84325342,
                34.18491456
              ],
              [
                108.84414642,
                34.18540255
              ],
              [
                108.84466842,
                34.18312659
              ],
              [
                108.84774142,
                34.18309159
              ],
              [
                108.84786942,
                34.18200561
              ],
              [
                108.85100742,
                34.18209461
              ],
              [
                108.85108042,
                34.18125163
              ],
              [
                108.85231542,
                34.18115263
              ],
              [
                108.85232542,
                34.18008765
              ],
              [
                108.85275842,
                34.18005765
              ],
              [
                108.85268942,
                34.18211961
              ],
              [
                108.85484842,
                34.18231261
              ],
              [
                108.85825942,
                34.18140562
              ],
              [
                108.85922042,
                34.18114963
              ],
              [
                108.85927842,
                34.18110463
              ],
              [
                108.85948342,
                34.18093963
              ],
              [
                108.86064942,
                34.18001065
              ],
              [
                108.86235942,
                34.18003765
              ],
              [
                108.86194842,
                34.17786968
              ],
              [
                108.86269342,
                34.17793268
              ],
              [
                108.86278742,
                34.17887267
              ],
              [
                108.86443042,
                34.17889067
              ],
              [
                108.86451642,
                34.18123463
              ],
              [
                108.87039542,
                34.18123463
              ],
              [
                108.87073742,
                34.18122463
              ],
              [
                108.87242342,
                34.18117563
              ],
              [
                108.87411042,
                34.18124463
              ],
              [
                108.87578742,
                34.18128263
              ],
              [
                108.87567142,
                34.18371258
              ],
              [
                108.87630642,
                34.18370858
              ],
              [
                108.87639842,
                34.18133862
              ],
              [
                108.87697642,
                34.18132462
              ],
              [
                108.87696142,
                34.18371958
              ],
              [
                108.87740542,
                34.18372658
              ],
              [
                108.87743642,
                34.18135562
              ],
              [
                108.87771742,
                34.18135062
              ],
              [
                108.87771942,
                34.18002065
              ],
              [
                108.87772142,
                34.17894167
              ],
              [
                108.87706042,
                34.17865567
              ],
              [
                108.87698642,
                34.17845867
              ],
              [
                108.87721942,
                34.1768317
              ],
              [
                108.87867842,
                34.17622871
              ],
              [
                108.88086642,
                34.17605072
              ],
              [
                108.88090942,
                34.17541173
              ],
              [
                108.88219742,
                34.17526973
              ],
              [
                108.88211142,
                34.17289077
              ],
              [
                108.87756242,
                34.17296177
              ],
              [
                108.87755642,
                34.17189979
              ],
              [
                108.87754042,
                34.16930784
              ],
              [
                108.87753342,
                34.16815886
              ],
              [
                108.87845142,
                34.16808586
              ],
              [
                108.87845242,
                34.16668288
              ],
              [
                108.87809742,
                34.16610689
              ],
              [
                108.87805342,
                34.16603589
              ],
              [
                108.87785142,
                34.1657079
              ],
              [
                108.87818342,
                34.1656779
              ],
              [
                108.87894442,
                34.1657639
              ],
              [
                108.88212842,
                34.16612289
              ],
              [
                108.88487342,
                34.1655909
              ],
              [
                108.88575842,
                34.16667688
              ],
              [
                108.88597542,
                34.16736887
              ],
              [
                108.88938742,
                34.16745087
              ],
              [
                108.88945142,
                34.16886984
              ],
              [
                108.89198942,
                34.16887584
              ],
              [
                108.89209442,
                34.16939583
              ],
              [
                108.89335742,
                34.16941683
              ],
              [
                108.89345242,
                34.17058981
              ],
              [
                108.89411842,
                34.17068981
              ],
              [
                108.89409542,
                34.17206179
              ],
              [
                108.89699442,
                34.17202279
              ],
              [
                108.89696442,
                34.1714198
              ],
              [
                108.89744242,
                34.1713898
              ],
              [
                108.89740742,
                34.17028782
              ],
              [
                108.89802042,
                34.17029882
              ],
              [
                108.89832442,
                34.16934183
              ],
              [
                108.90120742,
                34.16929283
              ],
              [
                108.90139842,
                34.16887584
              ],
              [
                108.90448442,
                34.16852885
              ],
              [
                108.90489842,
                34.16963983
              ],
              [
                108.90529642,
                34.17168379
              ],
              [
                108.90596842,
                34.17173279
              ],
              [
                108.90617542,
                34.17221678
              ],
              [
                108.90631042,
                34.17223278
              ],
              [
                108.90664042,
                34.17205179
              ],
              [
                108.90676342,
                34.17209179
              ],
              [
                108.90701242,
                34.17270278
              ],
              [
                108.90749042,
                34.17267378
              ],
              [
                108.90726942,
                34.17183879
              ],
              [
                108.90783342,
                34.1713308
              ],
              [
                108.90818142,
                34.17255578
              ],
              [
                108.90985542,
                34.17285777
              ],
              [
                108.91172242,
                34.17326577
              ],
              [
                108.91290242,
                34.17349676
              ],
              [
                108.91363242,
                34.17367476
              ],
              [
                108.91573442,
                34.17404675
              ],
              [
                108.91652842,
                34.17406475
              ],
              [
                108.91828842,
                34.17402975
              ],
              [
                108.92264442,
                34.17383376
              ],
              [
                108.92275142,
                34.17411775
              ],
              [
                108.92285842,
                34.17472174
              ],
              [
                108.92296642,
                34.17539673
              ],
              [
                108.92307342,
                34.17584072
              ],
              [
                108.92315942,
                34.17649671
              ],
              [
                108.92324542,
                34.1772607
              ],
              [
                108.92335242,
                34.17807668
              ],
              [
                108.92345942,
                34.17878667
              ],
              [
                108.92359242,
                34.17979865
              ],
              [
                108.92528742,
                34.17949466
              ],
              [
                108.92530042,
                34.17933466
              ],
              [
                108.92442742,
                34.17932566
              ],
              [
                108.92439842,
                34.17872067
              ],
              [
                108.92893842,
                34.17873867
              ],
              [
                108.92919642,
                34.18016564
              ],
              [
                108.93028142,
                34.18021564
              ],
              [
                108.93028042,
                34.17989365
              ],
              [
                108.93059242,
                34.17989865
              ],
              [
                108.93048642,
                34.17882367
              ],
              [
                108.93068042,
                34.17881967
              ],
              [
                108.93089042,
                34.17967765
              ],
              [
                108.93127142,
                34.17964065
              ],
              [
                108.93125742,
                34.17744169
              ],
              [
                108.93436242,
                34.17739969
              ],
              [
                108.93464642,
                34.17858367
              ],
              [
                108.93567342,
                34.17859567
              ],
              [
                108.93572642,
                34.17883967
              ],
              [
                108.93827142,
                34.17930666
              ],
              [
                108.93838542,
                34.17923766
              ],
              [
                108.93845842,
                34.17866567
              ],
              [
                108.94051942,
                34.17866167
              ],
              [
                108.94056642,
                34.17861767
              ],
              [
                108.94041842,
                34.17815468
              ],
              [
                108.94080242,
                34.17804868
              ],
              [
                108.94122442,
                34.17793168
              ],
              [
                108.94070942,
                34.17593372
              ],
              [
                108.94442142,
                34.17603472
              ],
              [
                108.94457742,
                34.17387675
              ],
              [
                108.94497942,
                34.17388875
              ],
              [
                108.94498042,
                34.17416275
              ],
              [
                108.94498342,
                34.17502573
              ],
              [
                108.94848242,
                34.17507973
              ],
              [
                108.94826942,
                34.17619771
              ],
              [
                108.94822242,
                34.1770077
              ],
              [
                108.94819242,
                34.17751969
              ],
              [
                108.94805542,
                34.17839468
              ],
              [
                108.95117342,
                34.17876167
              ],
              [
                108.95118642,
                34.18009765
              ],
              [
                108.95571342,
                34.18022864
              ],
              [
                108.95575642,
                34.18031864
              ],
              [
                108.95559142,
                34.18410658
              ],
              [
                108.95782242,
                34.18437257
              ],
              [
                108.95808342,
                34.18218761
              ],
              [
                108.95936142,
                34.18205361
              ],
              [
                108.95947342,
                34.18204161
              ],
              [
                108.95969042,
                34.17960465
              ],
              [
                108.95969742,
                34.17952466
              ],
              [
                108.96132542,
                34.17956966
              ],
              [
                108.96136642,
                34.17905266
              ],
              [
                108.96172042,
                34.17907266
              ],
              [
                108.96186042,
                34.17888867
              ],
              [
                108.96427842,
                34.17935466
              ],
              [
                108.96752142,
                34.17976265
              ],
              [
                108.96749542,
                34.18035464
              ],
              [
                108.97086442,
                34.18044264
              ],
              [
                108.97107842,
                34.17880367
              ],
              [
                108.97219842,
                34.17888967
              ],
              [
                108.97225542,
                34.17771469
              ],
              [
                108.97297142,
                34.17770569
              ],
              [
                108.97348442,
                34.17628171
              ],
              [
                108.97494942,
                34.1767677
              ],
              [
                108.97483742,
                34.17771769
              ],
              [
                108.97624842,
                34.17790368
              ],
              [
                108.97673742,
                34.17747869
              ],
              [
                108.97705742,
                34.1770557
              ],
              [
                108.97764042,
                34.17532573
              ],
              [
                108.97912142,
                34.17564872
              ],
              [
                108.97923042,
                34.17558972
              ],
              [
                108.97968442,
                34.17404275
              ],
              [
                108.97979442,
                34.17366776
              ],
              [
                108.98035042,
                34.17177379
              ],
              [
                108.98143342,
                34.17206479
              ],
              [
                108.98159942,
                34.1712628
              ],
              [
                108.98186242,
                34.17052581
              ],
              [
                108.98395042,
                34.17094881
              ],
              [
                108.98519542,
                34.1711508
              ],
              [
                108.98675042,
                34.1714048
              ],
              [
                108.98921342,
                34.1713358
              ],
              [
                108.98987342,
                34.1714208
              ],
              [
                108.99009942,
                34.1714508
              ],
              [
                108.99119342,
                34.17190579
              ],
              [
                108.99160542,
                34.17214779
              ],
              [
                108.99258142,
                34.17308577
              ],
              [
                108.99328542,
                34.17313477
              ],
              [
                108.99323642,
                34.17369776
              ],
              [
                108.99572842,
                34.17377676
              ],
              [
                108.99573842,
                34.17469674
              ],
              [
                108.99700242,
                34.17490774
              ],
              [
                108.99806142,
                34.17552573
              ],
              [
                108.99826542,
                34.17445574
              ],
              [
                108.99954642,
                34.17448574
              ],
              [
                108.99952142,
                34.17649071
              ],
              [
                109.00233542,
                34.17663971
              ],
              [
                109.00256342,
                34.17842968
              ],
              [
                109.00873642,
                34.17918766
              ],
              [
                109.00882542,
                34.17907366
              ],
              [
                109.00935142,
                34.17840468
              ],
              [
                109.00963742,
                34.17807368
              ],
              [
                109.01041742,
                34.17807568
              ],
              [
                109.01039742,
                34.17846967
              ],
              [
                109.01127642,
                34.17846867
              ],
              [
                109.01275342,
                34.17846767
              ],
              [
                109.01293242,
                34.17956866
              ],
              [
                109.01753442,
                34.17963565
              ],
              [
                109.01750042,
                34.17824468
              ],
              [
                109.02102242,
                34.17831168
              ],
              [
                109.02115242,
                34.17849067
              ],
              [
                109.02115542,
                34.17897467
              ],
              [
                109.02060242,
                34.17895167
              ],
              [
                109.02056942,
                34.17970565
              ],
              [
                109.02170642,
                34.17972765
              ],
              [
                109.02166642,
                34.17749269
              ],
              [
                109.02320642,
                34.17752169
              ],
              [
                109.02358842,
                34.17630771
              ],
              [
                109.02417642,
                34.17630271
              ],
              [
                109.02438342,
                34.17630071
              ],
              [
                109.02553942,
                34.17628971
              ],
              [
                109.02588742,
                34.17762669
              ],
              [
                109.02720142,
                34.17768569
              ],
              [
                109.02716242,
                34.17868567
              ],
              [
                109.02769442,
                34.17870867
              ],
              [
                109.02772942,
                34.17832768
              ],
              [
                109.02859042,
                34.17834368
              ],
              [
                109.02928542,
                34.17835668
              ],
              [
                109.02931142,
                34.17789468
              ],
              [
                109.02992142,
                34.17785968
              ],
              [
                109.03028442,
                34.18026964
              ],
              [
                109.03152642,
                34.18036064
              ],
              [
                109.03134642,
                34.18173562
              ],
              [
                109.03404042,
                34.18192161
              ],
              [
                109.03346842,
                34.1824916
              ],
              [
                109.03476742,
                34.1825496
              ],
              [
                109.03515942,
                34.18199761
              ],
              [
                109.03571742,
                34.18200761
              ],
              [
                109.03538742,
                34.1827306
              ],
              [
                109.04021042,
                34.18315459
              ],
              [
                109.04065342,
                34.18523956
              ],
              [
                109.04377742,
                34.18711152
              ],
              [
                109.04380042,
                34.18757551
              ],
              [
                109.04381242,
                34.18783151
              ],
              [
                109.04466742,
                34.1884625
              ],
              [
                109.04451942,
                34.18943248
              ],
              [
                109.04534242,
                34.18917049
              ],
              [
                109.04700242,
                34.18932348
              ],
              [
                109.04702942,
                34.18881149
              ],
              [
                109.04803042,
                34.18889649
              ],
              [
                109.04801942,
                34.18936748
              ],
              [
                109.04855842,
                34.18947448
              ],
              [
                109.04891842,
                34.18898949
              ],
              [
                109.04902242,
                34.18911349
              ],
              [
                109.04910942,
                34.18955448
              ],
              [
                109.05031042,
                34.18979148
              ],
              [
                109.05029742,
                34.19049346
              ],
              [
                109.04966742,
                34.19159944
              ],
              [
                109.04942342,
                34.19192044
              ],
              [
                109.04705242,
                34.1941114
              ],
              [
                109.04649342,
                34.19490239
              ],
              [
                109.04642142,
                34.19526638
              ],
              [
                109.04650942,
                34.19556037
              ],
              [
                109.04679942,
                34.19601837
              ],
              [
                109.04691142,
                34.19638736
              ],
              [
                109.04682642,
                34.19680835
              ],
              [
                109.04662042,
                34.19715035
              ],
              [
                109.04628042,
                34.19749234
              ],
              [
                109.04586842,
                34.19774134
              ],
              [
                109.04522142,
                34.19797433
              ],
              [
                109.04500242,
                34.19819033
              ],
              [
                109.04470142,
                34.19880732
              ],
              [
                109.04469842,
                34.19926031
              ],
              [
                109.04447842,
                34.20048829
              ],
              [
                109.04395542,
                34.20141327
              ],
              [
                109.04316142,
                34.20513121
              ],
              [
                109.04296042,
                34.20626319
              ],
              [
                109.04289042,
                34.20734217
              ],
              [
                109.04300442,
                34.20807816
              ],
              [
                109.04323342,
                34.20877714
              ],
              [
                109.04403742,
                34.21029512
              ],
              [
                109.04449042,
                34.21177509
              ],
              [
                109.04390142,
                34.21300407
              ],
              [
                109.04339242,
                34.21429705
              ],
              [
                109.04345542,
                34.21470704
              ],
              [
                109.04378442,
                34.21556602
              ],
              [
                109.04382442,
                34.21602602
              ],
              [
                109.04356442,
                34.21639301
              ],
              [
                109.04355642,
                34.21651601
              ],
              [
                109.04377242,
                34.21860797
              ],
              [
                109.04385942,
                34.21898096
              ],
              [
                109.04420242,
                34.21973195
              ],
              [
                109.04434342,
                34.22057794
              ],
              [
                109.04436342,
                34.22220491
              ],
              [
                109.04403942,
                34.22316389
              ],
              [
                109.04402342,
                34.22387188
              ],
              [
                109.04414842,
                34.22425387
              ],
              [
                109.04461242,
                34.22480386
              ],
              [
                109.04461142,
                34.22553785
              ],
              [
                109.04441342,
                34.22712282
              ],
              [
                109.04438942,
                34.22865079
              ],
              [
                109.04451942,
                34.22978077
              ],
              [
                109.04478142,
                34.23049476
              ],
              [
                109.04482642,
                34.23061776
              ],
              [
                109.04492142,
                34.23133975
              ],
              [
                109.04553942,
                34.2340477
              ],
              [
                109.04556942,
                34.23537068
              ],
              [
                109.04557942,
                34.23581367
              ],
              [
                109.04628142,
                34.23897261
              ],
              [
                109.04616142,
                34.2399466
              ],
              [
                109.04602542,
                34.24018259
              ],
              [
                109.04528342,
                34.24068058
              ],
              [
                109.04498942,
                34.24119057
              ],
              [
                109.04488542,
                34.24197556
              ],
              [
                109.04489542,
                34.24248855
              ],
              [
                109.04512442,
                34.24331154
              ],
              [
                109.04547742,
                34.24406852
              ],
              [
                109.04546742,
                34.24452752
              ],
              [
                109.04504342,
                34.2456255
              ],
              [
                109.04488242,
                34.24651848
              ],
              [
                109.04484442,
                34.24747046
              ],
              [
                109.04463042,
                34.24935543
              ],
              [
                109.04447442,
                34.24985042
              ],
              [
                109.04386042,
                34.2508324
              ],
              [
                109.04362142,
                34.25153439
              ],
              [
                109.04361642,
                34.25248938
              ],
              [
                109.04352442,
                34.25266237
              ],
              [
                109.04321042,
                34.25272437
              ],
              [
                109.04232642,
                34.25277237
              ],
              [
                109.04205742,
                34.25272137
              ],
              [
                109.03797142,
                34.25272737
              ],
              [
                109.03696842,
                34.25272937
              ],
              [
                109.02904142,
                34.25274337
              ],
              [
                109.02893942,
                34.25274337
              ],
              [
                109.02664942,
                34.25274737
              ],
              [
                109.02613142,
                34.25273137
              ],
              [
                109.02618642,
                34.25237938
              ],
              [
                109.02618642,
                34.24913943
              ],
              [
                109.02618542,
                34.24681048
              ],
              [
                109.02615042,
                34.24315854
              ],
              [
                109.02608242,
                34.23615166
              ],
              [
                109.01971742,
                34.23613666
              ],
              [
                109.01969642,
                34.23751364
              ],
              [
                109.01913142,
                34.23752464
              ],
              [
                109.01916942,
                34.23937161
              ],
              [
                109.01838642,
                34.23936561
              ],
              [
                109.01838442,
                34.24068658
              ],
              [
                109.01133042,
                34.24068658
              ],
              [
                109.01136642,
                34.24439552
              ],
              [
                109.01136842,
                34.24458751
              ],
              [
                109.00953442,
                34.24460351
              ],
              [
                109.00701442,
                34.24462651
              ],
              [
                109.00526942,
                34.24464151
              ],
              [
                109.00519642,
                34.24464251
              ],
              [
                109.00360142,
                34.24465651
              ],
              [
                109.00170042,
                34.24467351
              ],
              [
                109.00097242,
                34.24467251
              ],
              [
                108.99851942,
                34.24467051
              ],
              [
                108.99736742,
                34.24466951
              ],
              [
                108.99618842,
                34.24466851
              ],
              [
                108.99245242,
                34.24466451
              ],
              [
                108.99234242,
                34.24429952
              ],
              [
                108.99206842,
                34.24418852
              ],
              [
                108.99163742,
                34.24428252
              ],
              [
                108.99060342,
                34.24398853
              ],
              [
                108.99083742,
                34.24375253
              ],
              [
                108.99098242,
                34.24348553
              ],
              [
                108.99042442,
                34.24322854
              ],
              [
                108.99021442,
                34.24315854
              ],
              [
                108.98789942,
                34.24238855
              ],
              [
                108.98761542,
                34.24270255
              ],
              [
                108.98375242,
                34.24103958
              ],
              [
                108.97893242,
                34.23900861
              ],
              [
                108.97947442,
                34.23832562
              ],
              [
                108.97868642,
                34.23808563
              ],
              [
                108.97803142,
                34.23863562
              ],
              [
                108.97701242,
                34.23821963
              ],
              [
                108.97719442,
                34.23798963
              ],
              [
                108.97738142,
                34.23774963
              ],
              [
                108.97687242,
                34.23753664
              ],
              [
                108.97661542,
                34.23805963
              ],
              [
                108.97550542,
                34.23759264
              ],
              [
                108.97593442,
                34.23686965
              ],
              [
                108.97524242,
                34.23662165
              ],
              [
                108.97481342,
                34.23729964
              ],
              [
                108.97456842,
                34.23721264
              ],
              [
                108.97667142,
                34.23373571
              ],
              [
                108.97431842,
                34.23275172
              ],
              [
                108.97428942,
                34.23273972
              ],
              [
                108.97265942,
                34.23205873
              ],
              [
                108.97197242,
                34.23185474
              ],
              [
                108.97141042,
                34.23183674
              ],
              [
                108.97028842,
                34.23180174
              ],
              [
                108.97009542,
                34.23271572
              ],
              [
                108.96891842,
                34.23449869
              ],
              [
                108.96874342,
                34.23476469
              ],
              [
                108.96849842,
                34.23466669
              ],
              [
                108.96919042,
                34.23362771
              ],
              [
                108.96991542,
                34.23253773
              ],
              [
                108.97000642,
                34.23229373
              ],
              [
                108.97002642,
                34.23210073
              ],
              [
                108.96943642,
                34.23210173
              ],
              [
                108.96780042,
                34.23210573
              ],
              [
                108.96784842,
                34.23303772
              ],
              [
                108.96791442,
                34.23434369
              ],
              [
                108.96791942,
                34.23443869
              ],
              [
                108.96790242,
                34.23443169
              ],
              [
                108.96631442,
                34.2337987
              ],
              [
                108.96611742,
                34.23372071
              ],
              [
                108.96551642,
                34.23348071
              ],
              [
                108.96455942,
                34.23312972
              ],
              [
                108.96436742,
                34.23305972
              ],
              [
                108.96371242,
                34.2339207
              ],
              [
                108.96342342,
                34.2337787
              ],
              [
                108.96350842,
                34.23360071
              ],
              [
                108.96285442,
                34.23354771
              ],
              [
                108.96169542,
                34.23315772
              ],
              [
                108.96224242,
                34.23217273
              ],
              [
                108.96084942,
                34.23159274
              ],
              [
                108.96045642,
                34.23152974
              ],
              [
                108.96037042,
                34.23151574
              ],
              [
                108.95933242,
                34.23151674
              ],
              [
                108.95915042,
                34.23151674
              ],
              [
                108.95697742,
                34.23151874
              ],
              [
                108.95615642,
                34.23151974
              ],
              [
                108.95501542,
                34.23152074
              ],
              [
                108.95507942,
                34.23315672
              ],
              [
                108.95540742,
                34.23315972
              ],
              [
                108.95541742,
                34.23358071
              ],
              [
                108.95550942,
                34.23358071
              ],
              [
                108.95553042,
                34.23467169
              ],
              [
                108.95529642,
                34.23467369
              ],
              [
                108.95531442,
                34.23537868
              ],
              [
                108.95532342,
                34.23572467
              ],
              [
                108.95342142,
                34.23572767
              ],
              [
                108.95342442,
                34.23617766
              ],
              [
                108.95183142,
                34.23616866
              ],
              [
                108.95183042,
                34.23558467
              ],
              [
                108.95073242,
                34.23558567
              ],
              [
                108.95068942,
                34.2339047
              ],
              [
                108.94946642,
                34.2339047
              ],
              [
                108.94946142,
                34.23328371
              ],
              [
                108.94928442,
                34.23328371
              ],
              [
                108.94925242,
                34.23152774
              ],
              [
                108.94904242,
                34.23151774
              ],
              [
                108.94897442,
                34.23151474
              ],
              [
                108.94370842,
                34.23157374
              ],
              [
                108.94372442,
                34.23180874
              ],
              [
                108.94215842,
                34.23180474
              ],
              [
                108.94206142,
                34.23180474
              ],
              [
                108.94196042,
                34.23180374
              ],
              [
                108.93863042,
                34.23177074
              ],
              [
                108.93863042,
                34.23154074
              ],
              [
                108.93592042,
                34.23149674
              ],
              [
                108.93436142,
                34.23147275
              ],
              [
                108.93374742,
                34.23146874
              ],
              [
                108.93284442,
                34.23146475
              ],
              [
                108.92731842,
                34.23144175
              ],
              [
                108.92720142,
                34.23144175
              ],
              [
                108.92610842,
                34.23148874
              ],
              [
                108.92579342,
                34.23150174
              ],
              [
                108.92505542,
                34.23174874
              ],
              [
                108.92446742,
                34.23200074
              ],
              [
                108.92343142,
                34.23244573
              ],
              [
                108.92247542,
                34.23285572
              ],
              [
                108.92213342,
                34.23298372
              ],
              [
                108.92165042,
                34.23227373
              ],
              [
                108.92128042,
                34.23247773
              ],
              [
                108.92049242,
                34.23287572
              ],
              [
                108.92023542,
                34.23247673
              ],
              [
                108.91971442,
                34.23272972
              ],
              [
                108.91988642,
                34.23307972
              ],
              [
                108.91921742,
                34.23341571
              ],
              [
                108.91961142,
                34.2341507
              ],
              [
                108.91917242,
                34.23434969
              ],
              [
                108.91793542,
                34.23489768
              ],
              [
                108.91525742,
                34.23609966
              ],
              [
                108.91162142,
                34.23773264
              ],
              [
                108.90811842,
                34.23930661
              ],
              [
                108.90492842,
                34.24073958
              ],
              [
                108.90456042,
                34.2397636
              ],
              [
                108.90447142,
                34.2396276
              ],
              [
                108.90415442,
                34.23914261
              ],
              [
                108.90375642,
                34.23915461
              ],
              [
                108.90341842,
                34.23919061
              ],
              [
                108.90286042,
                34.23918161
              ],
              [
                108.90244442,
                34.23918161
              ],
              [
                108.90206642,
                34.23917261
              ],
              [
                108.90192142,
                34.23901261
              ],
              [
                108.90177642,
                34.23897261
              ],
              [
                108.90146042,
                34.23895061
              ],
              [
                108.90111142,
                34.23892861
              ],
              [
                108.90098842,
                34.23892461
              ],
              [
                108.90087542,
                34.23872962
              ],
              [
                108.90038742,
                34.23891961
              ],
              [
                108.89951242,
                34.23928761
              ],
              [
                108.89849342,
                34.2397006
              ],
              [
                108.89833842,
                34.2397936
              ],
              [
                108.89693542,
                34.24040059
              ],
              [
                108.89642742,
                34.24062658
              ],
              [
                108.89615742,
                34.24074658
              ],
              [
                108.89581442,
                34.24090658
              ],
              [
                108.89615242,
                34.24144057
              ],
              [
                108.89645342,
                34.24189456
              ],
              [
                108.89667842,
                34.24223456
              ],
              [
                108.89704842,
                34.24278055
              ],
              [
                108.89725642,
                34.24309354
              ],
              [
                108.89755842,
                34.24354653
              ],
              [
                108.89778342,
                34.24387053
              ],
              [
                108.89571342,
                34.24477851
              ],
              [
                108.89547342,
                34.24488351
              ],
              [
                108.89285442,
                34.24078558
              ],
              [
                108.89098742,
                34.24156557
              ],
              [
                108.89036542,
                34.24055459
              ],
              [
                108.89034542,
                34.24055459
              ],
              [
                108.88731842,
                34.24057259
              ],
              [
                108.88616042,
                34.2397046
              ],
              [
                108.88614942,
                34.23941261
              ],
              [
                108.88506542,
                34.23940361
              ],
              [
                108.88506542,
                34.23884462
              ],
              [
                108.88326342,
                34.23883362
              ],
              [
                108.88322042,
                34.24110458
              ],
              [
                108.88043142,
                34.24106858
              ],
              [
                108.88036642,
                34.24287854
              ],
              [
                108.88015242,
                34.24349853
              ],
              [
                108.88023742,
                34.24390653
              ],
              [
                108.88060242,
                34.24426152
              ],
              [
                108.88086042,
                34.24436852
              ],
              [
                108.88171842,
                34.24440352
              ],
              [
                108.88302542,
                34.2453085
              ],
              [
                108.88326942,
                34.2454495
              ],
              [
                108.88474242,
                34.24630148
              ],
              [
                108.88473542,
                34.24666848
              ],
              [
                108.88469742,
                34.24879644
              ],
              [
                108.88563142,
                34.24945243
              ],
              [
                108.88515042,
                34.25022342
              ],
              [
                108.88493042,
                34.25150139
              ],
              [
                108.88492442,
                34.25314036
              ],
              [
                108.88454842,
                34.25335136
              ],
              [
                108.88438542,
                34.25356136
              ],
              [
                108.88437042,
                34.25368936
              ],
              [
                108.88331942,
                34.25374935
              ],
              [
                108.88331942,
                34.24661948
              ],
              [
                108.87705342,
                34.24661948
              ],
              [
                108.87703242,
                34.25376735
              ],
              [
                108.87685542,
                34.25376735
              ],
              [
                108.87346142,
                34.25375635
              ],
              [
                108.87248842,
                34.25375335
              ],
              [
                108.87137342,
                34.25375035
              ],
              [
                108.87127942,
                34.25375035
              ],
              [
                108.86743942,
                34.25373935
              ],
              [
                108.86300642,
                34.25373935
              ],
              [
                108.85815042,
                34.25373835
              ],
              [
                108.84996042,
                34.25373835
              ],
              [
                108.84970542,
                34.25399235
              ],
              [
                108.84964742,
                34.25430634
              ],
              [
                108.84965042,
                34.2565603
              ],
              [
                108.84849042,
                34.2565413
              ],
              [
                108.84855042,
                34.25547832
              ],
              [
                108.84774242,
                34.25543132
              ],
              [
                108.84779642,
                34.25440034
              ],
              [
                108.84882342,
                34.25435334
              ],
              [
                108.84881142,
                34.25399935
              ],
              [
                108.84449642,
                34.25399435
              ],
              [
                108.84334442,
                34.25583832
              ],
              [
                108.84222342,
                34.25557832
              ],
              [
                108.84214442,
                34.25556032
              ],
              [
                108.83999942,
                34.25501433
              ],
              [
                108.83686442,
                34.25444234
              ],
              [
                108.83693042,
                34.25391935
              ],
              [
                108.83716042,
                34.25210538
              ],
              [
                108.83624742,
                34.25209138
              ],
              [
                108.83623442,
                34.25259737
              ],
              [
                108.83547542,
                34.25257837
              ],
              [
                108.83528942,
                34.2510824
              ],
              [
                108.83151942,
                34.25033441
              ],
              [
                108.83115342,
                34.25255038
              ],
              [
                108.82974142,
                34.25234938
              ],
              [
                108.83018842,
                34.25053141
              ],
              [
                108.82860042,
                34.25022242
              ],
              [
                108.82615542,
                34.24974542
              ],
              [
                108.82642042,
                34.24867144
              ],
              [
                108.82569042,
                34.24854645
              ],
              [
                108.82571342,
                34.24831245
              ],
              [
                108.82322042,
                34.24773846
              ],
              [
                108.82327342,
                34.24741547
              ],
              [
                108.82244442,
                34.24721947
              ],
              [
                108.82209442,
                34.24877544
              ],
              [
                108.82134842,
                34.24864144
              ],
              [
                108.82060242,
                34.25061541
              ],
              [
                108.82003542,
                34.25211638
              ],
              [
                108.81529442,
                34.24836645
              ],
              [
                108.81468442,
                34.2509034
              ],
              [
                108.81091542,
                34.25080641
              ],
              [
                108.81092542,
                34.25042241
              ],
              [
                108.80764642,
                34.25035941
              ],
              [
                108.80630742,
                34.25042341
              ],
              [
                108.80650342,
                34.24790946
              ],
              [
                108.80542342,
                34.24781846
              ],
              [
                108.80562742,
                34.2455485
              ],
              [
                108.80749442,
                34.2455925
              ],
              [
                108.80748542,
                34.24485051
              ],
              [
                108.80719242,
                34.24467251
              ],
              [
                108.80663342,
                34.24462651
              ],
              [
                108.80662142,
                34.24441652
              ],
              [
                108.80721642,
                34.24440252
              ],
              [
                108.80718542,
                34.24321654
              ],
              [
                108.80542042,
                34.24203956
              ],
              [
                108.80521942,
                34.24180256
              ],
              [
                108.80471042,
                34.24195256
              ],
              [
                108.80455142,
                34.24291254
              ],
              [
                108.80283042,
                34.24283755
              ],
              [
                108.80264742,
                34.24083158
              ],
              [
                108.80247642,
                34.23833662
              ]
            ],
            [
              [
                108.86760042,
                34.24250855
              ],
              [
                108.86781642,
                34.24272955
              ],
              [
                108.86852442,
                34.24342154
              ],
              [
                108.86935042,
                34.24431652
              ],
              [
                108.87032642,
                34.2452745
              ],
              [
                108.87153942,
                34.24662248
              ],
              [
                108.87255242,
                34.24662048
              ],
              [
                108.87330342,
                34.24661148
              ],
              [
                108.87331442,
                34.2455555
              ],
              [
                108.87332242,
                34.24498451
              ],
              [
                108.87333642,
                34.24405752
              ],
              [
                108.87328242,
                34.24278855
              ],
              [
                108.87331442,
                34.24187556
              ],
              [
                108.87158742,
                34.24190156
              ],
              [
                108.87006342,
                34.24199056
              ],
              [
                108.86925342,
                34.24193456
              ],
              [
                108.86917342,
                34.24192856
              ],
              [
                108.86828242,
                34.24192856
              ],
              [
                108.86762842,
                34.24193756
              ],
              [
                108.86760042,
                34.24250855
              ]
            ],
            [
              [
                108.91716442,
                34.23148674
              ],
              [
                108.91718642,
                34.23153574
              ],
              [
                108.91765042,
                34.23132375
              ],
              [
                108.91716442,
                34.23148674
              ]
            ],
            [
              [
                108.94750642,
                34.21524603
              ],
              [
                108.94761742,
                34.21328706
              ],
              [
                108.94876242,
                34.21326706
              ],
              [
                108.94761642,
                34.21328706
              ],
              [
                108.94750642,
                34.21524603
              ]
            ],
            [
              [
                108.96427042,
                34.21503503
              ],
              [
                108.96489242,
                34.21502003
              ],
              [
                108.96488242,
                34.21325706
              ],
              [
                108.96489142,
                34.21502003
              ],
              [
                108.96427042,
                34.21503503
              ]
            ]
          ],
          [
            [
              [
                108.87898542,
                34.25309837
              ],
              [
                108.87900142,
                34.25232738
              ],
              [
                108.87904942,
                34.25157739
              ],
              [
                108.87910142,
                34.2513284
              ],
              [
                108.87938742,
                34.2513424
              ],
              [
                108.87984342,
                34.25142239
              ],
              [
                108.88073242,
                34.25176339
              ],
              [
                108.88140842,
                34.25210938
              ],
              [
                108.88208742,
                34.25251238
              ],
              [
                108.88220242,
                34.25275437
              ],
              [
                108.88223442,
                34.25370535
              ],
              [
                108.88169942,
                34.25370335
              ],
              [
                108.87904742,
                34.25369635
              ],
              [
                108.87899542,
                34.25357336
              ],
              [
                108.87898542,
                34.25309837
              ]
            ]
          ]
        ]
      }
    }
  ],
  "_bbox": [
    108.80247642,
    34.1655909,
    109.05031042,
    34.2565603
  ]
}