{"type":"FeatureCollection","features":[{"type":"Feature","properties":{"FID":6,"NAME":"鱼化寨街道","code":"610113006000","PAC":"610113","省":"陕西省","省代码":"610000","市":"西安市","市代码":"610100","类型":"乡镇","grade":4,"layer":"乡镇"},"geometry":{"type":"MultiPolygon","coordinates":[[[[108.88223442,34.25370535],[108.88169942,34.25370335],[108.87904742,34.25369635],[108.87899542,34.25357336],[108.87898542,34.25309837],[108.87900142,34.25232738],[108.87904942,34.25157739],[108.87910142,34.2513284],[108.87938742,34.2513424],[108.87984342,34.25142239],[108.88073242,34.25176339],[108.88140842,34.25210938],[108.88208742,34.25251238],[108.88220242,34.25275437],[108.88223442,34.25370535]]],[[[108.84144742,34.21277007],[108.84345642,34.21297607],[108.84351142,34.21303407],[108.84344442,34.21341406],[108.84349642,34.21350406],[108.84526642,34.21365006],[108.84618342,34.21379705],[108.84618642,34.21412905],[108.84634342,34.21418305],[108.84786642,34.21425605],[108.84974342,34.21434605],[108.84986342,34.21451404],[108.85002242,34.21547603],[108.85044442,34.21556302],[108.85073142,34.21576502],[108.85119742,34.21589702],[108.85430642,34.21601102],[108.85470642,34.21602602],[108.85518242,34.21606702],[108.85654642,34.21618301],[108.85664642,34.21629001],[108.85638642,34.21779299],[108.85837142,34.21800698],[108.85984942,34.21772599],[108.86182242,34.21784198],[108.86478842,34.21840597],[108.86425842,34.22060994],[108.86353942,34.2227569],[108.86351742,34.2228189],[108.86345242,34.22307389],[108.86312442,34.22436187],[108.86261942,34.22634183],[108.86208442,34.2282448],[108.86282242,34.2283718],[108.86334342,34.2285168],[108.86346042,34.22861379],[108.86333842,34.22894179],[108.86323842,34.23004877],[108.86329342,34.23011477],[108.86409442,34.23031777],[108.86400142,34.23124775],[108.86602442,34.23152074],[108.86626642,34.23317072],[108.86656442,34.2341457],[108.86688542,34.23519368],[108.86785442,34.23522768],[108.86760942,34.23890161],[108.86509842,34.23886662],[108.86486142,34.23886362],[108.86492942,34.23895461],[108.86663742,34.24122757],[108.86681342,34.24146157],[108.86760042,34.24250855],[108.86781642,34.24272955],[108.86852442,34.24342154],[108.86935042,34.24431652],[108.87032642,34.2452745],[108.87153942,34.24662248],[108.87166142,34.24671648],[108.87199642,34.24697347],[108.87665542,34.25054541],[108.87664842,34.25142039],[108.87663342,34.25347236],[108.87187342,34.25361036],[108.86995142,34.25366636],[108.86919042,34.25368836],[108.86743942,34.25373935],[108.86438642,34.25373935],[108.86300642,34.25373935],[108.85815042,34.25373835],[108.85682842,34.25373835],[108.84996042,34.25373835],[108.84970542,34.25399235],[108.84964742,34.25430634],[108.84965042,34.2565603],[108.84849042,34.2565413],[108.84855042,34.25547832],[108.84774242,34.25543132],[108.84779642,34.25440034],[108.84882342,34.25435334],[108.84881142,34.25399935],[108.84449642,34.25399435],[108.84334442,34.25583832],[108.84222342,34.25557832],[108.84214442,34.25556032],[108.83999942,34.25501433],[108.83686442,34.25444234],[108.83693042,34.25391935],[108.83716042,34.25210538],[108.83624742,34.25209138],[108.83623442,34.25259737],[108.83547542,34.25257837],[108.83528942,34.2510824],[108.83151942,34.25033441],[108.83115342,34.25255038],[108.82974142,34.25234938],[108.83018842,34.25053141],[108.82860042,34.25022242],[108.82615542,34.24974542],[108.82642042,34.24867144],[108.82569042,34.24854645],[108.82571342,34.24831245],[108.82322042,34.24773846],[108.82327342,34.24741547],[108.82244442,34.24721947],[108.82209442,34.24877544],[108.82134842,34.24864144],[108.82060242,34.25061541],[108.82003542,34.25211638],[108.81529442,34.24836645],[108.81468442,34.2509034],[108.81091542,34.25080641],[108.81092542,34.25042241],[108.80764642,34.25035941],[108.80630742,34.25042341],[108.80650342,34.24790946],[108.80542342,34.24781846],[108.80562742,34.2455485],[108.80749442,34.2455925],[108.80748542,34.24485051],[108.80719242,34.24467251],[108.80663342,34.24462651],[108.80662142,34.24441652],[108.80721642,34.24440252],[108.80718542,34.24321654],[108.80542042,34.24203956],[108.80521942,34.24180256],[108.80471042,34.24195256],[108.80455142,34.24291254],[108.80283042,34.24283755],[108.80264742,34.24083158],[108.80247642,34.23833662],[108.80401642,34.2395196],[108.80373442,34.23624466],[108.80371642,34.23603866],[108.80368842,34.23571467],[108.80344942,34.23452569],[108.80345642,34.2342497],[108.80365242,34.23363671],[108.80412542,34.23254473],[108.80533642,34.23308372],[108.80536842,34.23320771],[108.80605542,34.23352671],[108.80641342,34.23226273],[108.80824142,34.23235373],[108.80814242,34.23330371],[108.80929842,34.23329471],[108.80934342,34.23156874],[108.80996842,34.23145675],[108.81005242,34.22992777],[108.81121342,34.22993177],[108.81129342,34.22868279],[108.81519242,34.2285768],[108.81525442,34.22788681],[108.81601842,34.22785781],[108.81602442,34.22720882],[108.81605342,34.22421187],[108.81590242,34.22419987],[108.81521842,34.22442187],[108.81518342,34.2229249],[108.81448642,34.22300089],[108.81483842,34.22127892],[108.81291142,34.22121092],[108.81216442,34.22146992],[108.81153742,34.216828],[108.81020342,34.216793],[108.81000642,34.21502703],[108.81105142,34.21497203],[108.81102542,34.21166709],[108.81102342,34.2114531],[108.81101742,34.21069511],[108.81159342,34.21072811],[108.81160842,34.2112461],[108.81667542,34.21090711],[108.81678942,34.21000812],[108.81752042,34.21032812],[108.81732542,34.21159909],[108.82090142,34.21165609],[108.82096142,34.21171809],[108.82074042,34.21378706],[108.82203442,34.21385905],[108.82193842,34.21582302],[108.82514142,34.21612601],[108.82647142,34.21570102],[108.82612742,34.217062],[108.82688642,34.217183],[108.82843642,34.21384405],[108.82846842,34.21365006],[108.82701042,34.21350306],[108.82751442,34.21182209],[108.82577642,34.2113841],[108.82574442,34.2113221],[108.82738342,34.20940413],[108.82648842,34.20899114],[108.82717042,34.20797516],[108.82569042,34.20663018],[108.82418642,34.20798816],[108.82335642,34.20732117],[108.82426542,34.2053332],[108.82250842,34.20365223],[108.82285742,34.20161827],[108.82356842,34.20166227],[108.82484942,34.20245925],[108.82622442,34.20267325],[108.82733442,34.20306124],[108.82756442,34.20307424],[108.82784042,34.20296025],[108.82805142,34.20244325],[108.82901042,34.20253625],[108.82920042,34.20265525],[108.82926942,34.20308424],[108.83010542,34.20330024],[108.83016342,34.20346624],[108.83014742,34.20394023],[108.83026842,34.20418022],[108.83208642,34.20440422],[108.83327242,34.20455122],[108.83335842,34.20485521],[108.83336242,34.2052752],[108.83314942,34.20723717],[108.83315542,34.20734617],[108.83330442,34.20751216],[108.83775242,34.20823515],[108.83865242,34.20848015],[108.83917042,34.20839515],[108.84013342,34.20855115],[108.84220342,34.20888914],[108.84203442,34.21017612],[108.84164842,34.21157109],[108.84144742,34.21277007]]]]}}]}