{"type":"FeatureCollection","features":[{"type":"Feature","properties":{"FID":9,"NAME":"枣园街道","code":"610104009000","PAC":"610104","省":"陕西省","省代码":"610000","市":"西安市","市代码":"610100","类型":"乡镇","grade":4,"layer":"乡镇"},"geometry":{"type":"MultiPolygon","coordinates":[[[[108.85088742,34.27010107],[108.85089842,34.26919608],[108.85090842,34.2683271],[108.85251742,34.2683181],[108.85251242,34.26920508],[108.85250742,34.27013607],[108.85088742,34.27010107]]],[[[108.86300642,34.25373935],[108.86438642,34.25373935],[108.86743942,34.25373935],[108.86752942,34.25391735],[108.86751942,34.25598531],[108.86750242,34.25939226],[108.86750142,34.25949625],[108.86749942,34.25994424],[108.86749742,34.26038124],[108.86749842,34.26063223],[108.86749942,34.26093723],[108.86750142,34.26148522],[108.86750842,34.26379318],[108.86750842,34.26389218],[108.86748242,34.26500216],[108.86745142,34.26633213],[108.86744942,34.26643413],[108.86744642,34.26654113],[108.86735842,34.27029406],[108.86771142,34.27029406],[108.87479942,34.27035906],[108.87615842,34.27037206],[108.87618142,34.27060006],[108.87579142,34.27080405],[108.87566242,34.27102305],[108.87567442,34.27120805],[108.87579242,34.27298602],[108.87583942,34.27322101],[108.87586642,34.27336001],[108.87597542,34.273908],[108.87609442,34.27435199],[108.87613742,34.27451199],[108.87657241,34.27614196],[108.87676642,34.27686995],[108.87679942,34.27694995],[108.87687542,34.27721594],[108.87688942,34.27753194],[108.87689342,34.27761293],[108.87690742,34.27791593],[108.87691742,34.2793529],[108.87692842,34.28030989],[108.87691842,34.28067888],[108.87691542,34.28076888],[108.87691342,34.28085188],[108.87689642,34.28144487],[108.87706542,34.28186986],[108.87706542,34.28195586],[108.87706442,34.28205686],[108.87705842,34.28331983],[108.87368442,34.28441682],[108.87219942,34.28489981],[108.87039342,34.2854868],[108.86724742,34.28650978],[108.86721542,34.28814575],[108.86719542,34.28917173],[108.86714042,34.29204768],[108.86713642,34.29249767],[108.86589242,34.29287467],[108.86510942,34.29293667],[108.86499142,34.29280367],[108.86256642,34.29302966],[108.86252342,34.29411064],[108.85996942,34.29412864],[108.85874642,34.29409364],[108.85675142,34.29411064],[108.85445542,34.29419964],[108.85324242,34.29416664],[108.85252442,34.29414664],[108.85039942,34.29409364],[108.85035642,34.29345466],[108.85037842,34.29217868],[108.85050742,34.29171769],[108.85179442,34.2909907],[108.85057142,34.29056571],[108.84984442,34.29011272],[108.84954042,34.28972272],[108.84920442,34.28896373],[108.84927242,34.2853608],[108.84923442,34.2852458],[108.84911342,34.28487581],[108.85009242,34.28438482],[108.85019942,34.28433082],[108.84996842,34.28343983],[108.85030142,34.28308584],[108.85121342,34.28257585],[108.85094842,34.28119887],[108.85058742,34.28120387],[108.85050242,34.28074288],[108.85045942,34.28038889],[108.85087442,34.28029489],[108.85076742,34.2793859],[108.85076842,34.2793229],[108.85078642,34.27784093],[108.85078542,34.27663995],[108.85078542,34.27581097],[108.85084842,34.27496998],[108.85266942,34.27498198],[108.85265842,34.27445899],[108.85488742,34.27447099],[108.85494642,34.27183604],[108.85496242,34.27111405],[108.85498442,34.27086705],[108.85431942,34.27085005],[108.85429742,34.27041506],[108.85394342,34.27040706],[108.85396642,34.26887509],[108.85467442,34.26889309],[108.85468442,34.26779311],[108.85470642,34.26665813],[108.85140142,34.26672913],[108.85035042,34.26719912],[108.84956742,34.26719912],[108.84951442,34.26717212],[108.84951642,34.26635613],[108.85069142,34.26636013],[108.85066442,34.26452916],[108.85231642,34.26453316],[108.85233842,34.26332819],[108.84952242,34.26331019],[108.84952342,34.26292119],[108.84952742,34.26068023],[108.85084942,34.26086623],[108.85084342,34.25839627],[108.85082242,34.25797928],[108.85028542,34.25837827],[108.84986742,34.25911426],[108.84952942,34.25951325],[108.84953042,34.25903926],[108.84954242,34.25824427],[108.84956342,34.2569063],[108.84965042,34.2565603],[108.84964742,34.25430634],[108.84970542,34.25399235],[108.84996042,34.25373835],[108.85682842,34.25373835],[108.85815042,34.25373835],[108.86300642,34.25373935]]]]}}]}