{"type":"FeatureCollection","features":[{"type":"Feature","properties":{"FID":8,"NAME":"丈八沟街道","code":"610113007000","PAC":"610113","省":"陕西省","省代码":"610000","市":"西安市","市代码":"610100","类型":"乡镇","grade":4,"layer":"乡镇"},"geometry":{"type":"Polygon","coordinates":[[[108.85922042,34.18114963],[108.85927842,34.18110463],[108.85948342,34.18093963],[108.86064942,34.18001065],[108.86235942,34.18003765],[108.86194842,34.17786968],[108.86269342,34.17793268],[108.86278742,34.17887267],[108.86443042,34.17889067],[108.86451642,34.18123463],[108.87039542,34.18123463],[108.87073742,34.18122463],[108.87242342,34.18117563],[108.87411042,34.18124463],[108.87414542,34.18374858],[108.87523742,34.18377558],[108.87524842,34.18743452],[108.87553542,34.18745752],[108.87563742,34.18756052],[108.87566142,34.18774951],[108.87598042,34.18804851],[108.87758142,34.18898949],[108.87861142,34.18971548],[108.87990942,34.19030647],[108.88091642,34.19076546],[108.88250542,34.19088246],[108.88325642,34.19093846],[108.88557342,34.19097446],[108.88604542,34.19182544],[108.88638942,34.19250043],[108.88694742,34.19349441],[108.88746242,34.1942044],[108.88909042,34.19689335],[108.88947942,34.19778534],[108.89020542,34.19888132],[108.89063542,34.1998363],[108.89089542,34.20010729],[108.89135642,34.20058629],[108.89171042,34.20091428],[108.89216342,34.20147127],[108.89271242,34.20204826],[108.89344442,34.20292925],[108.89355942,34.20298824],[108.89454642,34.20408723],[108.89582242,34.2053642],[108.89571742,34.2053252],[108.89635142,34.20598919],[108.89634342,34.20657918],[108.89633242,34.20737117],[108.89640942,34.20743417],[108.89629142,34.20752517],[108.89631342,34.20884314],[108.89651742,34.20899514],[108.89649542,34.21011212],[108.89951042,34.21021312],[108.89957142,34.2114141],[108.89953742,34.21171009],[108.89678142,34.21172309],[108.89676542,34.21331106],[108.89676242,34.21354306],[108.89695542,34.21358306],[108.89702142,34.21359706],[108.89718742,34.21640501],[108.89800642,34.21643501],[108.89908042,34.21805198],[108.90040942,34.22005395],[108.90341342,34.21891897],[108.90515142,34.21810198],[108.90648242,34.21989395],[108.90372642,34.22135192],[108.90177742,34.2223819],[108.90125842,34.2226569],[108.89895642,34.22387488],[108.89898342,34.22518686],[108.90158542,34.22924678],[108.90268142,34.23095575],[108.90299942,34.23117675],[108.89969442,34.23270272],[108.89746742,34.23364371],[108.89495642,34.23470869],[108.89272442,34.23573667],[108.89027842,34.23681965],[108.89081542,34.23764064],[108.89113642,34.23813163],[108.89117942,34.23819363],[108.89172742,34.23899561],[108.89205942,34.2394806],[108.89285442,34.24078558],[108.89098742,34.24156557],[108.89036542,34.24055459],[108.89034542,34.24055459],[108.88731842,34.24057259],[108.88616042,34.2397046],[108.88614942,34.23941261],[108.88506542,34.23940361],[108.88506542,34.23884462],[108.88326342,34.23883362],[108.88322042,34.24110458],[108.88043142,34.24106858],[108.88036642,34.24287854],[108.88015242,34.24349853],[108.88023742,34.24390653],[108.88060242,34.24426152],[108.88086042,34.24436852],[108.88171842,34.24440352],[108.88302542,34.2453085],[108.88326942,34.2454495],[108.88474242,34.24630148],[108.88473542,34.24666848],[108.88469742,34.24879644],[108.88563142,34.24945243],[108.88515042,34.25022342],[108.88493042,34.25150139],[108.88492442,34.25314036],[108.88454842,34.25335136],[108.88438542,34.25356136],[108.88437042,34.25368936],[108.88331942,34.25374935],[108.88331942,34.25251638],[108.88331942,34.25144339],[108.88331942,34.24863944],[108.88331942,34.24802445],[108.88331942,34.24661948],[108.88011742,34.24661948],[108.88010142,34.24661948],[108.87710242,34.24661948],[108.87705342,34.24661948],[108.87703242,34.25376735],[108.87693342,34.25376735],[108.87685542,34.25376735],[108.87346142,34.25375635],[108.87248842,34.25375335],[108.87137342,34.25375035],[108.87127942,34.25375035],[108.86743942,34.25373935],[108.86919042,34.25368836],[108.86995142,34.25366636],[108.87187342,34.25361036],[108.87663342,34.25347236],[108.87664842,34.25142039],[108.87665542,34.25054541],[108.87199642,34.24697347],[108.87166142,34.24671648],[108.87153942,34.24662248],[108.87255242,34.24662048],[108.87330342,34.24661148],[108.87331442,34.2455555],[108.87332242,34.24498451],[108.87333642,34.24405752],[108.87328242,34.24278855],[108.87331442,34.24187556],[108.87158742,34.24190156],[108.87006342,34.24199056],[108.86925342,34.24193456],[108.86917342,34.24192856],[108.86828242,34.24192856],[108.86762842,34.24193756],[108.86760042,34.24250855],[108.86681342,34.24146157],[108.86663742,34.24122757],[108.86492942,34.23895461],[108.86486142,34.23886362],[108.86509842,34.23886662],[108.86760942,34.23890161],[108.86785442,34.23522768],[108.86688542,34.23519368],[108.86656442,34.2341457],[108.86626642,34.23317072],[108.86602442,34.23152074],[108.86400142,34.23124775],[108.86409442,34.23031777],[108.86329342,34.23011477],[108.86323842,34.23004877],[108.86333842,34.22894179],[108.86346042,34.22861379],[108.86334342,34.2285168],[108.86282242,34.2283718],[108.86208442,34.2282448],[108.86261942,34.22634183],[108.86312442,34.22436187],[108.86345242,34.22307389],[108.86351742,34.2228189],[108.86353942,34.2227569],[108.86425842,34.22060994],[108.86478842,34.21840597],[108.86182242,34.21784198],[108.85984942,34.21772599],[108.85837142,34.21800698],[108.85638642,34.21779299],[108.85664642,34.21629001],[108.85654642,34.21618301],[108.85518242,34.21606702],[108.85470642,34.21602602],[108.85430642,34.21601102],[108.85119742,34.21589702],[108.85073142,34.21576502],[108.85044442,34.21556302],[108.85002242,34.21547603],[108.84986342,34.21451404],[108.84974342,34.21434605],[108.84786642,34.21425605],[108.84634342,34.21418305],[108.84618642,34.21412905],[108.84618342,34.21379705],[108.84526642,34.21365006],[108.84349642,34.21350406],[108.84344442,34.21341406],[108.84351142,34.21303407],[108.84345642,34.21297607],[108.84144742,34.21277007],[108.84164842,34.21157109],[108.84203442,34.21017612],[108.84220342,34.20888914],[108.84013342,34.20855115],[108.83917042,34.20839515],[108.83865242,34.20848015],[108.83775242,34.20823515],[108.83330442,34.20751216],[108.83315542,34.20734617],[108.83314942,34.20723717],[108.83336242,34.2052752],[108.83335842,34.20485521],[108.83327242,34.20455122],[108.83208642,34.20440422],[108.83026842,34.20418022],[108.83014742,34.20394023],[108.83016342,34.20346624],[108.83010542,34.20330024],[108.82926942,34.20308424],[108.82920042,34.20265525],[108.82901042,34.20253625],[108.82805142,34.20244325],[108.82784042,34.20296025],[108.82756442,34.20307424],[108.82733442,34.20306124],[108.82622442,34.20267325],[108.82484942,34.20245925],[108.82356842,34.20166227],[108.82369142,34.20087628],[108.82182042,34.20076428],[108.82160842,34.20133827],[108.82220042,34.20142527],[108.82211342,34.20198926],[108.82119542,34.20192726],[108.82128542,34.20127027],[108.81963742,34.20082428],[108.81975342,34.1997113],[108.82040642,34.19445539],[108.82850242,34.19577837],[108.82885842,34.19520538],[108.83195042,34.19569937],[108.83469342,34.19613836],[108.83524442,34.19316742],[108.83650742,34.1944074],[108.83691242,34.19179944],[108.83904542,34.19193144],[108.83983342,34.1882645],[108.84167742,34.1883565],[108.84338942,34.1884425],[108.84368442,34.18652753],[108.84308742,34.18647153],[108.84325342,34.18491456],[108.84414642,34.18540255],[108.84466842,34.18312659],[108.84774142,34.18309159],[108.84786942,34.18200561],[108.85100742,34.18209461],[108.85108042,34.18125163],[108.85231542,34.18115263],[108.85232542,34.18008765],[108.85275842,34.18005765],[108.85268942,34.18211961],[108.85484842,34.18231261],[108.85825942,34.18140562],[108.85922042,34.18114963]]]}}]}