{"type":"FeatureCollection","features":[{"type":"Feature","properties":{"FID":8,"NAME":"张家村街道","code":"610103008000","PAC":"610103","省":"陕西省","省代码":"610000","市":"西安市","市代码":"610100","类型":"乡镇","grade":4,"layer":"乡镇"},"geometry":{"type":"Polygon","coordinates":[[[108.91961142,34.2341507],[108.91890242,34.23282872],[108.91921742,34.23341571],[108.91988642,34.23307972],[108.91971442,34.23272972],[108.92023542,34.23247673],[108.92049242,34.23287572],[108.92128042,34.23247773],[108.92165042,34.23227373],[108.92213342,34.23298372],[108.92247542,34.23285572],[108.92343142,34.23244573],[108.92446742,34.23200074],[108.92505542,34.23174874],[108.92579342,34.23150174],[108.92610842,34.23148874],[108.92720142,34.23144175],[108.92731842,34.23144175],[108.93284442,34.23146475],[108.93374742,34.23146874],[108.93380642,34.23168574],[108.93410142,34.23195174],[108.93409042,34.23231173],[108.93292542,34.23232173],[108.93286142,34.23232273],[108.93198442,34.23232973],[108.93198442,34.23249373],[108.93194142,34.23280872],[108.93190942,34.23317671],[108.93401842,34.23319971],[108.93397042,34.23581967],[108.93391542,34.23652866],[108.93388442,34.23693765],[108.93434042,34.23694665],[108.93434542,34.23721964],[108.93369042,34.23725964],[108.93359142,34.23859162],[108.93367742,34.2399046],[108.93381842,34.24055559],[108.93378642,34.24198356],[108.93384042,34.24264555],[108.93384442,34.24268655],[108.93384842,34.24273855],[108.93391642,34.24355953],[108.93390142,34.24497651],[108.93424542,34.24497751],[108.93424642,34.2454425],[108.93383742,34.2454425],[108.93383642,34.24634448],[108.93384242,34.24665548],[108.93384942,34.24705647],[108.93385242,34.24810245],[108.93349342,34.24812045],[108.93349342,34.24866344],[108.93349242,34.24929143],[108.93350342,34.24996542],[108.93380342,34.25008942],[108.93381042,34.25075641],[108.93381442,34.2510094],[108.93382842,34.25202238],[108.93435342,34.25202738],[108.93435042,34.25234138],[108.93434842,34.25255038],[108.93430142,34.25255337],[108.93387342,34.25258537],[108.93377842,34.25259337],[108.93362442,34.25260537],[108.93176442,34.25259037],[108.93134642,34.25258937],[108.93140942,34.25220338],[108.92798042,34.25220138],[108.92751942,34.25220138],[108.92524642,34.25220138],[108.92294842,34.25220038],[108.91989842,34.25219938],[108.91871742,34.25219938],[108.91872042,34.25017942],[108.91555142,34.25018842],[108.91556442,34.24952843],[108.91546742,34.24952743],[108.91062942,34.24954843],[108.90901342,34.24955643],[108.90896842,34.24896144],[108.90884142,34.24894744],[108.90883442,34.24825845],[108.90651042,34.24822345],[108.90624142,34.24775946],[108.90544542,34.24675248],[108.90545042,34.24614649],[108.90537442,34.24614749],[108.90541042,34.24320954],[108.90543142,34.24150557],[108.90492842,34.24073958],[108.90811842,34.23930661],[108.91162142,34.23773264],[108.91525742,34.23609966],[108.91793542,34.23489768],[108.91917242,34.23434969],[108.91961142,34.2341507]]]}}]}